UNLOCODE,Alternative UNLOCODEs,Terminal Code,Terminal Facility Name,Terminal Company Name,Latitude (DMS),Longitude (DMS),Latitude,Longitude,Last change,Valid from,Valid until,Terminal Website,Terminal Address,Remarks
AEJEA,,DPWJA,DP WORLD JEBEL ALI - CT1,DP WORLD JEBEL ALI,"N 24°59'32""","E 055°03'58""",24.992222,55.066111,,2012-10-05,,https://dpworld.ae/our-portfolio/jebel-ali-port/,"PO Box 17000, Dubai, United Arab Emirates",
AEJEA,,DPWJ2,DP WORLD JEBEL ALI - CT2,DP WORLD JEBEL ALI,"N 25°01'20""","E 055°03'42""",25.022222,55.061667,,2015-02-05,,https://dpworld.ae/our-portfolio/jebel-ali-port/,"PO Box 17000, Dubai, United Arab Emirates",
AEJEA,,DPWJ3,DP WORLD JEBEL ALI - CT3,DP WORLD JEBEL ALI,"N 24°59'21""","E 055°03'03""",24.989167,55.050833,2020-01-03,2015-02-05,,https://dpworld.ae/our-portfolio/jebel-ali-port/,"PO Box 17000, Dubai, United Arab Emirates",
AEJEA,,DPWJ4,DP WORLD JEBEL ALI - CT4,DP WORLD JEBEL ALI,"N 25°01'57""","E 055°03'06""",25.0325,55.051667,,2019-06-04,,https://dpworld.ae/our-portfolio/jebel-ali-port/,"PO Box 17000, Dubai, United Arab Emirates",
AEKHL,,CSP,CSP ABU DHABI TERMINAL,COSCO SHIPPING PORTS ABU DHABI TERMINAL LLC,"N 24°49'01""","E 054°39'44""",24.816944,54.662222,2021-03-01,2020-12-01,,https://www.cspadt.ae,"CSP Abu Dhabi Terminal LLC, P.O Box 25530, Khalifa Port, Abu Dhabi, U.A.E.","Berths B07,B08,B09."
AEKHL,,ADT,KHALIFA PORT CONTAINER TERMINAL,ABU DHABI TERMINALS,"N 24°48'27""","E 054°38'58""",24.8075,54.649444,2021-03-01,2015-05-03,,https://www.adterminals.ae,"Khalifa Port Container Terminal Building 70 Taweelah, Abu Dhabi, U.A.E.",
AEKLF,,KCTKLF,KHORFAKKAN CONTAINER TERMINAL,KHORFAKKAN CONTAINER TERMINAL,"N 25°22'42""","E 056°22'31""",25.378333,56.375278,,2015-11-05,,https://www.gulftainer.com/terminals/uae/khorfakkan-container-terminal/,"P.O. Box 10326, Khorfakkan, U.A.E.",
AESHJ,,SHJSCT,SHARJAH CONTAINER TERMINAL,GULFTAINER CO LTD - SHARJAH,"N 25°21'29""","E 055°22'15""",25.358172,55.370769,,2019-03-19,,https://www.gulftainer.com/terminals/uae/sharjah-container-terminal/,"Port Khalid, P.O. Box 225, Sharjah, U.A.E.",
AOLAD,,SOPO,TERMINAL 5M - SOPORTOS,TERMINAL 5M - SOPORTOS,"S 08°47'13""","E 013°16'18""",-8.786944,13.271667,2020-01-03,2015-09-22,,,,
ARBHI,,TBB,TERMINAL BAHIA BLANCA,TERMINAL BAHIA BLANCA,"S 38°47'22""","W 062°16'37""",-38.789444,-62.276944,,2004-05-31,,https://puertobahiablanca.com/terminal-bb-eng.html,,
ARBUE,,TERM4,APM TERMINALS BUENOS AIRES T4,TERMINAL 4 S.A. / APM TERMINALS,"S 34°34'49""","W 058°22'05""",-34.580278,-58.368056,2020-08-01,2004-05-31,,https://www.apmterminals.com/en/buenos-aires,"Terminal 4, Calle 8 y Av. Edison S/N, Puerto Nuevo, C1104BCA Buenos Aires, Argentina",Terminal 4
ARBUE,,EXOL,EXOLGAN CONTAINER TERMINAL BUENOS AIRES,EXOLGAN S.A.,"S 34°38'24""","W 058°20'48""",-34.64,-58.346667,2020-08-01,2004-05-31,,https://www.exolgan.com/,"Manuel Alberti 1780, Dock Sud, Avellaneda, B1871ESF Buenos Aires, Argentina",
ARBUE,,BSAS,HUTCHISON BACTSSA TERMINAL T5,BUENOS AIRES CONTAINER TERMINAL SERVICES S.A. / HUTCHISON PORTS,"S 34°34'37""","W 058°22'24""",-34.576944,-58.373333,2020-08-01,2004-05-31,,http://www.bactssa.com.ar/en/,"Terminal 5, Av. Edison y Prefectura, Naval Argentina, Puerto Nuevo, C1104BCA Buenos Aires, Argentina",Terminal 5
ARBUE,,TRP,TERMINALES RIO DE LA PLATA,TERMINALES RIO DE LA PLATA S.A. / DP WORLD,"S 34°35'05""","W 058°21'47""",-34.584722,-58.363056,,2005-09-19,,https://www.trp.com.ar/,"Av. Ramón Castillo and Av. Comodoro Py, Puerto Nuevo, 1104 Buenos Aires, Argentina","Terminals 1,2,3"
ARLPS,,LPMOL,LAS PALMAS MOLCA,TERMINAL LAS PALMAS MOLCA,"S 34°01'16""","W 059°07'39""",-34.021111,-59.1275,,2004-05-31,,http://terminallaspalmas.com/,,
ARMDQ,,COOTR,COOTRAPORT LTDA,COOTRAPORT LTDA,"S 38°02'49""","W 057°32'11""",-38.046944,-57.536389,,2004-05-31,,,,
ARPMY,,PUPUB,PTO PUBLICO,PUERTO PUBLICO & LOGINTER,"S 42°44'10""","W 065°02'19""",-42.736111,-65.038611,,2004-05-31,,,,
ARPUD,,PUDES,PUERTO DESEADO,COSTANERA SA,"S 47°45'13""","W 065°54'40""",-47.753611,-65.911111,,2004-05-31,,,,
ARROS,,TROSA,TERMINAL ROSARIO,TERMINAL ROSARIO,"S 32°58'36""","W 060°37'05""",-32.976667,-60.618056,,2004-05-31,,,,
ARSAE,,TSP,TERMINAL SAN ANTONIO ESTE,PATAGONIA NORTE SA TERMINAL DE SERVICIOS PORTUARIOS (TSP),"S 40°47'57""","W 064°52'57""",-40.799167,-64.8825,2020-12-01,2004-05-31,,http://www.patagonia-norte.com.ar/,,
ARUSH,,PLS,PATAGONIA LOGISTIC SOLUTIONS SA,PATAGONIA LOGISTIC SOLUTIONS SA,"S 54°48'32""","W 068°18'12""",-54.808889,-68.303333,,2004-05-31,,,,
ARZAE,,TZARA,TERMINAL ZARATE,TZ TERMINALES PORTUARIAS,"S 34°04'04""","W 059°02'06""",-34.067778,-59.035,,2004-05-31,,,,
ASPPG,,PAGO,PORT OF PAGO-PAGO,PORT OF PAGO PAGO,"S 14°16'36""","W 170°41'05""",-14.276667,-170.684722,,2004-05-31,,,,
AUADL,,FLACT,FLINDERS ADELAIDE CONTAINER TERMINAL,FLINDERS ADELAIDE CONTAINER TERMINAL,"S 34°46'10""","E 138°29'26""",-34.769444,138.490556,,2004-05-31,,https://www.flindersadelaidecontainerterminal.com.au/,"6 Coghlan Road, Outer Harbor SA 5018, Australia","Outer Harbor Berths 6,7"
AUBEL,,CONBE,QUBE PORTS BELL BAY,QUBE PORTS (NO.1) PTY LTD,"S 41°08'22""","E 146°51'17""",-41.139444,146.854722,,2014-04-17,,https://qube.com.au/about/locations/,"1 Mobil Road, Bell Bay TAS 7253, Australia",Berths 5-6
AUBNE,,AATFI,AAT BRISBANE FISHERMAN ISLANDS CARGO TERMINAL,AUSTRALIAN AMALGAMATED TERMINALS,"S 27°22'44""","E 153°09'59""",-27.378889,153.166389,2019-11-18,2014-04-17,,https://www.aaterminals.com.au/location-fisherman/,"Berth 3, Port Drive, Port of Brisbane QLD 4178, Australia",Wharves 1-3
AUBNE,,DPBNE,DP WORLD BRISBANE FISHERMAN ISLANDS,DP WORLD (AUSTRALIA),"S 27°22'23""","E 153°10'14""",-27.373056,153.170556,2019-11-18,2014-03-14,,https://www.dpworldaustralia.com.au/our-locations/brisbane/,"Wharf 4, Port Drive, Fisherman Islands, Port of Brisbane QLD 4178, Australia",Wharves 4-7
AUBNE,,HPAFI,HUTCHISON BRISBANE CONTAINER TERMINALS (BCT),"BRISBANE CONTAINER TERMINALS PTY LTD (BCT), HUTCHISON","S 27°21'36""","E 153°10'48""",-27.36,153.18,2019-11-18,2015-03-10,,https://www.hutchisonports.com.au/hutchisonports-brisbane/,"Berth 11, Peregrine Drive, Port of Brisbane, PO Box 1203, Wynnum QLD 4178, Australia",Wharves 11-12
AUBNE,,PTFIT,PATRICK BRISBANE AUTOSTRAD TERMINAL,PATRICK,"S 27°21'58""","E 153°10'33""",-27.366111,153.175833,2019-11-18,2001-06-26,,https://patrick.com.au/,"Berth 10, Curlew St, Port of Brisbane QLD 4178, Australia","Berths 8,9,10"
AUDRW,,CONDW,QUBE PORTS DARWIN,QUBE PORTS PTY LTD,"S 12°29'24""","E 130°52'50""",-12.49,130.880556,,2014-04-17,,https://www.darwinport.com.au/,,
AUFRE,,CONFR,DP WORLD FREMANTLE,DP WORLD (AUSTRALIA),"S 32°02'49""","E 115°44'30""",-32.046944,115.741667,2019-11-18,2014-04-17,,https://www.dpworldaustralia.com.au/our-locations/fremantle/,"Berths 4/5/6 North Quay, Rudderham Drive, North Fremantle WA 6159, Australia","Berths CT1,CT2"
AUFRE,,ASLFR,PATRICK FREMANTLE CONTAINER TERMINAL,PATRICK,"S 32°02'35""","E 115°44'43""",-32.043056,115.745278,2019-11-18,2004-05-31,,https://patrick.com.au/,"Berth 7, Port Beach Rd, North Fremantle WA 6159, Australia","Berths CT3,CT4"
AUFRE,,POPFRB,QUBE PORTS FREMANTLE,QUBE PORTS PTY LTD,"S 32°02'23""","E 115°45'03""",-32.039722,115.750833,,2020-08-01,,https://qube.com.au/about/locations/,"Gate 4, Berths 11/12, Napier Road, North Fremantle WA 6159, Australia","Berths 11,12"
AUMEL,,AATAD,AAT MELBOURNE APPLETON DOCK,AUSTRALIAN AMALGAMATED TERMINALS,"S 37°49'01""","E 144°55'17""",-37.816944,144.921389,,2020-08-01,,https://www.aaterminals.com.au/location-appleton/,"Shed D, Appleton Dock Road, West Melbourne VIC 3003, Australia",
AUMEL,,CONWS,DP WORLD WEST SWANSON DOCK TERMINAL,DP WORLD (AUSTRALIA),"S 37°48'50""","E 144°54'43""",-37.813889,144.911944,2019-11-18,2014-04-17,,https://www.dpworldaustralia.com.au/our-locations/melbourne/,"Mackenzie Rd, West Melbourne VIC 3003, Australia","Berths 1,2,3 West"
AUMEL,,ASES1,PATRICK EAST SWANSON DOCK TERMINAL,PATRICK,"S 37°48'50""","E 144°54'55""",-37.813889,144.915278,2020-01-03,2004-05-31,,https://patrick.com.au/,"2 Phillipps Road, West Melbourne VIC 3003, Australia","Berths 1,2,3 East"
AUMEL,,CONMEL,QUBE PORTS APPLETON DOCK,QUBE PORTS PTY LTD,"S 37°49'02""","E 144°55'15""",-37.817222,144.920833,,2014-04-17,,https://qube.com.au/about/locations/,"Appleton Dock Road, West Melbourne VIC 3003, Australia",
AUMEL,,VICTM,VICT WEBB DOCK EAST,VICTORIA INTERNATIONAL CONTAINER TERMINAL,"S 37°50'49""","E 144°54'39""",-37.846944,144.910833,2019-11-18,2017-04-26,,https://www.vict.com.au/,"78 Webb Dock Dr, Port Melbourne VIC 3207, Australia",
AUPKL,,AATPK,AAT PORT KEMBLA,AUSTRALIAN AMALGAMATED TERMINALS,"S 34°27'17""","E 150°53'19""",-34.454722,150.888611,,2004-05-31,,https://www.aaterminals.com.au/location-portkembla/,"Yampi Way (Off Tom Thumb Road), Port Kembla NSW 2505, Australia","Berths 103,105,106,107"
AUSYD,,CTLPB,DP WORLD SYDNEY,DP WORLD (AUSTRALIA),"S 33°58'15""","E 151°12'59""",-33.970833,151.216389,2019-12-13,2004-05-31,,https://www.dpworldaustralia.com.au/our-locations/sydney/,"42 Friendship Rd, Port Botany NSW 2036, Australia",
AUSYD,,HPAPB,HUTCHISON SYDNEY INTERNATIONAL CONTAINER TERMINAL (SICTL),SYDNEY INTERNATIONAL CONTAINER TERMINALS PTY LTD (SICTL),"S 33°57'49""","E 151°12'02""",-33.963611,151.200556,2019-12-13,2015-03-10,,https://www.hutchisonports.com.au/hutchisonports-sydney/,"Gates B150-160 Foreshore Road, Botany NSW 2019, Australia",
AUSYD,,ASLPB,PATRICK SYDNEY AUTOSTRAD TERMINAL,PATRICK,"S 33°58'08""","E 151°12'38""",-33.968889,151.210556,2019-12-13,2004-05-31,,https://patrick.com.au/,"Gate B110 Penrhyn Road, Port Botany NSW 2036, Australia","Berths 6,7,8,9"
AWORJ,,AWBAR,BARCADERA CONTAINER TERMINAL,ARUBA STEVEDORING COMPANY (ASTEC) N.V.,"N 12°28'47""","W 069°59'50""",12.479722,-69.997222,2020-02-29,2016-09-19,,https://www.arubaports.com/main/barcadera/,,
AWORJ,,ASTEC,PORT OF ORANJESTAD,ARUBA PORTS AUTHORITY N.V.,"N 12°31'21""","W 070°02'47""",12.5225,-70.046389,2020-02-29,2004-05-31,,https://www.arubaports.com/main/oranjestad/,,Container operations moved to Barcadera.
BDCGP,,BDPORT,CHITTAGONG PORT,CHITTAGONG PORT AUTHORITY,"N 22°18'19""","E 091°47'55""",22.305278,91.798611,2020-04-01,2015-05-03,,http://www.cpa.gov.bd/,,"Three terminals (GCB, CCT, NCT), but only one operator (Chittagong Port Authority)"
BDMUN,,SAPLRT,SAPL INLAND WATER CONTAINER TERMINAL,SUMMIT ALLIANCE PORT LIMITED,"N 23°34'27""","E 090°30'43""",23.5743,90.512075,,2019-12-06,,https://www.saplbd.com,"West Muktarpur, Panchashar, Munshiganj - 1500, Bangladesh",
BEANR,,ACOT,ANTWERP CONTAINER TERMINAL (K730),ANTWERP CONTAINER TERMINAL - SEA INVEST,"N 51°19'27""","E 004°20'47""",51.324167,4.346389,,2019-07-05,,https://www.sea-invest.com,"Sea-invest, 730, Antwerpsebaan 57, 2040 Antwerp, Belgium",
BEANR,,AET,ANTWERP EUROTERMINAL NV (K1329-K1347),ANTWERP EUROTERMINAL NV,"N 51°16'23""","E 004°12'12""",51.273056,4.203333,,2016-07-26,,https://www.portofantwerp.com/en/node/4081,"AET, 1329-1347, Blikken 1333, 9130 Verrebroek, Belgium",
BEANR,,1700,ANTWERP GATEWAY TERMINAL (K1700-K1710),DP WORLD (ANTWERP),"N 51°17'31""","E 004°15'56""",51.291944,4.265556,2020-01-03,2014-04-17,,http://www.dpworldantwerp.com/our-businesses/antwerp-gateway,"DP World Antwerp, 1700-1710, Molenweg Haven 1950, 9130 Doel, Belgium",
BEANR,,BNFW,BELGIAN NEW FRUIT WHARF (K206-K212),SEA-INVEST FRUIT AND FOOD DIVISION - BNFW,"N 51°15'42""","E 004°22'42""",51.261667,4.378333,2020-01-03,2015-10-30,,,,
BEANR,,K420,CHURCHILL TERMINAL (K402-K428),PSA-ANTWERP,"N 51°16'44""","E 004°21'55""",51.278889,4.365278,2020-01-03,2014-07-14,,https://www.portofantwerp.com/en/node/4094,"PSA Antwerp, 408-416, Wilmarsstraat 7, 2030 Antwerp, Belgium",
BEANR,,K869,EUROPA TERMINAL (K851-K869),PSA-ANTWERP,"N 51°20'18""","E 004°16'34""",51.338333,4.276111,2020-01-03,2014-07-14,,https://www.portofantwerp.com/en/node/4092,"PSA Antwerp, 851-869, Scheldelaan 495, 2040 Antwerp, Belgium",
BEANR,,K1742,MPET DEURGANCK DOCK (K1742),MSC PSA EUROPEAN TERMINAL,"N 51°17'34""","E 004°15'27""",51.292778,4.2575,2020-01-03,2014-07-14,,https://www.mpet.be/,"Sint-Antoniusweg, 9130 Doel, Belgium",
BEANR,,K913,NOORDZEE TERMINAL (K903-K913),PSA-ANTWERP,"N 51°21'03""","E 004°15'55""",51.350833,4.265278,2020-01-03,2014-07-14,,https://www.portofantwerp.com/en/node/4091,"PSA Antwerp, 901-913, Scheldelaan 601, 2040 Antwerp, Belgium",
BEZEE,,CSPZ,CSP ZEEBRUGGE TERMINAL,CSP ZEEBRUGGE TERMINAL NV,"N 51°20'51""","E 003°11'20""",51.3475,3.188889,,2021-03-01,,https://cspterminals.be/,"Leopold II-Dam, Kaai 120-122, 8380 Zeebrugge, Belgium",
BGBOJ,,ACT,ADVANCE CONTAINER TERMINAL BURGAS,BMF PORT BURGAS JSC,"N 42°29'08""","E 027°27'31""",42.485556,27.458611,,2020-12-01,,http://www.actburgas.bg/,"Knyaz Alexander Batenberg Str. 1, 8000 Harbour complex, Burgas, Bulgaria",Terminal West
BHBAH,BHKBS,POSU,APM TERMINALS BAHRAIN,APM TERMINALS BAHRAIN B.S.C. (C),"N 26°11'06""","E 050°42'48""",26.185,50.713333,2020-01-24,2015-09-21,,https://www.apmterminals.com/en/bahrain,"Khalifa Bin Salman Port, PO Box 50490, Hidd, Kingdom of Bahrain",
BJCOO,,BTER,BENIN TERMINAL,PORT AUTONOME DE COTONOU / BOLLORE PORTS / APM TERMINALS,"N 06°20'48""","E 002°25'08""",6.346667,2.418889,2020-05-01,2015-09-22,,http://www.portcotonou.com/,"Port Autonome de Cotonou, Boulevard de la Marina Littoral, BP 927 Cotonou, Benin",
BRFOR,,TOT,TERMACO OCEAN TERMINAL,TERMACO TERMINAIS MAR DE CONTAINERS E SERV ACES LTDA,"S 03°42'35""","W 038°28'27""",-3.709722,-38.474167,2020-02-29,2004-05-31,,,,
BRIBB,,TECIB,TECON IMBITUBA SA,TECON IMBITUBA SA,"S 28°13'47""","W 048°39'00""",-28.229722,-48.65,,2004-05-31,,,,
BRIOA,,ITP,ITAPOA TERMINAIS PORTUARIOS S/A,ITAPOA TERMINAIS PORTUARIOS S/A,"S 26°10'56""","W 048°36'19""",-26.182222,-48.605278,,2004-05-31,,,,
BRITJ,,BRAITJ,APM TERMINALS ITAJAI,APM TERMINALS ITAJAI,"S 26°54'05""","W 048°39'52""",-26.901389,-48.664444,2020-01-24,2015-10-12,,https://www.apmterminals.com/en/itajai,"Av. Coronel Eugenio Muller, 300, 88.301-120, Itajaí, SC, Brazil",
BRITJ,,TECVI,TECONVI SA TERM CNTRS VALE ITAJAI,TECONVI SA TERM CNTRS VALE ITAJAI,"S 26°54'06""","W 048°39'51""",-26.901667,-48.664167,,2004-05-31,,,,
BRMAO,,CHINC,CHIBATAO NAVEGACAO E COMERCIO LTDA,CHIBATAO NAVEGACAO E COMERCIO LTDA,"S 03°09'24""","W 059°59'24""",-3.156667,-59.99,,2004-05-31,,,,
BRMAO,,SUPER,SUPER TERMINAIS,SUPER TERMINAIS COM E IND LTDA,"S 03°08'59""","W 059°59'54""",-3.149722,-59.998333,,2004-05-31,,,,
BRNVT,,PTP,PORTONAVE SA TERMINAIS PORTUARIOS,PORTONAVE SA TERMINAIS PORTUARIOS,"S 26°53'47""","W 048°39'46""",-26.896389,-48.662778,,2004-05-31,,,,
BRPEC,,BRAPEC,APM TERMINALS PECEM,APM TERMINALS PECEM OPERACOES PORTUARIAS LTDA,"S 03°32'55""","W 038°48'39""",-3.548611,-38.810833,,2015-10-13,,https://www.apmterminals.com/en/pecem,"Rua SDO27, Number 10, S / N - Block B - Room 4, São Gonçalo do Amarante - Ceará, CEP 60310-240, Brazil",
BRPNG,,TCP,TCP DE CONTEINERES DE PARANAGUA SA,TCP DE CONTEINERES DE PARANAGUA SA,"S 25°30'10""","W 048°30'07""",-25.502778,-48.501944,,2004-05-31,,,,
BRRIG,,SUPMA,SUPERMAR SA,SUPERMAR SA,"S 32°02'27""","W 052°04'34""",-32.040833,-52.076111,,2004-05-31,,,,
BRRIG,,TECRG,TECON RIO GRANDE SA,TECON RIO GRANDE SA,"S 32°07'33""","W 052°06'14""",-32.125833,-52.103889,,2004-05-31,,,,
BRRIO,,LIBRJ,LIBRA TERMINAIS SA,LIBRA TERMINAIS SA,"S 22°52'28""","W 043°12'21""",-22.874444,-43.205833,,2004-05-31,,,,
BRRIO,,MROP,MULTI RIO OPERACOES PORTUARIA SA,MULTI RIO OPERACOES PORTUARIA SA,"S 22°52'37""","W 043°12'27""",-22.876944,-43.2075,,2004-05-31,,,,
BRSFS,,TESC,TESC TERMINAL SANTA CATARINA SA,TESC TERMINAL SANTA CATARINA SA,"S 26°14'05""","W 048°38'07""",-26.234722,-48.635278,,2004-05-31,,,,
BRSLZ,BRIQI,PCTN,PORT OF ITAQUI,EMAP - ITAQUI PORT AUTHORITY,"S 02°34'36""","W 044°22'12""",-2.576667,-44.37,2020-10-01,2019-10-18,,http://www.portodoitaqui.ma.gov.br,"Av. Dos Portugueses s/n, CEP 65085-370, Porto do Itaqui, São Luís, Maranhão, Brazil",
BRSPB,,TECSE,SEPETIBA TECON SA,SEPETIBA TECON SA,"S 22°55'50""","W 043°50'18""",-22.930556,-43.838333,,2004-05-31,,,,
BRSSA,,TECSV,TECON SALVADOR SA,TECON SALVADOR SA,"S 12°57'28""","W 038°30'25""",-12.957778,-38.506944,,2004-05-31,,,,
BRSSZ,,BTP,BRASIL TERMINAL PORTUARIO S.A. SANTOS,BRASIL TERMINAL PORTUARIO S.A. SANTOS,"S 23°55'19""","W 046°21'10""",-23.921944,-46.352778,,2014-07-22,,,,
BRSSZ,,ECOS,ECOPORTO SANTOS,ECOPORTO SANTOS,"S 23°55'40""","W 046°20'07""",-23.927778,-46.335278,,2014-07-22,,,,
BRSSZ,,EMBRA,EMBRAPORT,EMBRAPORT EMPRESA BRASILEIRA,"S 23°55'18""","W 046°18'56""",-23.921667,-46.315556,,2004-05-31,,,,
BRSSZ,,LIBSS,LIBRA TERMINAIS SA,LIBRA TERMINAIS SA,"S 23°58'18""","W 046°17'46""",-23.971667,-46.296111,,2004-05-31,,,,
BRSSZ,,RODRI,RODRIMAR SA TRANSP EQUIP INDUSTRIAL,RODRIMAR SA TRANSP EQUIP INDUSTRIAL,"S 23°55'35""","W 046°20'28""",-23.926389,-46.341111,,2004-05-31,,,,
BRSSZ,,SSA,SANTOS BRASIL SA,SANTOS BRASIL SA,"S 23°57'45""","W 046°17'36""",-23.9625,-46.293333,,2004-05-31,,,,
BRSUA,,TECSU,TECON SUAPE SA,TECON SUAPE SA,"S 08°23'35""","W 034°58'03""",-8.393056,-34.9675,,2004-05-31,,,,
BRVDC,,CONVI,CONVICON,CONVICON CONTEINERES DE VILA DO CONDE S/A,"S 01°32'22""","W 048°45'15""",-1.539444,-48.754167,2019-04-01,2004-05-31,,,,
BRVIX,,TDVV,TERMINAL DE VILA VELHA SA,TERMINAL DE VILA VELHA SA,"S 20°19'28""","W 040°19'44""",-20.324444,-40.328889,,2004-05-31,,,,
CAHAL,,FCOVE,FAIRVIEW COVE CONTAINER TERMINAL,CERES HALIFAX INC.,"N 44°40'04""","W 063°37'38""",44.667778,-63.627222,2020-01-24,2015-01-29,,https://www.ceresglobal.com/locations/halifax.html,"6708 Bayne Street, Halifax, Nova Scotia B3K 5M6, Canada",
CAHAL,,HAFXT,SOUTH END CONTAINER TERMINAL,PSA HALIFAX,"N 44°37'42""","W 063°33'45""",44.628333,-63.5625,2020-01-24,2013-06-05,,https://www.portofhalifax.ca/facilities/hpa-facilities/psa-halifax-south-end-container-terminal/,"577 Marginal Rd, Halifax, Nova Scotia B3H 4P6, Canada",
CAMTR,,MGTCAS,CAST TERMINAL (SECTION 77),MONTREAL GATEWAY TERMINALS,"N 45°35'13""","W 073°30'16""",45.586944,-73.504444,2020-01-24,2015-02-19,,https://www.mtrtml.com/maps/index.php,,
CAMTR,,TMTMAI,MAISONNEUVE TERMINAL (SECTION 68),TERMONT TERMINAL INC,"N 45°34'26""","W 073°30'41""",45.573889,-73.511389,2020-01-24,2015-02-19,,http://www.termont.com/,,
CAMTR,,MGTRAC,RACINE TERMINAL (SECTION 62),MONTREAL GATEWAY TERMINALS,"N 45°33'57""","W 073°31'07""",45.565833,-73.518611,2020-01-24,2015-02-19,,https://www.mtrtml.com/maps/index.php,,
CAPRR,,FCTPRR,FAIRVIEW CONTAINER TERMINAL,DP WORLD,"N 54°17'11""","W 130°21'37""",54.286389,-130.360278,2020-01-24,2018-03-07,,https://www.rupertport.com/terminal_details/fairview-container-terminal/,,
CAVAN,,CTM,CENTENNIAL TERMINAL (CENTERM),DP WORLD VANCOUVER,"N 49°17'20""","W 123°05'45""",49.288889,-123.095833,2020-01-24,2016-08-12,,https://www.dpworld.ca/,"777 Centennial Road, Vancouver, BC V6A 1A3, Canada",
CAVAN,,FSD,FRASER SURREY DOCKS,FRASER SURREY DOCKS LIMITED PARTNERSHIP,"N 49°11'09""","W 122°54'48""",49.185833,-122.913333,2020-01-24,2004-05-31,,http://www.fsd.bc.ca/,"11060 Elevator Rd, Surrey, BC V3V 2R7, Canada",
CAVAN,CADEL,DLT,GCT DELTAPORT,GCT CANADA LIMITED PARTNERSHIP,"N 49°01'14""","W 123°09'05""",49.020556,-123.151389,2020-01-24,2006-08-28,,https://globalterminalscanada.com/contact/#Terminals,"2 Roberts Bank Way, BC V4M 4G5, Canada",
CAVAN,,VTM,GCT VANTERM,GCT CANADA LIMITED PARTNERSHIP,"N 49°17'19""","W 123°04'26""",49.288611,-123.073889,2020-01-24,2006-08-28,,https://globalterminalscanada.com/contact/#Terminals,"1300 Stewart Street, BC V5L 4X5, Canada",
CGPNR,,CTPN,CONGO TERMINAL POINTE NOIRE,CONGO TERMINAL POINTE NOIRE / BOLLORE PORTS,"S 04°47'30""","E 011°49'48""",-4.791667,11.83,,2016-05-13,,http://www.congo-terminal.net,,
CIABJ,,SETV1,VRIDI TERMINAL ABIDJAN,SOCIETE EXPLOITATION TERMINAL DE VRIDI (SETV) / BOLLORE PORTS / APM TERMINALS,"N 05°16'25""","W 004°00'48""",5.273611,-4.013333,2020-01-24,2015-10-09,,http://www.abidjan-terminal.com/,,
CLANF,,ATI,ATI ANTOFAGASTA,ANTOFAGASTA TERMINAL INTERNACIONAL S.A.,"S 23°39'00""","W 070°24'29""",-23.65,-70.408056,,2004-05-31,,https://www.atiport.cl/,"Av. Grecia S/N, costado recinto portuario, Antofagasta, Chile",
CLANF,,EPA,EPA ANTOFAGASTA,EMPRESA PORTUARIA ANTOFAGASTA,"S 23°39'00""","W 070°24'17""",-23.65,-70.404722,,2004-05-31,,https://www.anfport.cl/,"Av. Grecia S/N, Antofagasta, Chile",
CLARI,,TPA,TERMINAL PACIFICO ARICA,TERMINAL PUERTO ARICA S.A.,"S 18°28'23""","W 070°19'42""",-18.473056,-70.328333,,2004-05-31,,http://portal.tpa.cl/tpaweb/,"Av. Máximo Lira 389, Arica, Chile",
CLCNL,,CPC,PUERTO CORONEL,PUERTO DE CORONEL S.A.,"S 37°02'02""","W 073°09'10""",-37.033889,-73.152778,,2016-09-01,,https://www.puertocoronel.cl,"Av. Carlos Prats 40, Coronel, Chile",
CLIQQ,,ITI,ITI IQUIQUE,IQUIQUE TERMINAL INTERNACIONAL S.A.,"S 20°12'16""","W 070°09'23""",-20.204444,-70.156389,2021-03-01,2004-05-31,,https://www.saam.com/en/port-terminals/iquique-internationl-terminal-iti/,"Jorge Barrera, Iquique, Tarapacá, Chile",
CLLQN,,PLIRQ,PUERTO LIRQUEN,PUERTO DE LIRQUEN S.A.,"S 36°42'28""","W 072°59'23""",-36.707778,-72.989722,,2004-05-31,,https://www.dpworldlirquen.cl/en/home/,"Recinto Portuario S/N, Lirquén, Chile",
CLPAG,,PANGA,PUERTO ANGAMOS,COMPANIA PORTUARIA MEJILLONES S.A.,"S 23°04'00""","W 070°23'12""",-23.066667,-70.386667,,2004-05-31,,https://www.puertoangamos.cl/en/,"Av. Longitudinal 5500, Barrio Industrial, Mejillones, Antofagasta, Chile",
CLPUQ,,SMA,TERMINAL SANTOS MARDONES,EPAUSTRAL,"S 53°07'32""","W 070°51'31""",-53.125556,-70.858611,2020-01-24,2016-01-25,,https://www.epaustral.cl,"Libertador Bernardo O'Higgins No. 1385, Punta Arenas, Chile",
CLSAI,,PCE,PUERTO CENTRAL SAN ANTONIO,PUERTO CENTRAL S.A.,"S 33°35'30""","W 071°37'00""",-33.591667,-71.616667,,2016-09-16,,https://www.dpworldsanantonio.cl/en/home/,"Alan Macowan 240, San Antonio, Chile",
CLSAI,,STI,STI SAN ANTONIO,SAN ANTONIO TERMINAL INTERNACIONAL S.A.,"S 33°35'21""","W 071°37'19""",-33.589167,-71.621944,,2004-05-31,,https://www.stiport.com/,"Av. Ramón Barros Luco 1613, Piso 13 San Antonio, Chile",
CLSVE,,SVTI,SVTI SAN VICENTE OCEAN TERMINAL,SAN VICENTE TERMINAL INTERNACIONAL,"S 36°43'51""","W 073°08'16""",-36.730833,-73.137778,,2004-05-31,,https://www.svti.cl/,"Av. Latorre 1590, Talcahuano, Chile",
CLVAP,,EPV,EPV VALPARAISO,EMPRESA PORTUARIA DE VALPARAISO,"S 33°02'13""","W 071°37'33""",-33.036944,-71.625833,,2004-05-31,,http://www.tcval.cl/en/,"Av. Errázuriz 755, Valparaíso, Chile","Terminal 2, berths 6-8. Operator is ""Terminal Cerros de Valparaíso, S.A. (TCVAL)""."
CLVAP,,TPS,TPS VALPARAISO,TERMINAL PACIFICO SUR VALPARAISO S.A.,"S 33°01'54""","W 071°37'38""",-33.031667,-71.627222,,2004-05-31,,https://www.tps.cl/,"Antonio Varas 2, Valparaíso, Chile","Terminal 1, berths 1-5."
CNCQI,CNCHQ,CUNTAN,CUNTAN TERMINAL,"CHONGQING INTERNATIONAL CONTAINER TERMINAL CO., LTD.","N 29°37'05""","E 106°35'30""",29.618056,106.591667,,2020-07-01,,http://www.cqgj.com.cn/,"No. 306, Hai'er Road, Jiangbei District, Chongqing, China",
CNDAL,CNDAG,DPCT,DALIAN CONTAINER TERMINAL,"DALIAN CONTAINER TERMINAL CO., LTD.","N 39°00'32""","E 121°52'25""",39.008889,121.873611,,2020-08-01,,,"Dayao Bay Port, Kai Fa District, Dalian, China",
CNDCB,,DACHAN,DA CHAN BAY TERMINAL ONE,"SHENZHEN DA CHAN BAY MODERN PORT DEVELOPMENT CO., LTD.","N 22°32'00""","E 113°51'20""",22.533333,113.855556,,2015-09-21,,http://www.dcbterminals.com//en/,"DaChan Bay Terminals, Xi Xiang, Bao An District, Shenzhen, China",
CNFZH,,FICT,FUZHOU INTERNATIONAL CONTAINER TERMINAL,FUZHOU INTERNATIONAL CONTAINER TERMINAL,"N 25°25'00""","E 119°17'09""",25.416667,119.285833,,2020-07-01,,http://www.fct-fuzhou.com.cn/,"Xin Jiang Road, Jiangyin, Fuqing Fujian, 350309, China",
CNFZH,,FMP,FUZHOU QINGZHOU CONTAINER TERMINAL,"FUZHOU QINGZHOU CONTAINER TERMINAL CO., LTD","N 26°00'18""","E 119°28'41""",26.005,119.478056,,2020-07-01,,http://www.fct-fuzhou.com.cn/,"113 Luoxing Road Mawei, Fujian Fuzhou, 350015, China",
CNLYG,,LNOCT,LIANYUNGANG NEW ORIENTAL INTERNATIONAL CONTAINER TERMINAL,LIANYUNGANG NEW ORIENTAL INTERNATIONAL CONTAINER TERMINAL,"N 34°44'43""","E 119°25'40""",34.745278,119.427778,2020-04-01,2019-01-17,,http://www.lnoct.com,"Miaoling Port, Lianyun District, Lianyungang, China",
CNLYG,,LPCT,LYG-PSA CONTAINER TERMINAL,"LYG-PSA CONTAINER TERMINAL CO., LTD.","N 34°44'52""","E 119°26'12""",34.747778,119.436667,2020-04-01,2019-01-17,,http://www.lyg-psa.com,"Miaoling Port, Lianyun District, Lianyungang, China",
CNNBO,CNNBG,BLCT1,NINGBO BEILUN INTERNATIONAL CONTAINER TERMINAL (NBCT),"NINGBO BEILUN INTERNATIONAL CONTAINER TERMINAL CO., LTD.","N 29°56'10""","E 121°52'00""",29.936111,121.866667,2020-08-01,2004-05-31,,http://www.nbct.com.cn/,"No. 178, North Pole Star Road, Beilun District, Ningbo, China",
CNNBO,CNNBG,BLCT2,NINGBO BEILUN SECOND CONTAINER TERMINAL (NBSCT),"NINGBO BEILUN SECOND CONTAINER TERMINAL CO., LTD","N 29°56'42""","E 121°50'12""",29.945,121.836667,2020-08-01,2004-05-31,,http://nbsct.nbport.com.cn/,"No. 227, Yingbin Road, Beilun District, Ningbo, China",
CNNBO,CNNBG,BLTCT,NINGBO BEILUN THIRD CONTAINER TERMINAL (BLTCT),"NINGBO BEILUN PORT GROUP THIRD CONTAINER TERMINAL CO., LTD.","N 29°53'20""","E 122°02'51""",29.888889,122.0475,,2020-08-01,,http://www.nbport.com.cn/bltct/,"Chuanshan Port, Beilun District, Ningbo, China",
CNNBO,CNNBG,BLCT5,NINGBO DAXIE CHINA MERCHANTS INTERNATIONAL CONTAINER TERMINAL (CMICT),NINGBO DAXIE CHINA MERCHANTS INTERNATIONAL CONTAINER TERMINALS,"N 29°56'07""","E 121°55'39""",29.935278,121.9275,2020-08-01,2004-05-31,,http://www.cmict.com.cn/?lang=en-us,"Port District D,Daxie Development Zone,Ningbo",
CNNBO,CNNBG,BLCT6,NINGBO MEISHAN ISLAND INTERNATIONAL CONTAINER TERMINAL (MSICT),"NINGBO MEISHAN ISLAND INTERNATIONAL CONTAINER TERMINAL CO., LTD.","N 29°46'18""","E 122°00'01""",29.771667,122.000278,2020-08-01,2004-05-31,,http://www.msict.com.cn/,"Meishan Island, Beilun District, Ningbo, China",
CNNBO,CNNBG,YZCT7,ZHOUSHAN YONGZHOU CONTAINER TERMINAL (YZCT),"ZHOUSHAN YONGZHOU CONTAINER TERMINALS CO., LTD.","N 29°59'18""","E 121°50'23""",29.988333,121.839722,2020-08-01,2004-05-31,,http://www.nbport.com.cn/portal/wps/portal/yzct/,"No. 180, Pukou Road, Dinghai District, Zhoushan, China",
CNNJI,CNNJG,NPL,NANJING PORT LONGTAN,"NANJING PORT LONGTAN CONTAINER CO., LTD.","N 32°12'32""","E 119°03'37""",32.208889,119.060278,,2020-07-01,,,"Longtan Port, Xixia District, Nanjing, China",
CNNSA,,NANS,GUANGZHOU SOUTH CHINA OCEANGATE CONTAINER TERMINAL,"GUANGZHOU SOUTH CHINA OCEANGATE CONTAINER TERMINAL CO., LTD.","N 22°38'18""","E 113°40'58""",22.638333,113.682778,2020-04-01,2004-05-31,,http://m.goct.com.cn/web/en/index.html,"Longxue Island, Nansha District, Guangzhou, China",
CNQIN,CNQDG,QQCTN,QINGDAO NEW QIANWAN CONTAINER TERMINAL,"QINGDAO NEW QIANWAN CONTAINER TERMINAL CO., LTD.","N 36°00'44""","E 120°14'00""",36.012222,120.233333,2020-04-01,2017-12-12,,,,
CNQIN,CNQDG,QQCTX,QINGDAO QIANWAN CONTAINER TERMINAL,"QINGDAO QIANWAN CONTAINER TERMINAL CO., LTD.","N 36°00'33""","E 120°12'23""",36.009167,120.206389,2020-04-01,2004-05-31,,http://en.qqct.com.cn/,"Fenjin 4th Road, Port of Qianwan, Huangdao District, Qingdao, China",
CNQIN,CNQDG,QQCTUA,QINGDAO QIANWAN UNITED ADVANCE CONTAINER TERMINAL,"QINGDAO QIANWAN UNITED ADVANCE CONTAINER TERMINAL CO., LTD.","N 36°00'33""","E 120°13'38""",36.009167,120.227222,2020-04-01,2015-02-13,,,,
CNQIN,CNQDG,QQCTU,QINGDAO QIANWAN UNITED CONTAINER TERMINAL,"QINGDAO QIANWAN UNITED CONTAINER TERMINAL CO., LTD.","N 35°59'58""","E 120°12'42""",35.999444,120.211667,2020-04-01,2015-02-13,,http://www.qqctu.cc/,"No. 567, Tongjiang Road, Huangdao District, Qingdao, China",
CNRZH,,XXXXX,RIZHAO PORT,RIZHAO PORT,"N 35°21'55""","E 119°32'00""",35.365278,119.533333,2020-04-01,2004-05-31,,http://en.rzport.com/,"No. 91, Huanghai Road 1, Rizhao City, Shandong, China",
CNSGH,CNSHG,SECT,SHANGHAI EAST CONTAINER TERMINAL,"SHANGHAI EAST CONTAINER TERMINALS CO., LTD.","N 31°20'21""","E 121°39'02""",31.339167,121.650556,2020-12-01,2015-03-17,,http://www.sect.com.cn,"No. 1, Gangjian Road, Pudong New District, Shanghai, China",Waigaoqiao Phase 4
CNSGH,CNSHG,SGICT,SHANGHAI GUANDONG INTERNATIONAL CONTAINER TERMINAL,"SHANGHAI GUANDONG INTERNATIONAL CONTAINER TERMINAL CO., LTD.","N 30°36'48""","E 122°04'30""",30.613333,122.075,2020-12-01,2004-05-31,,http://www.sgict.com.cn,"Yangshan Deepwater Port Phase 3, Shanghai, China",Yangshan Phase 3
CNSGH,CNSHG,SMCT,SHANGHAI MINGDONG CONTAINER TERMINAL,"SHANGHAI MINGDONG CONTAINER TERMINALS CO., LTD.","N 31°19'48""","E 121°40'07""",31.33,121.668611,2020-12-01,2015-03-20,,https://www.smct.com.cn/wbs/en/aboutsmct.html,"No. 999 Gangjian Road, Pudong New District, Shanghai, China",Waigaoqiao Phase 5
CNSGH,CNSHG,SPICT,SHANGHAI PUDONG INTERNATIONAL CONTAINER TERMINAL,"SHANGHAI PUDONG INTERNATIONAL CONTAINER TERMINALS CO., LTD.","N 31°22'06""","E 121°35'35""",31.368333,121.593056,2020-12-01,2015-03-17,,https://www.spict.com,"No. 88 Yanggao North Road 1, Pudong New District, Shanghai, China",Waigaoqiao Phase 1
CNSGH,CNSHG,SHENG,SHANGHAI SHENGDONG INTERNATIONAL CONTAINER TERMINAL,"SHANGHAI SHENGDONG INTERNATIONAL CONTAINER TERMINAL CO., LTD.","N 30°37'57""","E 122°02'52""",30.6325,122.047778,2020-12-01,2004-05-31,,http://www.shsict.com/,"Yangshan Deepwater Port Phase 1, Shanghai, China",Yangshan Phase 1&2
CNSGH,CNSHG,SIPGSD,SIPG SHANGDONG CONTAINER TERMINAL,"SHANGHAI INTERNATIONAL PORT (GROUP) CO., LTD. SHANGDONG CONTAINER TERMINAL BRANCH","N 30°39'10""","E 122°01'28""",30.652778,122.024444,2020-12-01,2018-08-10,,http://www.portshanghai.com.cn/en/,"Yangshan Deepwater Port Phase 4, Shanghai, China",Yangshan Phase 4
CNSGH,CNSHG,WAIG,SIPG ZHENDONG CONTAINER TERMINAL,"SHANGHAI INTERNATIONAL PORT (GROUP) CO., LTD. ZHENDONG CONTAINER TERMINAL BRANCH","N 31°22'30""","E 121°34'46""",31.375,121.579444,2020-12-01,2004-05-31,,http://www.sipgzct.com,"No. 1299 Ganghua Road, Pudong New District, Shanghai, China",Waigaoqiao Phase 2&3
CNSHK,,CCT,CHIWAN CONTAINER TERMINAL (CCT),CHIWAN CONTAINER TERMINAL,"N 22°28'00""","E 113°52'33""",22.466667,113.875833,2020-02-29,2017-01-01,,http://www.cwcct.com/Catalog_124.aspx,,
CNSHK,,MCT,MAWAN CHIWAN CONTAINER TERMINAL (MCT),MAWAN CHIWAN CONTAINER TERMINAL,"N 22°29'17""","E 113°52'02""",22.488056,113.867222,2020-02-29,2017-01-01,,http://www.cmport.com.hk/EN/business/Detail.aspx?id=10005316,,
CNSHK,,SCT,SHEKOU CONTAINER TERMINAL (SCT),"SHEKOU CONTAINER TERMINALS CO., LTD. (SCT)","N 22°27'13""","E 113°53'32""",22.453611,113.892222,2020-02-29,2017-01-01,,http://www.cmport.com.hk/EN/business/Detail.aspx?id=10005254,,
CNSHK,,SCMWH,SHENZEN MAWAN HAIXING CONTAINER TERMINAL,SHENZEN HAIXING HARBOUR DEVELOPMENT CO. LTD,"N 22°29'48""","E 113°51'51""",22.496667,113.864167,2020-02-29,2015-02-19,,http://www.cmport.com.hk/EN/business/Detail.aspx?id=10005322,,
CNSTG,,SICT,SHANTOU INTERNATIONAL CONTAINER TERMINAL,SHANTOU INTERNATIONAL CONTAINER TERMINALS LTD.,"N 23°20'59""","E 116°43'34""",23.349722,116.726111,,2020-07-01,,http://www.sict.com.cn/,,
CNTAC,,TIC,TAICANG INTERNATIONAL CONTAINER TERMINAL (TICT),SUZHOU MODERN TERMINALS LTD.,"N 31°38'51""","E 121°13'01""",31.6475,121.216944,2020-08-01,2015-06-24,,http://www.taicangterminals.com/TCWebSite/Home/Index#,,
CNTNJ,CNTXG,TACT1,TIANJIN PORT ALLIANCE INTERNATIONAL CONTAINER TERMINAL (TACT),"TIANJIN PORT ALLIANCE INTERNATIONAL CONTAINER TERMINAL CO., LTD. (TACT)","N 38°59'41""","E 117°46'35""",38.994722,117.776389,2020-09-01,2004-05-31,,http://www.tianjinportdev.com/html/bus_cargo.php,"1068 Linhai Road, Tanggu district, 300461 Tianjin, China",Berths N3-N6.
CNTNJ,CNTXG,THCC1,TIANJIN PORT CONTAINER TERMINAL (TCT),"TIANJIN PORT CONTAINER TERMINAL CO., LTD. (TCT)","N 38°58'43""","E 117°46'12""",38.978611,117.77,2020-09-01,2004-05-31,,http://www.tianjinportdev.com/html/bus_cargo.php,,"Berths G21, G27-G29. TCT absorbed FICT and TOCT in July 2019."
CNTNJ,CNTXG,TECT1,TIANJIN PORT EUROASIA INTERNATIONAL CONTAINER TERMINAL (TECT),"TIANJIN PORT EUROASIA INTERNATIONAL CONTAINER TERMINAL CO., LTD. (TECT)","N 39°00'16""","E 117°46'25""",39.004444,117.773611,2020-09-01,2004-05-31,,http://www.tianjinportdev.com/html/bus_cargo.php,,Berths N7-N9.
CNTNJ,CNTXG,FICT1,TIANJIN PORT FIVE CONTINENTS INTERNATIONAL CONTAINER TERMINAL (FICT),"TIANJIN PORT FIVE CONTINENTS INTERNATIONAL CONTAINER TERMINAL CO., LTD. (FICT)","N 38°58'52""","E 117°47'02""",38.981111,117.783889,2020-09-01,2004-05-31,,http://www.tianjinportdev.com/html/bus_cargo.php,,Berths G35-G38. TCT absorbed FICT and TOCT in July 2019.
CNTNJ,CNTXG,ECTS1,TIANJIN PORT ORIENT CONTAINER TERMINAL (TOCT),"TIANJIN PORT ORIENT CONTAINER TERMINAL CO., LTD. (TOCT)","N 38°58'32""","E 117°46'50""",38.975556,117.780556,2020-09-01,2004-05-31,,http://www.tianjinportdev.com/html/bus_cargo.php,,Berths G30-G34. TCT absorbed FICT and TOCT in July 2019.
CNTNJ,CNTXG,TPCT1,TIANJIN PORT PACIFIC INTERNATIONAL CONTAINER TERMINAL (TPCT),"TIANJIN PORT PACIFIC INTERNATIONAL CONTAINER TERMINAL CO., LTD. (TPCT)","N 38°59'59""","E 117°47'29""",38.999722,117.791389,2020-09-01,2004-05-31,,http://www.tianjinportdev.com/html/bus_cargo.php,"No. 3889, Meimei Road, Dongjiang Free Trade Port Zone, 300463 Tianjin, China",Berths D1-D6.
CNWEI,CNWEG,00001,WEIHAI PORT,"WEIHAI PORT GROUP CO., LTD.","N 37°26'34""","E 122°11'58""",37.442778,122.199444,2019-04-16,2004-05-31,,http://www.qwct.net/jx/index.html,"No. 288-4, Haibu Road, Weihai city, Shandong China",
CNXAM,CNXMG,XRCT,XIAMEN HAIRUN CONTAINER TERMINAL (XRCT),"XIAMEN INTERNATIONAL PORT CO., LTD","N 24°26'52""","E 118°00'21""",24.447778,118.005833,2020-07-01,2015-05-03,,http://www.xhct.com.cn/,"No. 439 Gangnan Road, 361026 Xiamen, Fujian, China","Haicang port area, berths 4-6."
CNXAM,CNXMG,XHCT,XIAMEN HAITIAN CONTAINER TERMINAL,XIAMEN HAITIAN CONTAINER TERMINAL LTD,"N 24°30'36""","E 118°04'43""",24.51,118.078611,2019-07-26,2004-05-31,,,,
CNXAM,CNXMG,XICT,XIAMEN INTERNATIONAL CONTAINER TERMINAL (XICT),XIAMEN INTERNATIONAL CONTAINER TERMINAL LTD,"N 24°26'46""","E 118°00'51""",24.446111,118.014167,2020-07-01,2004-05-31,,https://hutchisonports.com/en/ports/world/xiamen-international-container-terminals-xict/,"108 Jiangang Road, Haicang Investment Zone, 361026 Xiamen, Fujian, China","Haicang port area, berths 1-3."
CNXAM,CNXMG,XOGT,XIAMEN OCEAN GATE TERMINAL,"XIAMEN OCEAN GATE CONTAINER TERMINAL CO., LTD.","N 24°27'18""","E 117°58'18""",24.455,117.971667,2019-07-26,2004-05-31,,,,
CNXAM,CNXMG,XSCT,XIAMEN SONGYU CONTAINER TERMINAL (XSCT),"XIAMEN SONGYU CONTAINER TERMINAL CO., LTD.","N 24°26'31""","E 118°01'54""",24.441944,118.031667,2020-07-01,2015-05-08,,https://www.xsct.com.cn/eng_index.aspx,"No.1688, Jiangang Road, 361026 Haicang Xiamen, China","Songyu port area, berths 1-3."
CNXAM,CNXMG,XGYU,XIAMEN XIANGYU TERMINAL,"XIAMEN NEW WORLD XIANGYU TERMINALS CO., LTD.","N 24°30'56""","E 118°05'00""",24.515556,118.083333,2020-07-01,2004-05-31,,,,
CNYAT,CNYTG,YPCT,YANTAI PORT INTERNATIONAL CONTAINER TERMINAL,YANTAI PORT INTERNATIONAL CONTAINER TERMINAL CO LTD,"N 37°32'42""","E 121°23'20""",37.545,121.388889,2019-07-26,2019-04-12,,http://www.yantaiport.com.cn/ewangzhan/,"No. 155, Beima Road, Yantai City, Shangdon, China",
CNYIK,,13XXX,YINGKOU PORT NO. 13 TERMINAL,YINGKOU PORT NO. 13 TERMINAL,"N 40°16'51""","E 122°07'28""",40.280833,122.124444,,2004-05-31,,,"Yingkou Port, Bayuquan District, Yingkou City, Liaoning, China",
CNYIK,,51XXX,YINGKOU PORT NO. 51 TERMINAL,YINGKOU PORT NO. 51 TERMINAL,"N 40°16'51""","E 122°07'28""",40.280833,122.124444,,2004-05-31,,,"Yingkou Port, Bayuquan District, Yingkou City, Liaoning, China",
CNYTN,,YICT,YANTIAN INTERNATIONAL CONTAINER TERMINAL,YANTIAN INTERNATIONAL CONTAINERTERMINAL,"N 22°34'22""","E 114°16'08""",22.572778,114.268889,,2004-05-31,,https://www.hphtrust.com/portfolio_yantian.html,,
CNYTN,,YICTW,YANTIAN WEST CONTAINER TERMINAL,SHENZHEN YANTIAN PORT HOLDING CO. LTD,"N 22°33'36""","E 114°14'57""",22.56,114.249167,,2015-05-08,,https://www.hphtrust.com/portfolio_yantian.html,,
COBAQ,,BCT,BARRANQUILLA CONTAINER TERMINAL (BCT),BARRANQUILLA CONTAINER TERMINAL (BCT),"N 10°58'51""","W 074°45'40""",10.980833,-74.761111,,2014-09-02,,,,
COBAQ,,PSP,PALERMO SOCIEDAD PORTUARIA,PALERMO SOCIEDAD PORTUARIA,"N 10°58'48""","W 074°45'20""",10.98,-74.755556,,2019-12-17,,http://palermosociedadportuaria.com/,"Km 1.5 Vía Barranquilla, Ciénaga, Corregimiento de Palermo, Colombia",
COBAQ,,SPRBQ,SOCIEDAD PORTUARIA REGIONAL DE BARRANQUILLA,SOCIEDAD PORTUARIA REGIONAL DE BARRANQUILLA,"N 10°58'06""","W 074°45'33""",10.968333,-74.759167,,2004-05-31,,https://www.puertodebarranquilla.com/,"Carrera 38 Calle 1ra, Orilla del Río Magdalena, Barranquilla, Atlántico, Colombia",
COBUN,,SPIA,SOCIEDAD PUERTO INDUSTRIAL AGUADULCE,SOCIEDAD PUERTO INDUSTRIAL AGUADULCE,"N 03°54'17""","W 077°05'02""",3.904722,-77.083889,,2019-06-06,,https://www.puertoaguadulce.com,"Buenaventura, Valle del Cauca, Colombia",
COBUN,,TCBUN,TCBUEN S.A.,TERMINAL DE CONTENEDORES DE BUENAVENTURA S.A.,"N 03°53'33""","W 077°02'36""",3.8925,-77.043333,,2004-05-31,,https://www.tcbuen.com/en/,"Carrera 28A No. 7-152, Buenaventura, Valle del Cauca, Colombia",
COBUN,,SPRBU,TERMINAL MARITIMO SOCIEDAD PORTUARIA REGIONAL (SPRBUN),TERMINAL MARITIMO SOCIEDAD PORTUARIA REGIONAL DE BUENAVENTURA S.A. (SPRBUN),"N 03°53'36""","W 077°04'21""",3.893333,-77.0725,,2004-05-31,,http://www.sprbun.com,"Calle 11, Buenaventura, Valle del Cauca, Colombia",
COCTG,,CTGTM,COMPANIA DE PUERTOS ASOCIADO (COMPAS),COMPANIA DE PUERTOS ASOCIADO (COMPAS),"N 10°23'56""","W 075°31'42""",10.398889,-75.528333,2020-12-01,2018-02-07,,https://www.compas.com.co/en/terminals/cartagena,"Avenida Pedro Vélez 48-14, Barrio el Bosque, Cartagena, Bolívar, Colombia",
COCTG,,SPRC,SOCIEDAD PORTUARIA REGIONAL DE CARTAGENA (SPRC),SOCIEDAD PORTUARIA REGIONAL DE CARTAGENA (SPRC),"N 10°24'21""","W 075°32'03""",10.405833,-75.534167,,2004-05-31,,https://www.puertocartagena.com/en/sprc,"Manga Sea Terminal, Cartagena, Bolívar, Colombia",
COCTG,,TCC,TERMINAL DE CONTENEDORES DE CARTAGENA (CONTECAR),TERMINAL DE CONTENEDORES DE CARTAGENA (CONTECAR),"N 10°22'35""","W 075°30'36""",10.376389,-75.51,,2004-05-31,,https://www.puertocartagena.com/en/contecar,"Via Mamonal Kilometro 1, Cartagena 130013, Bolívar, Colombia",
COSMR,,SMIT,SANTA MARTA INTERNATIONAL TERMINAL,SANTA MARTA INTERNATIONAL TERMINAL COMPANY S.A. (SMITCO),"N 11°15'03""","W 074°12'55""",11.250833,-74.215278,,2004-05-31,,http://www.smitco.com.co/company/index.html,"Carrera 1A No. 10A-12, Interior Terminal Maritimo, Santa Marta, Magdalena, Colombia",
COTRB,,TURBO,TURBO PORT,TURBO PORT,"N 08°05'16""","W 076°44'03""",8.087778,-76.734167,,2014-11-06,,https://www.marfret.fr/en/ports/turbo-en/,,Technically not a port. Operations are performed off shore in an open roadstead.
CRCAL,,SPCAD,SOCIEDAD PORTUARIA DE CALDERA S.A.,SOCIEDAD PORTUARIA DE CALDERA S.A.,"N 09°54'42""","W 084°43'11""",9.911667,-84.719722,,2004-05-31,,,,
CRLIO,,JAPDE,HERNAN GARRON SALAZAR TERMINAL LIMON,JAPDEVA,"N 09°59'24""","W 083°01'19""",9.99,-83.021944,2020-12-01,2004-05-31,,http://www.japdeva.go.cr/administracion_portuaria/,,
CRMOB,,APMT,APM TERMINALS MOIN,APM TERMINALS MOIN,"N 10°00'33""","W 083°00'15""",10.009167,-83.004167,,2018-08-06,,,,
CRMOB,,TMOIN,GASTON KOGAN KOGAN TERMINAL MOIN,JAPDEVA,"N 10°00'06""","W 083°04'39""",10.001667,-83.0775,2020-12-01,2004-05-31,,http://www.japdeva.go.cr/administracion_portuaria/,,
CUHAV,,HABA,TERMINAL DE CONTENEDORES DE LA HABANA,TERMINAL DE CONTENEDORES DE LA HABANA (TCH),"N 23°07'06""","W 082°20'37""",23.118333,-82.343611,,2004-05-31,,,,
CUMAR,,TCM,TERMINAL DE CONTENEDORES DE MARIEL,TERMINAL DE CONTENEDORES DE MARIEL,"N 23°00'25""","W 082°45'45""",23.006944,-82.7625,,2014-09-02,,https://www.tcmariel.cu/?lang=en,"4th Street, No. 705 e/ 7th and Mar, Angosta Peninsula, Mariel Municipality, Artemisa, Cuba",
CWWIL,,CPS,CURACAO PORT SERVICES,CURACAO PORT SERVICES INC.,"N 12°06'52""","W 068°54'53""",12.114444,-68.914722,,2004-05-31,,,,
CYLMS,,DPWLM,DP WORLD LIMASSOL,DP WORLD,"N 34°39'21""","E 033°01'08""",34.655833,33.018889,2019-12-13,2017-05-24,,https://www.dpworldlimassol.com,,
CYLMS,,EGL,EUROGATE CONTAINER TERMINAL LIMASSOL,EUROGATE CONTAINER TERMINAL LIMASSOL,"N 34°38'53""","E 033°00'41""",34.648056,33.011389,2019-12-13,2016-10-01,,http://www1.eurogate.de/en/Terminals/Limassol,"1 Episkopou Meletiou str., 3045 Limassol, Cyprus",
DEBRV,,BLG,BLG AUTOTERMINAL BREMERHAVEN,BLG LOGISTICS GROUP,"N 53°34'36""","E 008°33'00""",53.576667,8.55,2020-05-01,2005-02-23,,https://www.blg-logistics.com/,"Senator-Borttscheller-Str. 1, 27568 Bremerhaven, Germany",
DEBRV,,EGB,EUROGATE CONTAINER TERMINAL BREMERHAVEN,EUROGATE CONTAINER TERMINAL BREMERHAVEN,"N 53°35'10""","E 008°31'45""",53.586111,8.529167,2019-12-13,2004-11-16,,http://www1.eurogate.de/en/Terminals/Bremerhaven,"Senator-Borttscheller-Str. 1, 27568 Bremerhaven, Germany",
DEBRV,,MSCBH,MSC GATE BREMERHAVEN,MSC GATE BREMERHAVEN GMBH & CO. KG.,"N 53°34'26""","E 008°32'25""",53.573889,8.540278,2019-12-13,2004-05-31,,http://www.mscgate.eu/,"Senator-Borttscheller-Str. 1, 27568 Bremerhaven, Germany",
DEBRV,,NTB,NORTH SEA TERMINAL BREMERHAVEN (NTB),NORTH SEA TERMINAL BREMERHAVEN GMBH & CO.,"N 53°35'50""","E 008°31'03""",53.597222,8.5175,2019-12-13,2005-02-23,,https://www.ntb.eu/en/,"Senator-Borttscheller-Str. 14, 27568 Bremerhaven, Germany",
DEHAM,,EGH,EUROGATE CONTAINER TERMINAL HAMBURG,EUROGATE CONTAINER TERMINAL HAMBURG,"N 53°31'45""","E 009°54'53""",53.529167,9.914722,2019-12-13,2004-11-16,,http://www1.eurogate.de/en/Terminals/Hamburg,"Kurt-Eckelmann-Str. 1, 21129 Hamburg, Germany",
DEHAM,,CTA,HHLA CONTAINER TERMINAL ALTENWERDER (CTA),HHLA (HAMBURGER HAFEN UND LOGISTIK AG),"N 53°30'03""","E 009°56'11""",53.500944,9.936306,2019-12-13,2004-05-17,,https://hhla.de/en/container/cta.html,"Am Ballinkai 1, 21129 Hamburg, Germany",
DEHAM,,CTB,HHLA CONTAINER TERMINAL BURCHARDKAI (CTB),HHLA (HAMBURGER HAFEN UND LOGISTIK AG),"N 53°32'10""","E 009°54'56""",53.536111,9.915556,2019-12-13,2004-05-17,,https://hhla.de/en/container/ctb.html,"Waltershofer Damm - Bürogebäude 3, 21129 Hamburg, Germany",
DEHAM,,CTT,HHLA CONTAINER TERMINAL TOLLERORT (CTT),HHLA (HAMBURGER HAFEN UND LOGISTIK AG),"N 53°32'03""","E 009°57'00""",53.534167,9.95,2019-12-13,2004-05-17,,https://hhla.de/en/container/ctt.html,"Am Vulkanhafen 30, 20457 Hamburg, Germany",
DEHAM,,FRU,HHLA FRUCHT- UND KUEHL-ZENTRUM,HHLA FRUCHT- UND KUEHL-ZENTRUM GMBH,"N 53°31'44""","E 010°00'41""",53.528889,10.011389,2019-12-13,2018-04-25,,http://www.fruchthafen.de,"Dessauer Str. 10, 20457 Hamburg, Germany",
DEHAM,,RMH,RHENUS MIDGARD HAMBURG,RHENUS MIDGARD HAMBURG GMBH,"N 53°31'39""","E 009°53'59""",53.5275,9.899722,,2019-09-13,,https://www.de.rhenus.com/leistungen/umschlaglogistik/seehaefen/hamburg,"Antwerpenstr. 1a, 21129 Hamburg, Germany",
DEHAM,,SWT,SUD-WEST TERMINAL,C. STEINWEG,"N 53°32'00""","E 009°59'16""",53.533333,9.987778,2019-12-13,2004-06-25,,https://hamburg.steinweg.com/en/,"Am Kamerunkai 5, 20457 Hamburg, Germany",
DEHAM,,UCT,UNIKAI - UCT (O'SWALDKAI),UNIKAI LAGEREI- UND SPEDITIONSGESELLSCHAFT,"N 53°31'51""","E 010°00'01""",53.530833,10.000278,2019-12-13,2005-02-23,,https://www.unikai.de/index.php/en/,"Dessauer Str. 10, 20457 Hamburg, Germany",
DEWVN,,EGW,EUROGATE CONTAINER TERMINAL WILHELMSHAVEN,EUROGATE CONTAINER TERMINAL WILHELMSHAVEN,"N 53°35'38""","E 008°09'04""",53.593889,8.151111,2019-12-13,2015-01-20,,http://www1.eurogate.de/en/Terminals/Wilhelmshaven,"Ozean-Pier 1, 26388 Wilhelmshaven, Germany",
DJJIB,,DCT,DORALEH CONTAINER TERMINAL,DORALEH CONTAINER TERMINAL S.A.,"N 11°35'53""","E 043°06'22""",11.598056,43.106111,,2020-12-01,,http://www.sgtd-terminal.com,,
DJJIB,,DMP,DORALEH MULTI-PURPOSE PORT,PORT DE DJIBOUTI S.A.,"N 11°36'02""","E 043°04'09""",11.600556,43.069167,,2021-03-01,,https://www.portdedjibouti.com/,,
DKAAL,,DKACT,AALBORG CONTAINER TERMINAL,AALBORG CONTAINER TERMINAL,"N 57°02'51""","E 010°03'20""",57.0475,10.055556,2020-01-03,2016-11-01,,https://www.aalborghavn.dk,,
DKAAR,,APMT,APM TERMINALS AARHUS,APM TERMINALS,"N 56°09'15""","E 010°14'29""",56.154167,10.241389,2020-01-03,2006-08-23,,https://www.apmterminals.com/en/aarhus,"Osthavnsvej 43, 8100 Aarhus, Denmark",
DKCPH,,CMPDK,CMP CONTAINER TERMINAL COPENHAGEN,COPENHAGEN MALMO PORT (CMP),"N 55°42'40""","E 012°36'18""",55.711111,12.605,2020-02-29,2006-05-22,,http://www.cmport.com/,"Containervej 9, 2150 Copenhagen, Denmark",
DKFRC,,FCT,FREDERICIA CONTAINER TERMINAL,FREDERICIA CONTAINER TERMINAL,"N 55°33'29""","E 009°44'43""",55.558056,9.745278,2020-01-03,2008-01-16,,https://www.adp-as.dk/en/ports/port-of-fredericia/,,
DKKAL,,DKKAL,KALUNDBORG CONTAINER TERMINAL,KALUNDBORG CONTAINER TERMINAL,"N 55°40'31""","E 011°05'44""",55.675278,11.095556,2020-01-03,2016-09-30,,https://www.portofkalundborg.dk,,
DOCAU,,DPCAU,DP WORLD CAUCEDO,DP WORLD,"N 18°25'24""","W 069°37'50""",18.423333,-69.630556,2020-12-01,2004-05-31,,https://en.caucedo.com/,"Edificio Administrativo, Suite 300, Punta Caucedo, Boca Chica 15700, Dominican Republic",
DOHAI,,HIT,HAINA INTERNATIONAL TERMINALS,HAINA INTERNATIONAL TERMINALS,"N 18°25'30""","W 070°01'03""",18.425,-70.0175,,2004-05-31,,https://hit.com.do/,"Km. 13.5 Carretera Sánchez Edificio Navieros, Puerto Río Haina, Santo Domingo Oeste, Dominican Republic",
DOSPM,,PLC,"COASTAL PETROLEUM DOMINICANA, PUERTO LA CANA","COASTAL PETROLEUM DOMINICANA, S.A.","N 18°26'21""","W 069°15'09""",18.439167,-69.2525,,2019-06-06,,https://www.grupopropagas.com/coastal,,
DZALG,,EPAL,ENTREPRISE PORTUAIRE D'ALGER (EPAL),ENTREPRISE PORTUAIRE D'ALGER (EPAL),"N 36°45'36""","E 003°04'12""",36.76,3.07,,2004-05-31,,https://www.portalger.com.dz/,,
DZORN,,EPO,ENTREPRISE PORTUAIRE D'ORAN (EPO),ENTREPRISE PORTUAIRE D'ORAN (EPO),"N 35°42'41""","W 000°38'25""",35.711389,-0.640278,,2004-05-31,,http://www.port-oran.dz/,"01 rue du 20 aout, 31000, Oran, Algieria",
ECGYE,,CONTE,CONTECON GUAYAQUIL,CONTECON GUAYAQUIL S.A.,"S 02°17'00""","W 079°54'06""",-2.283333,-79.901667,,2004-05-31,,https://www.cgsa.com.ec/en/home/,"Av. De la Marina, Puerto Libertador Simón Bolívar, Guayaquil 090112, Ecuador",
ECGYE,,BANA,TERMINAL BANANAPUERTO,NAPORTEC S.A.,"S 02°15'11""","W 079°55'37""",-2.253056,-79.926944,,2004-05-31,,http://www.camae.org/puerto/naportec-bananapuerto/,"Av.52 y Av. De los Angeles Via Perimetral, Guayaquil 090209, Ecuador",
ECGYE,,FERPOR,TERMINAL PORTUARIO FERTISA,"FERTISA FERTILIZANTES, TERMINALES I SERVICIOS S.A.","S 02°15'18""","W 079°54'34""",-2.255,-79.909444,,2016-11-09,,https://www.terminalfertisa.com,,
ECGYE,,TPG,TPG - TERMINAL PORTUARIO GUAYAQUIL (INARPI),TERMINAL PORTUARIO DE GUAYAQUIL,"S 02°14'46""","W 079°55'45""",-2.246111,-79.929167,,2004-05-31,,https://www.saam.com/en/port-terminals/guayaquil-port-terminal-tpg/,,
ECPBO,,ECPBO,YILPORT TERMINAL PUERTO BOLIVAR,YILPORT HOLDING INC.,"S 03°15'55""","W 080°00'01""",-3.265278,-80.000278,,2018-02-19,,http://www.puertobolivar.com,,
ECPSJ,,DPWPSJ,DP WORLD POSORJA,DP WORLD,"S 02°41'32""","W 080°14'50""",-2.692222,-80.247222,2020-05-01,2019-06-04,,https://www.dpworldposorja.com.ec,"Edif. Trade Building, PB, Guayaquil",
EEMUG,,TKM,TK MUUGA CONTAINER TERMINAL,HHLA TK ESTONIA,"N 59°29'30""","E 024°58'04""",59.491667,24.967778,2020-02-29,2015-04-07,,http://www.tk.ee/welcome_eng.html,"Veose 16, 74115 Maardu, Estonia",
EGALY,,ACHC,ACHC ALEXANDRIA,ALEXANDRIA CONTAINER & CARGO HANDLING COMPANY (ACHC),"N 31°11'18""","E 029°52'27""",31.188333,29.874167,2020-01-03,2004-05-31,,https://alexcont.com/en,,
EGALY,,DEKHEI,ACHC EL DEKHEILA,ALEXANDRIA CONTAINER & CARGO HANDLING COMPANY (ACHC),"N 31°08'24""","E 029°47'39""",31.14,29.794167,2020-01-03,2015-06-20,,https://alexcont.com/en,,
EGALY,,AICT,AICT ALEXANDRIA,ALEXANDRIA INTERNATIONAL CONTAINER TERMINAL COMPANY (AICT) / HUTCHISON,"N 31°10'09""","E 029°51'40""",31.169167,29.861111,2020-01-03,2004-05-31,,https://hutchisonports.com/en/ports/egypt/,,
EGALY,,ALEXAN,AICT EL DEKHEILA,ALEXANDRIA INTERNATIONAL CONTAINER TERMINAL COMPANY (AICT) / HUTCHISON,"N 31°08'38""","E 029°47'34""",31.143889,29.792778,2020-01-03,2015-06-20,,https://hutchisonports.com/en/ports/egypt/,,
EGDAM,,DCHC,DAMIETTA CONTAINER & HANDLING - DCHC,DAMIETTA CONTAINER & HANDLING - DCHC,"N 31°27'35""","E 031°45'29""",31.459722,31.758056,,2014-07-22,,,,
EGPSD,,PSCCH,PORT SAID CONTR & CARGO HANDLING (PSCCHC),HOLDING CO. FOR LAND & MARITIME TRANSPORT,"N 31°14'40""","E 032°18'06""",31.244444,32.301667,,2004-05-31,,https://www.pscchc.com/,,
EGPSD,,SCCT,SUEZ CANAL CONTAINER TERMINAL (SCCT),SUEZ CANAL CONTAINER TERMINAL (SCCT),"N 31°12'42""","E 032°21'25""",31.211667,32.356944,,2004-05-31,,https://scct.com.eg/,"East Portsaid, Private Free Zone, Shark El Tafreaa, Port Said Governorate, Egypt",
EGSOK,,DPWSOK,DP WORLD SOKHNA,DP WORLD,"N 29°39'06""","E 032°21'12""",29.651667,32.353333,,2018-05-25,,https://www.dpworldsokhna.com/Overview.htm,,
ESACE,,LMM,"PORT OF ARRECIFE, LANZAROTE",TERMINAL PORTUARIA DE LANZAROTE S.L.,"N 28°58'09""","W 013°31'47""",28.969167,-13.529722,2020-02-29,2005-08-18,,http://www.palmasport.es/en/port-of-arrecife/,,
ESAGP,,NOATM,MALAGA TERMINAL,NOATUM MARITIME,"N 36°42'17""","W 004°25'12""",36.704722,-4.42,2020-01-03,2017-04-27,,https://www.noatummaritime.com/en/servicios-portuarios/noatum-terminal-malaga/,,
ESALG,,APM,APM TERMINALS ALGECIRAS,APM TERMINALS,"N 36°08'29""","W 005°26'10""",36.141389,-5.436111,2020-02-29,2004-05-17,,https://www.apmterminals.com/en/algeciras,"Muelle Juan Carlos I, s/n, 11201 Algeciras (Cádiz), Spain",
ESALG,,TTI,TOTAL TERMINAL INTERNATIONAL ALGECIRAS,TOTAL TERMINAL INTERNATIONAL ALGECIRAS,"N 36°07'47""","W 005°25'22""",36.129722,-5.422778,2020-02-29,2014-10-22,,http://www.ttialgeciras.com/en/,"Muelle de Isla Verde Exterior, s/n, 11207 Algeciras (Cádiz), Spain",
ESBCN,,BEST,BARCELONA EUROPE SOUTH TERMINAL (BEST),HUTCHISON PORTS,"N 41°18'35""","E 002°08'54""",41.309722,2.148333,2020-01-03,2017-08-04,,https://hutchisonports.com/en/ports/world/barcelona-europe-south-terminal-best/,"Avinguda Estany del Port, 91, Prat wharf, 08820 Barcelona, Spain",
ESBCN,,TCB,CONTAINER TERMINAL BARCELONA (TCB),APM TERMINALS BARCELONA,"N 41°21'09""","E 002°10'11""",41.3525,2.169722,2020-01-03,2004-05-17,,https://www.apmterminals.com/en/barcelona,"Ronda del Port, 233, Moll Sud - Port de Barcelona, 08039 Barcelona, Spain",
ESBCN,,PNOU3,TERMINAL PORT NOU,"TERMINAL PORT NOU, S.A.","N 41°20'48""","E 002°10'19""",41.346667,2.171944,2020-01-03,2015-06-12,,http://portnou.com/?lang=en,"Vial Moll Adossat, 200, 08039 Port de Barcelona, Spain",
ESBIO,,BMB,BERGE MARITIMA BILBAO (EX MARITIMA CANDINA),BERGE MARITIMA BILBAO,"N 43°20'20""","W 003°02'02""",43.338889,-3.033889,2020-02-29,2015-11-04,,http://www.berge-m.es/ports.html,,Ex Maitima Candina. Bergé acquired Maritima Candina in 2010.
ESBIO,,NOATB,CSP SPAIN BILBAO TERMINAL,COSCO SHIPPING PORTS (SPAIN) TERMINALS S.L.U.,"N 43°20'34""","W 003°02'45""",43.342778,-3.045833,2020-02-29,2004-05-31,,https://www.cspspain.com/en/bilbao,,Noatum Ports rebranded itself to CSP Spain in April 2019.
ESCAD,,TCD,"CONCASA CONTAINER TERMINAL, REINA SOFIA QUAY","COMPANIA GADITANA DE CONTENEDORES, SL (CONCASA)","N 36°32'16""","W 006°17'14""",36.537778,-6.287222,2020-02-29,2005-07-21,,https://www.puertocadiz.com/en/home/,,
ESCAR,,TMC,TERMINAL MARITIMA DE CARTAGENA (TMC),NOATUM MARITIME,"N 37°35'39""","W 000°58'26""",37.594167,-0.973889,2020-02-29,2005-08-18,,https://www.noatum.com/en/terminales-operaciones-portuarias/terminales-maritimos-de-cartagena/,,
ESCEU,,CETRU,DIQUE DE PONIENTE CEUTA,DIQUE DE PONIENTE CEUTA,"N 35°53'52""","W 005°19'26""",35.897778,-5.323889,2020-02-29,2005-08-18,,http://www.puertodeceuta.com/en/home/,,
ESGIJ,,TEGIJ,TERMINAL GIJON,TERMINAL DE CONTENEDORES DE GIJON A.I.E.,"N 43°33'18""","W 005°41'22""",43.555,-5.689444,,2004-05-31,,https://www.apmterminals.com/gijon,"Muelle de La Osa, Tinglado 1, Puerto de El Musel, 33212 Gijón, Spain",
ESHUV,,PDH,HUELVA CONTAINER TERMINAL,YILPORT HOLDING INC.,"N 37°09'05""","W 006°52'48""",37.151389,-6.88,,2020-09-01,,https://www.yilport.com/en/ports/default/Huelva-Spain/117/0/0,"Puerto Exterior, Muelle Sur, 21810 Puerto de Huelva, Spain",
ESLCG,,TMGA,TERMINALES MARITIMOS DE GALICIA (TMGA),TERMINALES MARITIMOS DE GALICIA (TMGA),"N 43°21'33""","W 008°23'34""",43.359167,-8.392778,2020-02-29,2015-11-01,,http://www.tmga.es/La_Coruna_Terminal,"Muelle de San Diego, s/n, 15006 A Coruna, Spain",
ESLPA,,LALUZ,BOLUDA MARITIME TERMINAL LA LUZ,BOLUDA CORPORACION MARITIMA S.A.,"N 28°08'33""","W 015°24'43""",28.1425,-15.411944,,2004-05-31,,https://www.boluda.com.es/en/maritime-terminals/las-palmas-de-gran-canaria-en/,,
ESLPA,,OPCSA,"OPERACIONES PORTUARIAS, S.A.","OPERACIONES PORTUARIAS, S.A.","N 28°07'59""","W 015°24'53""",28.133056,-15.414722,2020-01-03,2017-01-29,,http://www.opcsa.com/opcsacom/,"Muelle de León y Castillo, 12, 35008 Las Palmas de Gran Canaria, Las Palmas, Spain",
ESMLN,,EPN,MELILLA PORT,MELILLA PORT,"N 35°17'28""","W 002°55'37""",35.291111,-2.926944,2020-02-29,2005-10-07,,https://www.puertodemelilla.es/,,
ESMPG,,MPT,MARIN PORT TERMINAL,PEREZ TORRES MARITIMA S.L.,"N 42°24'19""","W 008°41'34""",42.405278,-8.692778,2020-02-29,2015-11-01,,https://www.ptmar.com/en/puertos/puerto-marin,,
ESSAG,,INTERS,"INTERSAGUNTO TERMINALES, S.A.","INTERSAGUNTO TERMINALES, S.A.","N 39°38'40""","W 000°13'00""",39.644444,-0.216667,2020-01-03,2017-01-29,,http://saguntoti.com/,"Muelle Norte 2 S/N, 46520 Puerto de Sagunto, Valencia, Spain",
ESSCT,,CAPSA,BOLUDA MARITIME TERMINAL TENERIFE,BOLUDA CORPORACION MARITIMA S.A.,"N 28°29'15""","W 016°13'43""",28.4875,-16.228611,2020-02-29,2005-08-22,,https://www.boluda.com.es/en/maritime-terminals/tenerife-en/,"Carretera San Andrés, Muelle del Bufadero, 1, 38180 Santa Cruz de Tenerife, Spain",Boluda Corporacion Maritima acquired Compania Auxiliar del Puerto (CAPSA) in October 2017.
ESSCT,,ESTCT,CONTAINER TERMINAL TENERIFE (TCT),TERMINAL DE CONTENEDORES DE TENERIFE SA,"N 28°29'21""","W 016°13'25""",28.489167,-16.223611,2020-02-29,2013-04-11,,http://www.tctenerife.es/en/,"Nueva Terminal del Dique del Este, 38180 Santa Cruz de Teneriffe, Spain",
ESTAR,,DPWTA,DP WORLD TARRAGONA,"DP WORLD TARRAGONA, S.A.","N 41°05'43""","E 001°12'37""",41.095278,1.210278,,2004-05-31,,https://www.dpworldtarragona.com/,"Muelle de Andalucia, s/n, 43004 Tarragona, Spain",
ESTAR,,FRUPO,FRUPORT TARRAGONA,FRUPORT TARRAGONA S.L.,"N 41°06'21""","E 001°14'23""",41.105833,1.239722,2021-03-01,2004-05-31,,http://www.fruport.com/,"Muelle de Reus, s/n, 43004 Tarragona, Spain",
ESVGO,,TMI,TERMINALES MARITIMAS DE VIGO (TERMAVI),TERMINALES MARITIMAS DE VIGO S.L. (TERMAVI),"N 42°14'46""","W 008°42'37""",42.246111,-8.710278,2020-02-29,2005-10-07,,https://www.termavi.com/,"Terminales maritimas de Vigo S.L.U, Muelle de Guixar, s/n, 36280 Vigo, Spain",
ESVLC,,TCV,APM TERMINALS VALENCIA (TCV),APM TERMINALS,"N 39°27'08""","W 000°19'07""",39.452222,-0.318611,2020-02-29,2004-05-17,,https://www.apmterminals.com/valencia,,"Established as ""TCV Multipurpose Terminal"" at the Levante Pier. APMT acquired 75% in 2016."
ESVLC,,NOATV,CSP SPAIN VALENCIA TERMINAL,COSCO SHIPPING PORTS (SPAIN) TERMINALS S.L.U.,"N 39°25'57""","W 000°19'26""",39.4325,-0.323889,2020-02-29,2004-05-31,,https://cspspain.com/en/valencia,,Noatum Ports rebranded itself to CSP Spain in April 2019.
ESVLC,,MSCVC,MSC TERMINAL VALENCIA,MEDITERRANEAN SHIPPING COMPANY TERMINAL VALENCIA S.A.,"N 39°26'20""","W 000°19'25""",39.438889,-0.323611,2020-02-29,2004-05-31,,https://www.msctv.es/,,
FIHEL,,MLTHEL,MULTI-LINK TERMINAL VUOSAARI,MULTI-LINK TERMINALS LTD. OY,"N 60°12'44""","E 025°11'31""",60.212222,25.191944,2020-02-29,2015-03-17,,http://mlt.fi/vuosaari/,,"Vuosaari Harbour, D (West) Quay (southern part), berths VDC/VD5"
FIHEL,,FSHVU,"VUOSAARI HARBOUR, EAST QUAY",FINNSTEVE OY AB,"N 60°12'55""","E 025°11'35""",60.215278,25.193056,2020-02-29,2006-03-13,,http://www.finnsteve.com/location/helsinki,,"Vuosaari Harbour, E (East) Quay, berths VEA/VEB/VEC/VED"
FIHEL,,FIVCT,"VUOSAARI HARBOUR, WEST QUAY",STEVECO OY,"N 60°12'53""","E 025°11'16""",60.214722,25.187778,2020-02-29,2008-10-27,,https://www.steveco.fi/en/index/toimipisteet/YKcus5Nvg.html,"Satamakaari 35C, 00980 Helsinki, Finland","Vuosaari Harbour, D (West) Quay (northern part), berths VDA/VDB"
FIHMN,,FIHMN,PORT OF HAMINA,STEVECO OY,"N 60°31'35""","E 027°10'12""",60.526389,27.17,2020-02-29,2006-02-27,,https://www.steveco.fi/en/index/toimipisteet/2YbuynxZs.html,"Gerhardin väylä 4, 49460 Hamina, Finland",
FIKOK,,AWT,ALL WEATHER TERMINAL KOKKOLA,OY M RAUANHEIMO AB,"N 63°50'40""","E 023°01'11""",63.844444,23.019722,2020-01-03,2019-09-13,,https://www.rauanheimo.com/en/kokkola-2/,"Satamatullintie 5, 67900 Kokkola, Finland",
FIKOK,,STE,SILVERSTONE PORT,PORT OF KOKKOLA LTD.,"N 63°51'35""","E 023°02'10""",63.859722,23.036111,2020-01-03,2019-09-13,,https://portofkokkola.fi/en/ports/silverstone-port/,"Kantasatamantie 50, 67900 Kokkola, Finland",
FIKTK,,FIKCT,KOTKA CONTAINER TERMINAL,STEVECO OY,"N 60°25'16""","E 026°54'33""",60.421111,26.909167,2020-04-01,2006-02-27,,https://www.steveco.fi/en/index/toimipisteet/tphMBmr6K.html,"Siikasaarentie 130, 48310 Kotka, Finland","Mussalo Harbour, C Quay"
FIKTK,,MLTKTK,MULTI-LINK TERMINAL KOTKA,MULTI-LINK TERMINALS LTD. OY,"N 60°25'27""","E 026°54'35""",60.424167,26.909722,2020-04-01,2015-03-17,,http://mlt.fi/,"Merituulentie 424, 48310 Kotka, Finland","Mussalo Harbour, B Quay"
FIKTK,,FIHIE,RORO TERMINAL HIETANEN,STEVECO OY,"N 60°29'08""","E 026°56'46""",60.485556,26.946111,2020-02-29,2006-02-27,,https://www.steveco.fi/en/index/toimipisteet/yIhKeO3ym.html,"Hietasentie 123, 48200 Kotka, Finland",RoRo terminal
FIMTY,,FHCL,MANTYLUOTO (PORT OF PORI),OY HACKLIN LTD.,"N 61°35'49""","E 021°28'12""",61.596944,21.47,2020-02-29,2009-02-20,,https://www.hacklin.fi/page.php?lang=en&id=32,,
FIRAU,,REU,RAUMA PORT,RAUMA PORT,"N 61°07'50""","E 021°25'58""",61.130556,21.432778,2020-02-29,2015-10-09,,https://www.portofrauma.com/en,,
FITKU,,FSTP,PANSIO HARBOUR,FINNSTEVE OY AB,"N 60°26'33""","E 022°10'05""",60.4425,22.168056,2020-02-29,2006-03-13,,https://www.portofturku.fi/en/ports-operations/areas-and-maps/pansio-harbour/,,
FITKU,,FSTW,WEST HARBOUR,FINNSTEVE OY AB,"N 60°26'17""","E 022°12'45""",60.438056,22.2125,2020-02-29,2006-03-13,,https://www.portofturku.fi/en/ports-operations/areas-and-maps/west-harbour/,,
FJSUV,,POSU,PORT OF SUVA,FIJI PORT CORPORATION LIMITED,"S 18°07'57""","E 178°25'30""",-18.1325,178.425,,2014-02-06,,,,
FRDKK,,TDF,TERMINAL DES FLANDRES,TERMINAL DES FLANDRES,"N 51°00'52""","E 002°11'01""",51.014444,2.183611,,2017-09-15,,https://www.terminal-des-flandres.com/en/,"Port Ouest, 5895 Route du Royaume Uni, 59279 Loon-Plage, France",
FRFOS,,EURFO,EUROFOS,EUROFOS,"N 43°24'24""","E 004°51'01""",43.406667,4.850278,,2004-05-31,,https://www.eurofos.fr/,,
FRFOS,,SEYA,SEAYARD,SEAYARD,"N 43°25'11""","E 004°49'48""",43.419722,4.83,,2004-05-31,,http://www.seayard.com/fr/,,
FRLEH,,TDF,"TERMINAL DE FRANCE, QUAI DU HAVRE",GENERALE DU MANUTENTION PORTUAIRE (GMP),"N 49°27'27""","E 000°10'12""",49.4575,0.17,2020-01-24,2006-06-08,,https://www.haropaports.com/en/container-terminals,,
FRLEH,,QATL,"TERMINAL DE L'ATLANTIQUE, QUAI DE L'ATLANTIQUE",COMPAGNIE NOUVELLE DE MANUTENTIONS PORTUAIRES (CNMP),"N 49°28'25""","E 000°09'13""",49.473611,0.153611,2020-01-24,2004-05-31,,https://www.haropaports.com/en/container-terminals,"3744 Quai de l'Atlantique, CS 80880, 76087 Le Havre, France",
FRLEH,,TMS,TERMINAL DE NORMANDIE MSC (TNMSC),TERMINAUX DE NORMANDIE,"N 49°27'41""","E 000°08'29""",49.461389,0.141389,2020-01-24,2012-04-02,,https://www.haropaports.com/en/container-terminals,,
FRLEH,,EUP,"TERMINAL NORD, QUAI DE L'EUROPE",GENERALE DU MANUTENTION PORTUAIRE (GMP),"N 49°28'53""","E 000°10'41""",49.481389,0.178056,2020-01-24,2005-10-07,,https://www.haropaports.com/en/container-terminals,"Avenue du 16éme Port, 76600 Le Havre, France",
FRLEH,,AMQ,"TERMINAL NORD, QUAI DES AMERIQUES",GENERALE DU MANUTENTION PORTUAIRE (GMP),"N 49°28'34""","E 000°09'55""",49.476111,0.165278,2020-01-24,2005-10-07,,https://www.haropaports.com/en/container-terminals,"Avenue du 16éme Port, 76600 Le Havre, France",
FRLEH,,TPO,TERMINAL PORTE OCEANE,TERMINAUX DE NORMANDIE,"N 49°27'35""","E 000°09'14""",49.459722,0.153889,2020-04-01,2006-10-27,,https://www.haropaports.com/en/container-terminals,"Zone Port 2000, Route de lEstuaire Port Sud, 76600 Le Havre, France",
FRMTX,,TGO,"TERMINAL DU GRAND OUEST, QUAI DE MONTOIR",TERMINAL DU GRAND OUEST (TGO),"N 47°18'00""","W 002°09'00""",47.3,-2.15,,2017-11-23,,https://www.tgo-terminal.com,,
GAOWE,,NGI,NEW GABON INTERNATIONAL PORT OWENDO,GSEZ CARGO PORT S.A,"N 00°17'03""","E 009°30'24""",0.284167,9.506667,,2017-04-03,,http://www.gsez.com/new-owendo-international-port.php,,
GBBEL,,VIC3,VICTORIA TERMINAL 3 (VT3),BELFAST CONTAINER TERMINAL,"N 54°37'56""","W 005°53'05""",54.632222,-5.884722,2020-01-03,2015-05-22,,https://www.icg.ie/our-businesses/container-terminal/belfast-container-terminals/,"19 W Bank Rd, Belfast BT3 9JL, United Kingdom",
GBFXT,,DLY,DOOLEY RORO TERMINAL,PORT OF FELIXSTOWE,"N 51°57'07""","E 001°18'51""",51.951944,1.314167,2020-01-03,2004-05-31,,https://www.portoffelixstowe.co.uk/port/ro-ro-operations/,"Tomline House, The Dock, Felixstowe IP11 3SY, United Kingdom",
GBFXT,,LNG,LANDGUARD TERMINAL,PORT OF FELIXSTOWE,"N 51°56'33""","E 001°19'12""",51.9425,1.32,2020-01-03,2004-05-31,,https://www.portoffelixstowe.co.uk/,"Tomline House, The Dock, Felixstowe IP11 3SY, United Kingdom",
GBFXT,,TTY,TRINITY TERMINAL,PORT OF FELIXSTOWE,"N 51°57'38""","E 001°17'48""",51.960556,1.296667,2020-01-03,2004-05-31,,https://www.portoffelixstowe.co.uk/port/container-operations-berths-1-7/,"Tomline House, The Dock, Felixstowe IP11 3SY, United Kingdom",
GBGRG,,GBGR,GRANGEMOUTH TERMINAL,GRANGEMOUTH TERMINAL,"N 56°01'27""","W 003°41'57""",56.024167,-3.699167,2020-01-03,2004-05-31,,https://www.forthports.co.uk/our-ports/grangemouth/,,
GBGRK,,CLYDE,CLYDEPORT CONTAINER TERMINAL,PEEL PORTS CLYDEPORT CONTAINER TERMINAL,"N 55°57'21""","W 004°45'43""",55.955833,-4.761944,2020-01-03,2017-03-09,,https://www.peelports.com/ports/clydeport,,
GBHUL,,HCT,QUEEN ELIZABETH DOCK,HULL CONTAINER TERMINAL,"N 53°44'20""","W 000°15'47""",53.738889,-0.263056,2020-01-03,2006-07-10,,,,
GBLGP,,DPWLG,LONDON GATEWAY,DP WORLD,"N 51°30'26""","E 000°29'00""",51.507222,0.483333,,2014-02-06,,,,
GBLIV,,RSCT,ROYAL SEAFORTH CONTAINER TERMINAL (RSCT),MERSEY DOCKS & HARBOUR COMPANY LTD.,"N 53°27'41""","W 003°01'18""",53.461389,-3.021667,2020-02-29,2015-05-22,,https://www.peelports.com/ports/liverpool,"Royal Seaforth Container Terminal, Liverpool L21 1JD, United Kingdom",Berths 3-6
GBRCS,,LTP,LONDON THAMESPORT CONTAINER TERMINAL,HUTCHISON PORT HOLDINGS (HPH),"N 51°25'58""","E 000°41'11""",51.432778,0.686389,,2004-05-31,,http://www.londonthamesport.co.uk/,"Grain Rd, Rochester ME3 0EP, United Kingdom",
GBSOU,,DPWS,DP WORLD SOUTHAMPTON,DP WORLD,"N 50°54'26""","W 001°27'26""",50.907222,-1.457222,2020-01-03,2015-05-22,,,,
GBTEE,,TEES,TEESPORT CONTAINER TERMINAL,PD PORTS TEESPORT CONTAINER TERMINAL,"N 54°36'20""","W 001°09'29""",54.605556,-1.158056,2020-05-01,2017-03-09,,https://www.pdports.co.uk/locations/teesport/,,"Two terminals: TCT1 at N54°36'06""N W001°09'06"" and TCT2 at N54°36'28""N W001°09'18""."
GBTIL,,LCT,LONDON CONTAINER TERMINAL,LONDON CONTAINER TERMINAL LTD.,"N 51°27'35""","E 000°20'13""",51.459722,0.336944,2020-01-03,2015-09-21,,https://www.londoncontainerterminal.com/,,
GEPTI,,APMT,APM TERMINALS POTI,APM TERMINALS POTI SEA PORT,"N 42°09'08""","E 041°39'12""",42.152222,41.653333,,2020-01-24,,https://www.apmterminals.com/en/poti,"52 David Aghmashenebeli Street, Poti 4401, Georgia","The inner pier at N42°09'16"" E041°39'53"" is also used by APMT."
GHTEM,,MPS,MERIDIAN PORT SERVICES,"MERIDIAN PORT SERVICES LTD (BOLLORE, APMT)","N 05°37'31""","E 000°00'31""",5.625278,0.008611,,2015-09-22,,http://www.mps-gh.com,,
GHTEM,,MPS3,MERIDIAN PORT SERVICES (MPS) TERMINAL 3,MERIDIAN PORT SERVICES LTD,"N 05°36'47""","W 000°00'47""",5.613056,-0.013056,2020-05-01,2019-07-05,,http://www.mps-gh.com,"Meridian Port Services Limited; P.O.BOX TT240, Tema New Town  Ghana;Tel: +233 (0) 307 085 000",
GHTEM,,GPHA,TEMA MAIN HARBOUR,TEMA MAIN HARBOUR,"N 05°37'49""","E 000°00'32""",5.630278,0.008889,,2015-09-22,,,,
GHTKD,,TKD1,TAKORADI PORT,GHANA PORTS AND HARBOURS AUTHORITY (TEMA PORT),"N 04°53'09""","W 001°44'17""",4.885972,-1.738028,,2020-05-01,,http://www.ghanaports.gov.gh,"Ghana Ports and Harbours Authority, P.O. Box CO488, Tema, Ghana; +233 (0) 303 219 120",
GIGIB,,GIBNM,"GIBRALTAR NORTH MOLE, BERTH 6","M.H. BLANDS STEVEDORING CO., LTD.","N 36°08'52""","W 005°21'50""",36.147778,-5.363889,2020-01-24,2004-05-31,,https://www.gibraltarport.com/,,
GRPIR,,GRPCT,PIRAEUS CONTAINER TERMINAL,PIRAEUS CONTAINER TERMINAL SA,"N 37°57'36""","E 023°35'09""",37.96,23.585833,,2015-03-11,,http://www.pct.com.gr,,
GRPIR,,PPA,PIRAEUS PORT AUTHORITY SA,PIRAEUS PORT AUTHORITY SA,"N 37°57'17""","E 023°35'22""",37.954722,23.589444,,2004-05-31,,,,
GRSKG,,THPASA,PORT AUTHORITY THESSALONIKI,PORT AUTHORITY THESSALONIKI,"N 40°38'08""","E 022°54'22""",40.635556,22.906111,2020-02-29,2015-09-21,,https://www.thpa.gr/,,
GTPBR,,TFPB,TERMINAL FERROVIARIA PUERTO BARRIOS,TERMINAL FERROVIARIA PUERTO BARRIOS,"N 15°44'04""","W 088°36'21""",15.734444,-88.605833,,2015-02-11,,,,
GTPRQ,,EPQEZ,EMPRESA PORTUARIA QUETZAL,EMPRESA PORTUARIA QUETZAL,"N 13°55'32""","W 090°47'10""",13.925556,-90.786111,,2004-05-31,,http://www.puerto-quetzal.com/,,
GTPRQ,,TCQ,TERMINAL DE CONTENEDORES QUETZAL (TCQ),APM TERMINALS,"N 13°55'38""","W 090°47'28""",13.927222,-90.791111,2020-02-29,2017-05-23,,https://www.apmterminals.com/en/puerto-quetzal,,APMT acquired TCS in 2015.
GTSTC,,EPSTC,EMPRESA PORTUARIA NACIONAL TERMINAL,EMPRESA PORTURIA NACIONAL,"N 15°41'47""","W 088°36'58""",15.696389,-88.616111,,2004-05-31,,,,
HKHKG,,ACTHK,ASIA CONTAINER TERMINALS (ACT),ASIA CONTAINER TERMINALS LTD.,"N 22°19'29""","E 114°07'35""",22.324722,114.126389,2020-01-03,2010-10-22,,https://www.hphtrust.com/portfolio_act.html,"Terminal 8 West, Container Port Road South, Kwai Chung, Hong Kong",Kwai Tsing Terminal 8 West
HKHKG,,CMC,CHINA MERCHANTS CONTAINER SERVICES,CHINA MERCHANTS CONTAINER SERVICES LTD.,"N 22°19'51""","E 114°05'22""",22.330833,114.089444,,2015-06-24,,http://cmcs.com.hk,"5-9 Tsing Keung Street, Tsing Yi, New Territories, Hong Kong",Euroasia dockyard.
HKHKG,,CHTHK,COSCO-HIT (CHT),COSCO-HIT TERMINALS (HONG KONG) LTD.,"N 22°19'35""","E 114°07'56""",22.326389,114.132222,2020-01-03,2010-10-22,,https://www.hphtrust.com/portfolio_cosco.html,"Terminal 8 East, Container Port Road South, Kwai Chung, Hong Kong",Kwai Tsing Terminal 8 East
HKHKG,,DPWHK,DP WORLD HONG KONG - CT3,DP WORLD ASIA,"N 22°20'32""","E 114°07'21""",22.342222,114.1225,2020-01-03,2010-10-22,,https://www.dpworld.com/what-we-do/our-locations/Asia-Pacific/China/hong-kong-ct3,,Kwai Tsing Terminal 3
HKHKG,,HITHK,HONG KONG INTERNATIONAL TERMINALS (HIT),HONGKONG INTERNATIONAL TERMINALS LIMITED,"N 22°19'56""","E 114°07'33""",22.332222,114.125833,2020-01-03,2010-10-22,,https://www.hphtrust.com/portfolio_hit.html,"Terminal 4, Container Port Road South, Kwai Chung, Hong Kong","Kwai Tsing Terminals 4, 6, 7 and 9 North"
HKHKG,,MTLHK,HONG KONG MODERN TERMINALS (MTL),MODERN TERMINALS LIMITED,"N 22°20'52""","E 114°07'14""",22.347778,114.120556,2020-01-03,2010-10-22,,http://www.modernterminals.com/group/index.php/Index/index.html,,"Kwai Tsing Terminals 1, 2, 5 and 9 South"
HKHKG,,WFC,WEALTH FAIR CONTAINER SERVICES,WEALTH FAIR CONTAINER SERVICES LTD.,"N 22°21'48""","E 113°56'08""",22.363333,113.935556,,2015-06-24,,http://www.rttc.com.hk/rtt/eng/home_1024_skip.html,"201 Lung Mun Road, Tuen Mun, New Territories, Hong Kong","River Trade Terminal, Berth 46, Zone 4"
HNPCR,,ENPCR,EMPRESA NACIONAL PORTUARIA,AGENCIA NAVIERA EUROPEA S.A. - ANAVE,"N 15°50'35""","W 087°56'45""",15.843056,-87.945833,,2004-05-31,,,,
HNSLO,,ENPSL,EMPRESA NACIONAL PORTUARIA,PORT OF SAN LORENZO,"N 13°24'08""","W 087°25'30""",13.402222,-87.425,,2016-07-28,,,,
HRRJK,,AGCT,ADRIATIC GATE CONTAINER TERMINAL (AGCT),LUKA RIJEKA / INTERNATIONAL CONTAINER TERMINAL SERVICES INC. (ICTSI),"N 45°19'12""","E 014°27'15""",45.32,14.454167,2020-01-03,2019-10-04,,,,
HTLFF,,LFU,PORT LAFITO,PORT LAFITO S.A.,"N 18°41'38""","W 072°21'54""",18.693889,-72.365,,2021-03-01,,https://portlafito.com/,"Route Nationale No. 1, Chancerelles, Port-au-Prince, Haiti",
HTPAP,,TVB,TERMINAL VARREUX BOLLORE PORT-AU-PRINCE (TVB),BOLLORE PORTS,"N 18°34'23""","W 072°20'54""",18.573056,-72.348333,,2020-10-01,,https://www.bollore-ports.com/en/worldwide-network/americas/port-of-port-au-prince-haiti.html,"1, Route du Terminal Varreux, Chancerelles, Port-au-Prince, Haiti",
IDBDJ,,PERUMP,TRISAKTI PORT BANJARMASIN,PELINDO III,"S 03°19'39""","E 114°33'30""",-3.3275,114.558333,,2018-08-06,,https://www.pelindo.co.id/id/port-terminal/pelabuhan-banjarmasin,"Jl. Barito Hilir Trisakti No. 6, Banjarmasin 70119, Indonesia",
IDBTM,IDBUR,AMPAR,PORT OF BATU AMPAR,PELINDO I,"N 01°09'59""","E 104°00'08""",1.166389,104.002222,2020-02-29,2015-03-10,,https://www.pelindo1.co.id/cabang/BTM/en/berita/pages/Pelabuhan-Batam.aspx,,
IDJKT,,KADE,CONVENTIONAL TANJUNG PRIOK PORT,CONVENTIONAL TPK,"S 06°06'06""","E 106°53'00""",-6.101667,106.883333,2020-08-01,2015-06-12,,,,Multiple operators at multiple berths.
IDJKT,,UTC1,JAKARTA INTERNATIONAL CONTAINER TERMINAL (UTC1),PELINDO II / HUTCHISON PORTS,"S 06°05'52""","E 106°53'35""",-6.097778,106.893056,2020-08-01,2015-06-12,,https://www.jict.co.id/,"Jl. Sulawesi Ujung No. 1, Tanjung Priok, Jakarta 14310, Indonesia",
IDJKT,,UTC3,KOJA CONTAINER TERMINAL (UTC3),PELINDO II / HUTCHISON PORTS,"S 06°06'07""","E 106°54'15""",-6.101944,106.904167,2020-08-01,2015-06-12,,http://www.tpkkoja.co.id,"Digul No.1, RW.1, Koja, Kec. Koja, Kota Jkt Utara, Jakarta 14220, Indonesia",
IDJKT,,T300,TERMINAL MUSTIKA ALAM LESTARI (MAL),PT MUSTIKA ALAM LESTARI,"S 06°05'51""","E 106°53'22""",-6.0975,106.889444,2020-02-29,2015-06-12,,https://dlca.logcluster.org/display/public/DLCA/2.1.1+Indonesia+Jakarta+Port+of+Tanjung+Priok,"Jl. Bitung Ujung No.1, RW.1, Tj. Priok, Kota Jkt Utara, Jakarta 14310, Indonesia",Berth 300
IDPLM,,BOOMBA,TERMINAL PETIKEMAS PALEMBANG BOOM BARU,PELINDO II,"S 02°58'50""","E 104°46'43""",-2.980556,104.778611,,2018-08-06,,http://www.palembangport.co.id/,"Jalan Belinyu No.1, Boom Baru, Palembang 30115, Indonesia",
IDSUB,,BJTI,BERLIAN JASA TERMINAL INDONESIA (BJTI),PT BERLIAN JASA TERMINAL INDONESIA (BJTI),"S 07°12'20""","E 112°43'34""",-7.205556,112.726111,2020-02-29,2015-05-03,,https://www.bjtiport.co.id/b/index.php?option=com_content&view=article&id=237&Itemid=26,"Jl. Prapat Kurung Utara No.60, Perak Utara, Kec. Pabean Cantian, Surabaya 60165, Indonesia",
IDSUB,,TPS,TERMINAL PETIKEMAS SURABAYA (TPS),PT TERMINAL PETIKEMAS SURABAYA (TPS),"S 07°11'52""","E 112°42'37""",-7.197778,112.710278,2020-02-29,2005-09-19,,https://www.tps.co.id/,"Jl. Tanjung Mutiara 1, Surabaya 60177, Indonesia",
IEDUB,,DFP,DUBLIN FERRYPORT TERMINAL,DUBLIN FERRYPORT,"N 53°20'48""","W 006°12'01""",53.346667,-6.200278,2020-01-24,2015-06-12,,https://www.icg.ie/our-businesses/container-terminal/dublin-ferryport-terminals/,"Ferryport, Alexandra Road, Dublin 1, Ireland","Berths 50,50A"
IEDUB,,MTL,MARINE TERMINALS LTD,PEEL PORTS GROUP,"N 53°20'36""","W 006°12'38""",53.343333,-6.210556,2020-01-24,2015-06-12,,https://www.peelports.com/ports/dublin,"South Bank Quay Container Terminal, Pigeon House Road, Ringsend, Dublin 4, Ireland","Berths 41,42,43,44,45"
IEDUB,,POEURO,P&O EUROPEAN FERRIES TERMINAL,P&O EUROPEAN FERRIES,"N 53°20'45""","W 006°13'13""",53.345889,-6.220389,2020-02-29,2015-06-12,,,"Terminal 3, North Quay Extension, Dublin 1, Ireland",Berth 21 (RORO terminal)
IEDUB,,PORTRO,PORTROE TERMINAL,DUBLIN PORT,"N 53°20'55""","W 006°12'57""",53.348611,-6.215833,,2015-06-12,,,"Alexandra Quay, Alexandra Road, Dublin 1, Ireland",Berth 30
IEORK,,RDT,RINGASKIDDY DEEPWATER TERMINAL,PORT OF CORK,"N 51°50'02""","W 008°19'43""",51.83375,-8.328611,,2019-07-05,,https://www.portofcork.ie,"Custom House, Custom House Street, Port of Cork Company, Ireland",
IEORK,,TIVO,TIVOLI TERMINAL,PORT OF CORK,"N 51°54'01""","W 008°24'57""",51.900361,-8.415944,,2015-06-12,,https://www.portofcork.ie,"Custom House, Custom House Street, Port of Cork Company, Ireland",
ILASH,,APCL,"ASHDOD PORT CO., LTD.","ASHDOD PORT CO., LTD.","N 31°50'04""","E 034°38'52""",31.834444,34.647778,,2004-05-31,,,,
ILHFA,,HPCL,"HAIFA PORT CO., LTD.","HAIFA PORT CO., LTD.","N 32°49'02""","E 035°00'38""",32.817222,35.010556,,2004-05-31,,,,
INCCU,,CALCUT,KOLKATA DOCK SYSTEM (KDS),KOLKATA PORT TRUST,"N 22°32'24""","E 088°18'01""",22.54,88.300278,,2015-06-12,,http://www.kolkataporttrust.gov.in/,,
INCOK,,ICTT,KOCHI INTERNATIONAL CONTAINER TRANSSHIPMENT TERMINAL (ICTT),INDIA GATEWAY TERMINAL PVT. LTD. / DP WORLD,"N 09°58'41""","E 076°15'08""",9.978056,76.252222,,2020-02-01,,http://igtpl.com/,"ICTT Vallarpadam SEZ, Mulavukadu Village, Kochi, Kerala 682504, India",Locally known as VALLARPADAM TERMINAL
INENR,,AECTPL,ADANI ENNORE CONTAINER TERMINAL,ADANI INTERNATIONAL CONTAINER TERMINAL PVT. LTD.,"N 13°16'19""","E 080°20'16""",13.271944,80.337778,2020-01-03,2019-07-05,,https://www.adaniports.com,,
INIXE,,NMPT,NEW MANGALORE PORT,NEW MANGALORE PORT TRUST,"N 12°56'00""","E 074°49'06""",12.933333,74.818333,2020-01-03,2015-06-24,,http://newmangaloreport.gov.in:8080/#!/,,
INMAA,,CCTL,CHENNAI CONTAINER TERMINAL (CCTL),CHENNAI CONTAINER TERMINAL PVT. LTD. / DP WORLD,"N 13°06'21""","E 080°17'55""",13.105833,80.298611,2020-01-03,2005-09-19,,http://www.dpworldchennai.com/,,
INMAA,,CITPL,CHENNAI INTERNATIONAL CONTAINER TERMINAL (CITPL),CHENNAI INTERNATIONAL TERMINALS PVT LTD / PSA,"N 13°05'38""","E 080°18'06""",13.093889,80.301667,2020-01-03,2015-06-20,,https://www.citpl.co.in/terminal-layout/,,
INMUN,,ACMTPL,ADANI CMA MUNDRA CONTAINER TERMINAL (ACMTPL),ADANI CMA MUNDRA CONTAINER TERMINAL PVT. LTD. (ACMTPL) / CMA-CGM,"N 22°44'20""","E 069°41'09""",22.738889,69.685833,2020-04-01,2020-04-01,,https://www.adaniports.com/,"ACMTPL, Adani Ports & SEZ Ltd. Mundra, Kutch, Gujarat, India. 370421","CT4 (South Basin), berths CB4/CB5"
INMUN,,AICTPL,ADANI INTERNATIONAL CONTAINER TERMINAL (AICTPL),ADANI INTERNATIONAL CONTAINER TERMINAL PVT. LTD. (AICTPL) / MSC,"N 22°44'20""","E 069°41'46""",22.738889,69.696111,2020-04-01,2015-06-12,,https://www.adaniports.com/,"AICTPL, Adani Ports & SEZ Ltd. Mundra, Kutch, Gujarat, India. 370421","CT3 (South Basin), berths CB6/CB7/CB8/CB9"
INMUN,,AMCT,ADANI MUNDRA CONTAINER TERMINAL (AMCT),ADANI MUNDRA CONTAINER TERMINAL PVT. LTD. (AMCT),"N 22°44'46""","E 069°42'29""",22.746111,69.708056,2020-04-01,2020-04-01,,https://www.adaniports.com/,"AMCT, Adani Ports & SEZ Ltd. Mundra, Kutch, Gujarat, India. 370421","CT2, berths CB3/CB4"
INMUN,,MICT,MUNDRA INTERNATIONAL CONTAINER TERMINAL (MICT),MUNDRA INTERNATIONAL CONTAINER TERMINAL PVT. LTD. / DP WORLD,"N 22°44'36""","E 069°42'44""",22.743333,69.712222,2020-04-01,2005-09-19,,http://www.dpworldmundra.com/,,"CT1, berths CB1/CB2"
INNSA,,BMCT,BHARAT MUMBAI CONTAINER TERMINALS,BHARAT MUMBAI CONTAINER TERMINALS PVT. LTD. (PSA),"N 18°56'00""","E 072°56'00""",18.933333,72.933333,,2018-09-17,,,,
INNSA,,GTICI,GATEWAY TERMINALS INDIA (GTI),GATEWAY INDIA TERMINALS PVT. LTD. (APM / CONCOR),"N 18°56'54""","E 072°56'29""",18.948333,72.941389,,2019-04-16,,https://www.apmtmumbai.com,"APM Terminals Mumbai, Gateway Terminals India Pvt. Ltd., GTI House, JNPT, Sheva, Navi Mumbai 400707, India",APM Terminals Mumbai
INNSA,,JNPCT,JAWAHARLAL NEHRU PORT CONTAINER TERMINAL (JNPCT),JAWAHARLAL NEHRU PORT TRUST (JNP),"N 18°56'43""","E 072°56'24""",18.945278,72.94,2015-09-21,2014-10-27,,,,
INNSA,,NSIGT,NHAVA SHEVA (INDIA) GATEWAY TERMINAL (NSIGT),NHAVA SHEVA (INDIA) GATEWAY TERMINAL PVT. LTD. (DP WORLD),"N 18°57'47""","E 072°57'02""",18.963056,72.950556,,2019-04-16,,http://www.dpworldnhavashevaigt.com,"NSIGT, Operation Centre, Near JNPT, Sheva, Navi Mumbai 400707, India",
INNSA,,NSICT,NHAVA SHEVA INTERNATIONAL CONTAINER TERMINAL (NSICT),NHAVA SHEVA INTERNATIONAL CONTAINER TERMINAL PVT. LTD. (DP WORLD),"N 18°57'30""","E 072°56'54""",18.958333,72.948333,,2019-04-16,,http://www.dpworldmumbai.com,"NSICT, Operation Centre, Near JNPT, Sheva, Navi Mumbai 400707, India",
INPPV,INPAV,APMT,APM TERMINALS PIPAVAV,APM TERMINALS (GUJARAT PIPAVAV PORT LTD.),"N 20°55'13""","E 071°30'39""",20.920278,71.510833,,2019-01-17,,https://www.apmterminals.com/en/operations/asia-pacific/pipavav/about-us/location,,
INTUT,,DBGT,DAKSHIN BHARAT GATEWAY TERMINAL,DAKSHIN BHARAT GATEWAY TERMINAL PVT. LTD.,"N 08°45'07""","E 078°12'47""",8.751944,78.213056,2020-01-03,2015-06-12,,https://www.vocport.gov.in/,"Berth No 8, V.O.C Port Trust, Tuticorin Container Terminal Rd, Harbour Estate, Tuticorin 628004, India",
INTUT,,PSASIC,PSA SICAL TERMINAL,PSA SICAL TERMINAL LTD.,"N 08°44'57""","E 078°12'59""",8.749167,78.216389,2020-01-03,2015-06-12,,https://psasical.co.in/index.html,"Berth No 7, Harbour Estate, Tuticorin 628004, India",
INVTZ,,VCT,VISAKHA CONTAINER TERMINAL,VISAKHA CONTAINER TERMINAL PVT. LTD.,"N 17°41'39""","E 083°18'00""",17.694167,83.3,,2018-12-18,,https://www.vctpl.com,,
IQUQR,,BGTE,BASRA GATEWAY TERMINAL EAST,"INTERNATIONAL CONTAINER TERMINAL SERVICES, INC. (ICTSI)","N 30°03'46""","E 047°56'00""",30.062778,47.933333,,2020-09-01,,http://www.ictsiiraq.com/default.aspx,"North Port, Umm Qasr, Basra, Iraq","Berths 25,26,27."
IQUQR,,BGTW,BASRA GATEWAY TERMINAL WEST,"INTERNATIONAL CONTAINER TERMINAL SERVICES, INC. (ICTSI)","N 30°03'35""","E 047°55'38""",30.059722,47.927222,,2020-09-01,,http://www.ictsiiraq.com/default.aspx,"North Port, Umm Qasr, Basra, Iraq","Berths 19,20,21."
ISREY,,SUNDA,KLEPPSBAKKI,FAXAPORTS,"N 64°09'01""","W 021°51'15""",64.150278,-21.854167,,2018-09-24,,https://faxaports.is/,"Tryggvagata 17, 101 Reykjavik, Iceland",
ITAOI,,ACT,ADRIATIC CONTAINER TERMINAL,ADRIATIC CONTAINER TERMINAL ANCONA,"N 43°37'19""","E 013°29'53""",43.621944,13.498056,2020-07-01,2016-04-07,,https://www.actml.it/it/act-home/,"Nuova Darsena, 60125 Ancona, Italy",Pier 23 (new dock)
ITAOI,,ASE,ADRIATIC SERVICES ENTERPRISE ANCONA,ADRIATIC SERVICES ENTERPRISE SRL,"N 43°37'16""","E 013°29'45""",43.621111,13.495833,,2015-06-12,,https://www.aseterminal.com/,,Pier 25
ITCAG,,CICT,CICT CAGLIARI INTERNATIONAL CONTAINER TERMINAL,CICT CAGLIARI INTERNATIONAL CONTAINER TERMINAL S.P.A.,"N 39°12'50""","E 009°04'23""",39.213889,9.073056,2016-04-07,2004-05-31,,https://www.contshipitalia.com/en/about-us,,
ITCTA,,EST,EST TERMINAL CATANIA,EUROPEA SERVIZI TERMINALISTICI,"N 37°29'49""","E 015°05'41""",37.496944,15.094722,,2016-09-26,,http://www.esterminal.com/,,
ITCVV,,RTC,ROMA TERMINAL CONTAINER,ROMA TERMINAL CONTAINER SPA,"N 42°06'22""","E 011°46'26""",42.106111,11.773889,,2020-10-01,,https://www.rtcspa.com/,,
ITGIT,,MCT,MCT MEDCENTER CONTAINER TERMINAL,MCT MEDCENTER CONTAINER TERMINAL S.P.A.,"N 38°27'35""","E 015°54'38""",38.459722,15.910556,2016-04-07,2001-06-26,,https://www.contshipitalia.com/en/about-us,,
ITGOA,,GPT,GENOA PORT TERMINAL,GENOA PORT TERMINAL,"N 44°24'20""","E 008°53'50""",44.405556,8.897222,2019-12-13,2014-10-22,,http://www.genoaterminal.com/gpt/home.jsf,,
ITGOA,,MESSIN,INTERMODAL MARINE TERMINAL,GRUPPO MESSINA S.P.A.,"N 44°24'27""","E 008°52'36""",44.4075,8.876667,2019-12-13,2015-06-12,,https://www.imterminal.it/index_it.html,,
ITGOA,,SECH,SECH TERMINAL,SOUTH EUROPEAN CONTAINER HUB,"N 44°24'16""","E 008°54'53""",44.404444,8.914722,2019-12-13,2001-06-26,,http://www.sech.it/new/MasterPage.html,,
ITGOA,,TSG,TERMINAL SAN GIORGIO - PONTE LIBIA,TERMINAL SAN GIORGIO,"N 44°24'23""","E 008°53'11""",44.406389,8.886389,,2014-10-27,,,,
ITGOA,,VTE,VOLTRI TERMINAL EUROPA - PORTO DI PRA,PSA VOLTRI TERMINAL,"N 44°25'16""","E 008°47'07""",44.421111,8.785278,2016-04-07,2001-06-26,,https://www.vte.it/en/home,,
ITLIV,,TAFLIV,TERMINAL ALTO FONDALE,COMPAGNIA IMPRESA LAVORATORI PORTUALI S.R.L. (CILP),"N 43°33'20""","E 010°17'56""",43.555556,10.298889,2019-12-13,2015-11-03,,http://www.cilplivorno.it/en/terminal/porto_commerciale.php,,
ITLIV,,TDT,TERMINAL DARSENA TOSCANA (TDT),TERMINAL DARSENA TOSCANA (TDT),"N 43°34'25""","E 010°18'14""",43.573611,10.303889,,2004-05-31,,http://www.tdt.it/,,
ITLIV,,IMP,TERMINAL DOCK ETRUSCHI,COMPAGNIA IMPRESA LAVORATORI PORTUALI S.R.L. (CILP),"N 43°33'45""","E 010°18'11""",43.5625,10.303056,2020-02-29,2015-06-24,,http://www.cilplivorno.it/en/terminal/porto_commerciale.php,"Varco Valessini, Via Paleocapa, 57123 Livorno, Italy",
ITLIV,,LOREN,TERMINAL LORENZINI,LORENZINI & C. S.R.L.,"N 43°34'25""","E 010°18'26""",43.573611,10.307222,,2004-05-31,,https://www.lorenziniterminal.it/,,
ITNAP,,CONA,TERMINAL CONATECO,CONSORZIO NAPOLITANO TERMINAL CONTAINERS S.P.A.,"N 40°50'23""","E 014°17'09""",40.839722,14.285833,,2016-04-07,,http://www.conateco.it/,,
ITNAP,,TERMIN,TERMINAL FLAVIO GIOIA,TERMINAL FLAVIO GIOIA S.P.A.,"N 40°50'25""","E 014°16'55""",40.840278,14.281944,,2015-06-12,,https://www.flaviogioia.it/,,
ITRAN,,SETRA,SETRAMAR TERMINAL,GRUPPO SETRAMAR,"N 44°27'16""","E 012°14'57""",44.454444,12.249167,2019-12-13,2017-01-17,,http://grupposetramar.it/,,
ITRAN,,TCR,TERMINAL CONTAINER RAVENNA,TERMINAL CONTAINER RAVENNA,"N 44°26'56""","E 012°14'53""",44.448889,12.248056,2019-12-13,2017-01-17,,https://www.contshipitalia.com/en/about-us,"Via Classicana 105, 48122 Ravenna (RA), Italy",
ITSAL,,SCT,SALERNO CONTAINER TERMINAL,SALERNO CONTAINER TERMINAL,"N 40°40'27""","E 014°44'31""",40.674167,14.741944,2019-12-13,2001-06-26,,https://www.salernocontainerterminal.com/,"Molo Trapezio, Salerno Port Terminal, Italy",
ITSPE,,LSCT,LA SPEZIA CONTAINER TERMINAL (LSCT),LA SPEZIA CONTAINER TERMINAL,"N 44°06'30""","E 009°50'44""",44.108333,9.845556,2019-12-13,2001-06-26,,https://www.contshipitalia.com/en,"Viale S. Bartolomeo 20, 19126 La Spezia (SP), Italy",
ITSPE,,TDG,TERMINAL DEL GOLFO (TDG),TERMINAL DEL GOLFO,"N 44°06'20""","E 009°51'16""",44.105556,9.854444,2019-12-13,2016-04-07,,http://www.terminaldelgolfo.com/,"Viale S. Bartolomeo 340, 19138 La Spezia (SP), Italy",
ITTRS,,TMT,TRIESTE MARINE TERMINAL (TMT),TRIESTE MARINE TERMINAL,"N 45°37'51""","E 013°45'39""",45.630833,13.760833,2019-12-13,2016-04-07,,http://www.trieste-marine-terminal.com/index.php,,
ITVCE,,TIV,TERMINAL INTERMODALE VENEZIA,TERMINAL INTERMODALE VENEZIA,"N 45°27'22""","E 012°15'18""",45.456111,12.255,,2015-06-12,,https://tiv.it/,,
ITVCE,,VECON,VECON - CONTAINER TERMINAL,VECON - CONTAINER TERMINAL,"N 45°27'22""","E 012°14'40""",45.456111,12.244444,,2015-06-12,,https://www.vecon.it/,,
ITVDL,,VGT,VADO GATEWAY TERMINAL,APM TERMINALS VADO LIGURE S.P.A,"N 44°16'05""","E 008°26'51""",44.268056,8.4475,2020-05-01,2020-05-01,,https://www.apmterminals.com/en/vado-ligure,"Banchina Raffaello Orsero, Porto Vado, 17028 Bergeggi SV, Italy",
ITVDL,,REEF,VADO REEFER TERMINAL,REEFER TERMINAL S.P.A,"N 44°15'42""","E 008°27'12""",44.261667,8.453333,,2004-05-31,,https://www.apmterminals.com/en/vado-ligure,"Banchina Raffaello Orsero, Porto Vado, 17028 Bergeggi SV, Italy",
JMKIN,,KCT,KINGSTON CONTAINER TERMINAL,KINGSTON FREEPORT TERMINAL LIMITED (KFTL),"N 17°58'51""","W 076°50'03""",17.980833,-76.834167,2020-12-01,2004-05-31,,https://www.kftl-jm.com/,"Port Bustamante, PO Box, 214 G.P.O. Kingston, Jamaica",
JMKIN,,KWL,KINGSTON WHARVES,KINGSTON WHARVES LIMITED,"N 17°58'57""","W 076°49'38""",17.9825,-76.827222,,2020-12-01,,https://www.kingstonwharves.com,"195 Second Street, Newport West, Kingston 13, Jamaica",
JMMBJ,,MBY,MONTEGO BAY FREEPORT,PORT HANDLERS LTD.              ,"N 18°27'37""","W 077°56'10""",18.460278,-77.936111,,2021-03-01,,https://www.portjam.com/,"14 Montego Freeport Shopping Centre P.O. Box 302 Montego Bay, St. James, Jamaica",
JOAQJ,,ACT,AQABA CONTAINER TERMINAL,AQABA CONTAINER TERMINAL,"N 29°28'09""","E 034°58'33""",29.469167,34.975833,2019-12-13,2015-06-12,,https://www.act.com.jo/,,
JPABU,,EPW9,NICHINAN EAST PUBLIC WHARF NO. 9,NICHINAN EAST PUBLIC WHARF NO. 9,"N 31°34'15""","E 131°24'24""",31.570722,131.406583,,2019-12-06,,http://www.m-port.gr.jp/aburatsu/,,
JPAXT,,CG20C,GAIKO -13M NO. 1 BERTH,AKITA PORT AUTHORITY,"N 39°45'52""","E 140°02'24""",39.764444,140.04,2020-05-01,2001-06-26,,http://www.mlit.go.jp/kowan/port_security/02.html,,
JPAXT,,CO10M,OHAMA -10M,AKITA PORT AUTHORITY,"N 39°46'08""","E 140°02'56""",39.768889,140.048889,2020-05-01,2015-10-26,,http://www.mlit.go.jp/kowan/port_security/02.html,,
JPCHB,,CHUGC,CHIBA CHUOFUTO NO. G BERTH,CHIBA PORT AUTHORITY,"N 35°35'40""","E 140°05'35""",35.594444,140.093056,2020-05-01,2001-06-26,,https://www.pref.chiba.lg.jp/kouwan/futou/chiba/dezu.html,,
JPFKY,,FICT,FUKUYAMA PORT INTERNATIONAL CONTAINER TERMINAL,FUKUYAMA PORT INTERNATIONAL CONTAINER TERMINAL,"N 34°26'05""","E 133°26'20""",34.434667,133.438944,,2019-12-13,,,"109-3, Minooki-cho, Fukuyama-shi, Hiroshima, 721-0956, Japan",
JPHHE,,HT01C,"HATTARO WHARF NO. 2, BERTH J",HACHINOHE PORT AUTHORITY,"N 40°33'09""","E 141°30'12""",40.5525,141.503333,2020-05-01,2001-06-26,,http://www.pa.thr.mlit.go.jp/hachinohe/hachinohekou/03hachitarou01.html,,
JPHIC,,HN02C,"HITACHINAKA MINATO, KITAFUTOU B BERTH",IBARAKI PORT AUTHORITY,"N 36°25'53""","E 140°37'24""",36.431389,140.623333,2020-05-01,2001-06-26,,https://www.pref.ibaraki.jp/doboku/ibako/index-hnport.html,,
JPHIJ,,HICT,HIROSHIMA PORT INTERNATIONAL CONTAINER TERMINAL,"HIROSHIMA PORT & HARBOR ADMINISTRATING CENTER CO.,LTD.","N 34°20'48""","E 132°26'30""",34.346722,132.441611,,2019-10-18,,,"3, Dejima, Minami-Ku Hiroshima-Shi, NA, Japan",
JPHIJ,,KAIC,KAITA CONTAINER TERMINAL,"HIROSHIMA PORT & HARBOR ADMINISTRATING CENTER CO.,LTD.","N 34°21'12""","E 132°30'37""",34.353333,132.510278,2020-05-01,2015-10-26,,https://www.h-port.co.jp/container/kaita_container_terminal.html,,
JPHKT,,KB05C,HAKOZAKI WHARF NO. 5 BERTH,HAKATA PORT AUTHORITY,"N 33°37'22""","E 130°24'16""",33.622778,130.404444,2020-05-01,2001-06-26,,http://port-of-hakata.city.fukuoka.lg.jp/english/portmap/wharf6.html,,
JPHKT,,HIC,ISLAND CITY CONTAINER TERMINAL,"HAKATA PORT TERMINAL CO., LTD.","N 33°39'30""","E 130°24'20""",33.658333,130.405556,2020-05-01,2015-04-05,,http://www.hakatako-futo.co.jp/english.php,,
JPHKT,,KSI,KASHII PARK CONTAINER TERMINAL,"HAKATA PORT TERMINAL CO., LTD.","N 33°39'13""","E 130°24'33""",33.653611,130.409167,2020-05-01,2015-04-05,,http://www.hakatako-futo.co.jp/english.php,,
JPHMD,,HAFKF,FUKUIFUTO NO. 3-4 WHARF,HAMADA PORT AUTHORITY,"N 34°52'51""","E 132°03'19""",34.880833,132.055278,2020-05-01,2015-10-26,,https://www.pref.shimane.lg.jp/infra/port/harbor/kouwan/hamada/shisetu.html,,
JPHSM,,SICT,SHIRAHAMA INTERNATIONAL CONTAINER TERMINAL,SHIRAHAMA INTERNATIONAL CONTAINER TERMINAL,"N 32°26'21""","E 131°40'05""",32.439056,131.668028,,2020-01-01,,,,
JPHTC,,HTDAI,"HITACHI MINATO, NO. 4 WHARF, C/D BERTH",IBARAKI PORT AUTHORITY,"N 36°29'22""","E 140°37'11""",36.489444,140.619722,2020-05-01,2015-10-26,,https://www.pref.ibaraki.jp/doboku/ibako/hikoku/hitachikotop.html,,
JPIMB,,TOM,TOMITA NO. 1/2 BERTH,IMABARI PORT AUTHORITY,"N 34°03'06""","E 133°01'45""",34.051667,133.029167,2020-05-01,2015-10-26,,,,
JPIMI,,NS05C,NANATSUJIMA KITA NO. 1 BERTH,IMARI PORT AUTHORITY,"N 33°20'27""","E 129°50'31""",33.340833,129.841944,2020-05-01,2001-06-26,,http://port-of-imari.jp/terminal/,,
JPISI,,BNG,BANNAGURO INTERNATIONAL CONTAINER TRANSPORT BASE,ISHIKARIWAN PORT AUTHORITY,"N 43°11'20""","E 141°17'36""",43.188889,141.293333,2020-10-01,2015-10-26,,http://www.ishikari-bay-newport.jp/english/area/,,
JPIWK,,SI10C,SHINMINATO SOUTH BERTH (-10M),IWAKUNI PORT AUTHORITY,"N 34°11'12""","E 132°14'14""",34.186667,132.237222,2020-05-01,2001-06-26,,https://www.pref.yamaguchi.lg.jp/cms/a18700/index/,,
JPKCZ,,MG01C,MISATO NO. 7-1 WHARF,PORT OF KOCHI,"N 33°30'43""","E 133°35'05""",33.511944,133.584722,2020-05-01,2001-06-26,,https://www.mlit.go.jp/kankocho/cruise/detail/052/index.html,,
JPKCZ,,MG02C,MISATO NO. 7-2 WHARF,PORT OF KOCHI,"N 33°30'36""","E 133°35'08""",33.51,133.585556,2020-05-01,2001-06-26,,https://www.mlit.go.jp/kankocho/cruise/detail/052/index.html,,
JPKIJ,,EWC,NIIGATA WORLD TRADE TERMINAL (N-WTT),"NIIGATA WORLD TRADE TERMINAL CO., LTD.","N 37°58'10""","E 139°13'43""",37.969444,139.228611,2020-05-01,2015-10-26,,https://n-wtt.jp/,,
JPKIS,,KPW,KAMAISHI PUBLIC WHARF,KAMAISHI PUBLIC WHARF,"N 39°16'01""","E 141°53'44""",39.266917,141.895472,,2019-12-13,,,"1-22-1 Minatomachi, Kamaishi, Iwate pref., Japan",
JPKNZ,,GG01C,GOKUDEN WHARF,KANAZAWA PORT AUTHORITY,"N 36°36'45""","E 136°37'27""",36.6125,136.624167,2020-05-01,2001-06-26,,http://www.kanazawa.pa.hrr.mlit.go.jp/110/111/,,
JPKNZ,,TG01C,TOMIZU WHARF,KANAZAWA PORT AUTHORITY,"N 36°36'31""","E 136°37'07""",36.608611,136.618611,2020-05-01,2001-06-26,,https://www.k-port.jp/port/,,
JPKOM,,KMCT,KOMATSUSHIMA CONTAINER TERMINAL,KOMATSUSHIMA CONTAINER TERMINAL,"N 33°59'38""","E 134°37'17""",33.993806,134.621389,,2020-01-24,,https://www.pref.tokushima.lg.jp/tb/ippannokata/kendozukuri/kowan/5008346,"Toyoura, Komatsushima, Tokushima pref.",
JPKSM,,NPW,KASHIMA NORTH PUBLIC WHARF,NORTH PUBLIC WHARF,"N 35°55'43""","E 140°39'13""",35.928639,140.653639,,2019-12-06,,http://www.kashimafuto.co.jp/facility/north-pablic-wharf/,,
JPKSM,,MK08C,KASHIMA SOUTH PUBLIC WHARF (MINAMIKOUKYOU) BERTH H,MINAMIKOUKYOU H,"N 35°52'56""","E 140°41'24""",35.882222,140.69,2019-12-06,2001-06-26,,http://www.kashimafuto.co.jp/facility/south-pablic-wharf/,,
JPKWS,,KHC1C,KAWASAKI CONTAINER TERMINAL NO. 1 WHARF,KAWASAKI PORT AUTHORITY,"N 35°29'19""","E 139°45'14""",35.488611,139.753889,2020-05-01,2001-06-26,,http://www.city.kawasaki.jp/580/page/0000022057.html,,
JPMAI,,KB09C,"MAIZURU NO. 2 WHARF, NO. 2 BERTH",KYOTO MAIZURU PORT AUTHORITY,"N 35°27'26""","E 135°19'15""",35.457222,135.320833,2020-05-01,2001-06-26,,http://www.port.maizuru.kyoto.jp/facilities,,
JPMIZ,,MICT,MIZUSHIMA PORT INTERNATIONAL CONTAINER TERMINAL,MIZUSHIMA PORT INTERNATIONAL CONTAINER TERMINAL,"N 34°30'05""","E 133°40'54""",34.5015,133.681611,,2019-12-06,,http://www.pref.okayama.jp/page/detail-43059.html,,
JPMIZ,,TE01C,TAMASHIMA FOREIGN TRADE WHARF NO. 1 BERTH,TAMASHIMA FOREIGN TRADE WHARF NO. 1 BERTH,"N 34°30'31""","E 133°41'02""",34.508611,133.683889,2019-12-06,2001-06-26,,,,
JPMIZ,,TH04C,TAMASHIMA HARBOR ISLAND NO. 4 BERTH,TAMASHIMA HARBOR ISLAND NO. 4 BERTH,"N 34°30'10""","E 133°40'19""",34.502778,133.671944,2019-12-06,2001-06-26,,,,
JPMKW,,TJ07C,KAMINO PIER NO. 7 WHARF,KAMINO PIER NO. 7 WHARF,"N 34°44'04""","E 137°18'44""",34.734444,137.312222,2020-04-01,2001-06-26,,http://www.port-mikawa.jp/area/jinno.php,,Part of MIKAWA PORT TOYOHASHI CONTAINER TERMINAL
JPMKX,,KNCT,KANEKO INTERNATIONAL CONTAINER TERMINAL,SHIKOKUCHUO PUBLIC WORKS OFFICE,"N 33°59'32""","E 133°32'24""",33.992333,133.540028,2020-05-01,2020-05-01,,https://www.city.shikokuchuo.ehime.jp/soshikikara/kensetsubu/kwn/kowan-koumu.html,"1 Mishimachuo, Shikokuchuo, Ehime pref.",
JPMKX,,MM8,MURAMATSU BERTH NO. 8,SHIKOKUCHUO PUBLIC WORKS OFFICE,"N 34°00'21""","E 133°32'55""",34.005833,133.548611,2020-01-15,2020-02-01,,https://www.city.shikokuchuo.ehime.jp/soshikikara/kensetsubu/kwn/kowan-koumu.html,"930-14 Muramatsu, Shikokuchuo, Ehime pref.","Also MURAMATSU BERTHS NO. 7-1/7-2/8, but only berth 8 is used for containerized cargo."
JPMOJ,,HBK,HIBIKI CONTAINER TERMINAL,"HIBIKI CONTAINER TERMINAL CO., LTD.","N 33°55'55""","E 130°45'53""",33.931861,130.764667,2019-12-06,2015-04-05,,http://www.kitaqport.or.jp/eng/ct/ct_hibiki.html,,
JPMOJ,JPKKJ,KHC,KOKURA RORO TERMINAL,KITAKYUSHU PORT AUTHORITY,"N 33°54'14""","E 130°52'51""",33.903889,130.880833,2020-05-01,2015-10-26,,https://www.kti-center.jp/invest-kitakyushu/infrastructure/infrastructure.html,,"Use UNLOCODE JPKKJ with caution, to be phased out from the SMDG terminal code list."
JPMOJ,,TAC1,TACHINOURA CONTAINER TERMINAL NO. 1,"KANMON CONTAINER TERMINAL CO., LTD. ","N 33°58'02""","E 131°00'14""",33.96725,131.004,,2019-12-06,,http://www.kitaqport.or.jp/eng/ct/ct_tachi.html,,
JPMOJ,,TAC2,TACHINOURA CONTAINER TERMINAL NO. 2,"KANMON CONTAINER TERMINAL CO., LTD. ","N 33°57'49""","E 131°00'43""",33.963639,131.011833,,2019-12-06,,http://www.kitaqport.or.jp/eng/ct/ct_tachi.html,,
JPMOJ,JPKKJ,TNC,TANOURA RORO TERMINAL,KITAKYUSHU PORT AUTHORITY,"N 33°57'36""","E 130°58'54""",33.96,130.981667,2020-05-01,2015-10-26,,https://www.kti-center.jp/invest-kitakyushu/infrastructure/infrastructure.html,,"Use UNLOCODE JPKKJ with caution, to be phased out from the SMDG terminal code list."
JPMUR,,SAC,SAKIMORI NO. 1-7 BERTHS,MURORAN PORT AUTHORITY,"N 42°21'57""","E 140°55'50""",42.365833,140.930556,2020-05-01,2015-10-27,,http://www.city.muroran.lg.jp/main/sangyo/kouwan.html,,
JPMYJ,,MPCT,MATSUYAMA PORT CONTAINER TERMINAL,MATSUYAMA PORT CONTAINER TERMINAL,"N 33°50'50""","E 132°41'53""",33.847222,132.698056,,2019-12-06,,http://www.matsuyama-port.com/facility/index.html,,
JPNAH,,SFC,SHINKOH PIER,SHINKOH PIER,"N 26°14'06""","E 127°40'02""",26.235,127.667222,2020-04-01,2015-10-27,,http://nicti.co.jp/english/,"1-27-1, Minatomachi, Naha-City, Okinawa 900-0001, Japan",
JPNAN,,NKS,NAKANOSEKI WHARF,MITAJIRI-NAKANOSEKI PORT AUTHORITY,"N 34°00'26""","E 131°33'41""",34.007222,131.561389,2020-10-01,2015-10-27,,https://www.pref.yamaguchi.lg.jp/cms/a18700/index/,,
JPNAO,,EP04C,EAST PIER NO. 4 BERTH,NAOETSU PORT AUTHORITY,"N 37°11'38""","E 138°15'30""",37.193889,138.258333,2020-05-01,2001-06-26,,http://www.naoetsu-port.jp/fa,,
JPNGO,,KJC,KINJO PIER (RORO),NAGOYA PORT TERMINAL CORPORATION,"N 35°02'45""","E 136°51'08""",35.045833,136.852222,2020-01-24,2015-10-27,,https://www.port-of-nagoya.jp/english/aboutport/facilities/1001388.html,,"For automobiles (berths 52-62, 76-81)."
JPNGO,,NCT,"NABETA PIER CONTAINER TERMINAL, T1/2/3","NAGOYA UNITED CONTAINER TERMINAL COMPANY, LTD.","N 35°01'31""","E 136°47'31""",35.025278,136.791944,2020-01-24,2015-04-05,,https://www.port-of-nagoya.jp/english/aboutport/facilities/1001389/1001393.html,,Berths T1/T2/T3
JPNGO,,NCB,"NCB CONTAINER TERMINAL, R1/2/3",NAGOYA PORT TERMINAL CORPORATION,"N 35°02'28""","E 136°50'03""",35.041111,136.834167,2020-01-24,2015-04-05,,https://www.port-of-nagoya.jp/english/aboutport/facilities/1001389/1001392.html,,Berths R1/R2/R3
JPNGO,,TNT,"TOBISHIMA PIER NORTH CONTAINER TERMINAL, W90/91/92",NAGOYA PORT TERMINAL CORPORATION,"N 35°02'47""","E 136°49'55""",35.046389,136.831944,2020-01-24,2015-04-05,,https://www.port-of-nagoya.jp/english/aboutport/facilities/1001389/1001390.html,,Berths W90/W91/W92
JPNGO,,TST,"TOBISHIMA PIER SOUTH CONTAINER TERMINAL, W93/94",NAGOYA PORT TERMINAL CORPORATION,"N 35°02'00""","E 136°50'15""",35.033333,136.8375,2020-01-24,2015-04-05,,https://www.port-of-nagoya.jp/english/aboutport/facilities/1001389/1001391.html,,Berths W93/W94
JPNGO,,TCB,"TOBISHIMA PIER SOUTH SIDE CONTAINER TERMINAL, TS1/2","TOBISHIMA CONTAINER BERTH COMPANY, LTD.","N 35°01'37""","E 136°49'21""",35.026944,136.8225,2020-01-24,2015-04-05,,https://www.port-of-nagoya.jp/english/aboutport/facilities/1001389/1001394.html,,Berths TS1/TS2
JPNGS,,KY14C,"KOGAKURA PIER, YANAGI NISHI BERTH (-12M)",NAGASAKI PORT AUTHORITY,"N 32°42'16""","E 129°50'33""",32.704444,129.8425,2020-10-01,2001-06-26,,http://www.nagasaki-port.jp/nagasakiport_english/nagasakiport_index.html,,
JPOIT,,OCT,OZAI CONTAINER TERMINAL,OZAI CONTAINER TERMINAL,"N 33°14'59""","E 131°44'22""",33.249861,131.739472,,2019-12-13,,http://www.oitaport-ozai.jp/page_03.html,,
JPOMZ,,OZCT,OMAEZAKI INTERNATIONAL CONTAINER TERMINAL,OMAEZAKI INTERNATIONAL CONTAINER TERMINAL,"N 34°37'30""","E 138°13'11""",34.625111,138.219722,,2019-10-18,,,,
JPONA,,OU04C,OTSURUGI WHARF NO. 4 BERTH,ONAHAMA PORT AUTHORITY,"N 36°55'27""","E 140°52'22""",36.924167,140.872778,2020-05-01,2001-06-26,,https://www.pref.fukushima.lg.jp/sec/41400a/facilities-ootsurugi.html,,
JPOSA,,OC1,SAKISHIMA CONTAINER TERMINAL C-1,"HANJIN SHIPPING CO., LTD.","N 34°37'50""","E 135°26'28""",34.630556,135.441111,2020-01-03,2015-08-19,,https://hanshinport.co.jp/en/facilities/,,"Routes: S.E. Asia, China"
JPOSA,,OC2,SAKISHIMA CONTAINER TERMINAL C-2,"MITSUI O.S.K. LINES, LTD.","N 34°38'01""","E 135°26'26""",34.633611,135.440556,2020-01-03,2015-08-19,,https://hanshinport.co.jp/en/facilities/,,"Routes: S.E. Asia, China"
JPOSA,,OC34,SAKISHIMA CONTAINER TERMINAL C-3/4,"TATSUMI SHOKAI CO., LTD.","N 34°38'18""","E 135°26'23""",34.638333,135.439722,2020-01-03,2015-08-19,,https://hanshinport.co.jp/en/facilities/,,"Routes: Australia, S.E. Asia, China, Korea"
JPOSA,,OC8,SAKISHIMA CONTAINER TERMINAL C-8,"KAWASAKI KISEN KAISHA LTD. / KAMIGUMI CO., LTD.","N 34°38'36""","E 135°25'50""",34.643333,135.430556,2020-01-03,2015-08-19,,https://hanshinport.co.jp/en/facilities/,,"Routes: Australia, S.E. Asia, China"
JPOSA,,OC9,SAKISHIMA CONTAINER TERMINAL C-9,"MITSUBISHI LOGISTICS CO., LTD. / MITSUI WAREHOUSE TERMINAL SERVICE CO., LTD.","N 34°38'34""","E 135°25'36""",34.642778,135.426667,2020-01-03,2015-08-19,,https://hanshinport.co.jp/en/facilities/,,"Routes: Australia, S.E. Asia, China, Korea"
JPOSA,,OC10,YUMESHIMA CONTAINER TERMINAL C-10,DICT,"N 34°39'09""","E 135°24'11""",34.6525,135.403056,2020-01-03,2015-08-19,,https://hanshinport.co.jp/en/facilities/,,"Routes: North America, Australia, S.E. Asia, China, Taiwan, Korea"
JPOSA,,OC11,YUMESHIMA CONTAINER TERMINAL C-11,DICT / EVERGREEN LINE JOINT SERVICE AGREEMENT,"N 34°39'00""","E 135°24'02""",34.65,135.400556,2020-01-03,2015-08-19,,https://hanshinport.co.jp/en/facilities/,,"Routes: North America, Australia, S.E. Asia, China, Taiwan, Korea"
JPOSA,,OC12,YUMESHIMA CONTAINER TERMINAL C-12,DICT,"N 34°38'51""","E 135°23'53""",34.6475,135.398056,2020-01-03,2015-08-19,,https://hanshinport.co.jp/en/facilities/,,"Routes: North America, Australia, S.E. Asia, China, Taiwan, Korea"
JPOTK,,OHW,OTAKE HIGASHISAKAE WHARF,OTAKE HIGASHISAKAE WHARF,"N 34°13'19""","E 132°14'33""",34.221889,132.242417,,2020-01-01,,,,
JPSBK,,SKM,SUKEMATSU WHARF NO. 8 PIER,"SAKAI SENBOKU WHARF CO., LTD.","N 34°31'35""","E 135°24'06""",34.526389,135.401667,2020-05-01,2015-10-27,,http://www.pref.osaka.lg.jp/kowan/kankatsu/sakasen-all.html,,
JPSBS,,GG06C,GAIKOCHIKU D GANPEKI,GAIKOCHIKU D GANPEKI,"N 31°28'09""","E 131°06'16""",31.469167,131.104444,2019-12-06,2001-06-26,,,,
JPSBS,,SWCT,SHINWAKAHAMA INTERNATIONAL CONTAINER TERMINAL,SHINWAKAHAMA INTERNATIONAL CONTAINER TERMINAL,"N 31°27'08""","E 131°05'19""",31.452222,131.088611,,2019-12-13,,,"296-1 Shiokake, Anraku, Shibushi-Cho, Shibushi-City, Kgoshima-Pref, Japan",
JPSGM,,SC01C,TAKASAGO PIER NO. 1 BERTH,SENDAISHIOGAMA PORT AUTHORITY,"N 38°16'04""","E 141°01'15""",38.267778,141.020833,2020-05-01,2001-06-26,,https://www.pref.miyagi.jp/site/sinkou/,,
JPSKT,,TS02C,TAKASAGO NO. 2 QUAY,TAKASAGO NO. 2 QUAY,"N 38°57'00""","E 139°49'08""",38.95,139.818889,2020-02-29,2001-06-26,,http://www.port-of-sakata.jp/index.html,,
JPSMN,,GS02C,SHOWA SOUTH NO. 2 BERTH,SAKAIMINATO PORT AUTHORITY,"N 35°32'19""","E 133°15'09""",35.538611,133.2525,2020-05-01,2001-06-26,,http://www.sakai-port.com/publics/index/26/,,
JPSMN,,GS03C,SHOWA SOUTH NO. 3 BERTH,SAKAIMINATO PORT AUTHORITY,"N 35°32'16""","E 133°15'04""",35.537778,133.251111,2020-05-01,2001-06-26,,http://www.sakai-port.com/publics/index/26/,,
JPSMT,,WM32C,NISHIHAMA NO. 5 BERTH,WAKAYAMA SHIMOTSU PORT AUTHORITY,"N 34°12'29""","E 135°08'31""",34.208056,135.141944,2020-05-01,2001-06-26,,https://www.pref.wakayama.lg.jp/prefg/080500/kowan/washimo/04honko.html,,
JPSMZ,,OKT,SHIN-OKITSU CONTAINER TERMINAL,"SUZUYO & CO., LTD.","N 35°02'27""","E 138°31'14""",35.040833,138.520556,2020-01-24,2015-04-05,,https://www.portofshimizu-intl.com/overview-1/wharf-maps/shin-okitsu-wharf-okitsu-no-1-wharf/,,
JPSMZ,,SDE,SODESHI CONTAINER TERMINAL,"SUZUYO & CO., LTD.","N 35°02'14""","E 138°30'26""",35.037222,138.507222,2020-01-24,2015-04-05,,https://www.portofshimizu-intl.com/overview-1/wharf-maps/sodeshi-no-1-wharf/,,
JPTHS,,TJ8C,JINNO WHARF NO. 8,MIKAWA PORT CONTAINER TERMINAL CO. LTD.,"N 34°44'21""","E 137°18'31""",34.739083,137.308556,,2019-12-13,,,,
JPTKY,,HAR,HARUMI WHARF,TOKUYAMA PORT AUTHORITY,"N 34°02'18""","E 131°47'14""",34.038333,131.787222,2020-05-01,2015-10-27,,https://www.pref.yamaguchi.lg.jp/cms/a18700/index/,,
JPTMK,,TICT,TOMAKOMAI INTERNATIONAL CONTAINER TERMINAL,TOMAKOMAI INTERNATIONAL CONTAINER TERMINAL,"N 42°36'36""","E 141°47'08""",42.61,141.785556,,2019-10-18,,http://www.tict.jp/,,
JPTRG,,TK02C,KAWASAKI MATSUEI B BERTH,KAWASAKI MATSUEI B BERTH,"N 35°39'40""","E 136°03'47""",35.661111,136.063056,2020-05-01,2001-06-26,,https://www.pref.fukui.lg.jp/doc/kouwan/tsuruga/tsuruga02sisetu.html,,
JPTRG,,TK22C,KAWASAKI MATSUEI C BERTH,KAWASAKI MATSUEI C BERTH,"N 35°39'39""","E 136°03'38""",35.660833,136.060556,2020-05-01,2001-06-26,,https://www.pref.fukui.lg.jp/doc/kouwan/tsuruga/tsuruga02sisetu.html,,
JPTTJ,,SG21C,SENDAI WHARF NO. 1,SENDAI WHARF NO. 1,"N 35°32'31""","E 134°11'14""",35.541944,134.187222,2020-02-29,2001-06-26,,https://www.pref.tottori.lg.jp/dd.aspx?menuid=30412,,
JPTTJ,,SG17C,SENDAI WHARF NO. 3,SENDAI WHARF NO. 3,"N 35°32'25""","E 134°11'15""",35.540278,134.1875,2020-02-29,2001-06-26,,https://www.pref.tottori.lg.jp/dd.aspx?menuid=30412,,
JPTYO,,AOO,AOMI CONTAINER TERMINAL BERTH NO. 0/1/2,"DAIICHI TRANSPORTATION & TERMINAL CO., LTD. / SUMITOMO WAREHOUSE / ISEWAN TERMINAL SERVICE CO., LTD. / NIPPON EXPRESS/SANKYU INC.","N 35°36'20""","E 139°47'02""",35.605556,139.783889,2020-01-24,2015-05-11,,http://www.tptc.co.jp/en/guide/aomi/about,,
JPTYO,,AOH,AOMI CONTAINER TERMINAL BERTH NO. 3,"HANJIN SHIPPING CO., LTD. (NIPPON EXPRESS / MITSUI SOKO)","N 35°36'35""","E 139°46'50""",35.609722,139.780556,2020-01-24,2015-05-11,,http://www.tptc.co.jp/en/guide/aomi/about,,
JPTYO,,AOE,AOMI CONTAINER TERMINAL BERTH NO. 4,EVERGREEN MARINE (SUZUE CORP.),"N 35°36'45""","E 139°46'42""",35.6125,139.778333,2020-01-24,2015-05-11,,http://www.tptc.co.jp/en/guide/aomi/about,,
JPTYO,,CBY1,CHUO BOUHATEI Y1 CONTAINER TERMINAL,"KAMIGUMI CO., LTD.","N 35°35'25""","E 139°47'50""",35.590278,139.797222,,2020-10-01,,https://kamigumi-tokyo-container.jp/,"Kamigumi Tokyo Container Terminal Y1, 1-1, Reiwajima 1-Chome, Ota-ku, Tokyo, Japan","Also known as ""Kamigumi Tokyo Container Terminal Y1"""
JPTYO,,CBY2,CHUO BOUHATEI Y2 CONTAINER TERMINAL,MITSUI SOKO / NIPPON EXPRESS / SUMITOTO WAREHOUSE / SANKYU,"N 35°35'19""","E 139°48'01""",35.588611,139.800278,,2020-10-01,,https://www.y2terminal.com/,"Y2 Container Terminal 1-1, Reiwajima 1-Chome, Ota-ku,Tokyo, Japan",
JPTYO,,OHK,OHI CONTAINER TERMINAL BERTH NO. 1/2,"KAWASAKI KISEN KAISHA, LTD.","N 35°36'42""","E 139°45'46""",35.611667,139.762778,2020-01-24,2015-05-11,,http://www.tptc.co.jp/en/guide/oi/about,,
JPTYO,,OHM,OHI CONTAINER TERMINAL BERTH NO. 3/4,"MITSUI O.S.K. LINES, LTD. (UTOC / TICT)","N 35°36'21""","E 139°45'55""",35.605833,139.765278,2020-01-24,2015-05-11,,http://www.tptc.co.jp/en/guide/oi/about,,
JPTYO,,OHA,OHI CONTAINER TERMINAL BERTH NO. 5,"WAN HAI LINES.LTD. (AZUMA SHIPPING CO., LTD.)","N 35°36'07""","E 139°46'05""",35.601944,139.768056,2020-01-24,2015-05-11,,http://www.tptc.co.jp/en/guide/oi/about,,
JPTYO,,OHN,OHI CONTAINER TERMINAL BERTH NO. 6/7,NIPPON YUSEN KAISHA LTD. / UNIX CORP.,"N 35°35'53""","E 139°46'16""",35.598056,139.771111,2020-01-24,2015-05-11,,http://www.tptc.co.jp/en/guide/oi/about,,
JPTYO,,SHG,SHINAGAWA CONTAINER TERMINAL,DAIICHI / SUMITOMO / NIPPON EXPRESS / SANKYU / AZUMA SHIPPING,"N 35°37'45""","E 139°45'33""",35.629167,139.759167,2020-01-24,2015-05-08,,http://www.tptc.co.jp/en/guide/shinagawa/about,,Berths SC/SD/SE/SF
JPUBJ,,SF01C,SHIBANAKA BERTH NO. 1,SHIBANAKA NO. 1 BERTH,"N 33°56'14""","E 131°14'15""",33.937222,131.2375,2019-11-20,2001-06-26,,,,
JPUBJ,,SWW,SHIBANAKA WEST WHARF (SHIBANAKANISI),SHIBANAKA WEST WHARF (SHIBANAKANISI),"N 33°55'58""","E 131°14'00""",33.932833,131.233306,,2020-01-01,,,,
JPUKB,,KCT,"KAMIGUMI KOBE CONTAINER TERMINAL (KGCT), PC-18","KAMIGUMI CO., LTD.","N 34°40'00""","E 135°14'05""",34.666667,135.234722,2020-10-01,2004-05-31,,https://www.kamigumi.co.jp/english/company/network/container.html,,
JPUKB,,PIM,PORT ISLAND M BERTH,PORT ISLAND M BERTH (IMOTO LINES),"N 34°39'07""","E 135°14'37""",34.652,135.243722,,2019-10-04,,,"9 Chome Minatojima, Chuo Ward, Kobe, Hyogo 650-0045, Japan",
JPUKB,,PC13,PORT ISLAND PC-13,KAMIGUMI / SUMITOMO WAREHOUSE,"N 34°39'30""","E 135°13'48""",34.658333,135.23,2020-01-03,2015-06-20,,https://hanshinport.co.jp/en/facilities/,,
JPUKB,,PC14,PORT ISLAND PC-14,NISSIN CORPORATION,"N 34°39'34""","E 135°14'01""",34.659444,135.233611,2020-01-03,2015-06-20,,https://hanshinport.co.jp/en/facilities/,,
JPUKB,,PC15,PORT ISLAND PC-15,"MITSUI O.S.K. LINES, LTD / SANKYU / SUMITOMO WAREHOUSE / NICKEL & LYONS, LTD.","N 34°39'38""","E 135°14'19""",34.660556,135.238611,2020-01-03,2015-06-20,,https://hanshinport.co.jp/en/facilities/,,
JPUKB,,PC16,PORT ISLAND PC-16/17,"MITSUI O.S.K. LINES, LTD / SANKYU / SUMITOMO WAREHOUSE / NICKEL & LYONS, LTD.","N 34°39'20""","E 135°14'31""",34.655556,135.241944,2020-01-03,2015-06-20,,https://hanshinport.co.jp/en/facilities/,,
JPUKB,,RC4,ROKKO ISLAND RC-4,KAWASAKI KISEN KAISHA LTD. / MITSUBISHI LOGISTICS CORPORATION,"N 34°40'43""","E 135°15'31""",34.678611,135.258611,2020-01-03,2015-06-30,,https://hanshinport.co.jp/en/facilities/,,
JPUKB,,RC5,ROKKO ISLAND RC-5,KAWASAKI KISEN KAISHA LTD. / MITSUBISHI LOGISTICS CORPORATION,"N 34°40'45""","E 135°15'50""",34.679167,135.263889,2020-01-03,2015-06-30,,https://hanshinport.co.jp/en/facilities/,,
JPUKB,,RC6,ROKKO ISLAND RC-6/7,NIPPON YUSEN KABUSHIKI KAISHA,"N 34°40'53""","E 135°17'05""",34.681389,135.284722,2020-01-03,2015-06-30,,https://hanshinport.co.jp/en/facilities/,,
JPUKB,,RWX,ROKKO ISLAND RWX,ROKKO ISLAND RWX (MITSUBISHI LOGISTICS),"N 34°41'21""","E 135°16'50""",34.689167,135.280556,,2019-10-04,,,,"Berths W, X, Y, Z, L1 & L2"
JPUKB,,RSBC,ROKKO ISLAND SOUTH B/C BERTH,IMOTO LINES,"N 34°40'50""","E 135°16'41""",34.680444,135.278056,,2019-10-18,,,,
JPWKJ,,SE01C,SUEHIRO PIER EAST,SUEHIRO PIER EAST,"N 45°24'15""","E 141°41'28""",45.404167,141.691111,2020-02-29,2001-06-26,,http://www.mlit.go.jp/common/001181872.pdf,,
JPYKK,,KSN,"KASUMIGAURA NORTH PIER, W80",JAPAN TRANSCITY CORPORATION,"N 34°59'50""","E 136°40'07""",34.997222,136.668611,2020-02-29,2015-06-16,,http://www.yokkaichi-port.or.jp/b_container_terminai.html,,
JPYKK,,KSS,"KASUMIGAURA SOUTH PIER, W26/W27",JAPAN TRANSCITY CORPORATION,"N 34°59'32""","E 136°39'51""",34.992222,136.664167,2020-02-29,2015-06-16,,http://www.yokkaichi-port.or.jp/b_container_terminai.html,,
JPYOK,,APMYOK,APM TERMINALS YOKOHAMA,APM TERMINALS,"N 35°24'08""","E 139°40'45""",35.402222,139.679167,2020-01-15,2016-09-01,,https://www.apmterminals.com/en/operations/asia-pacific/yokohama/about-us,,APMT operates at MINAMI-HONMOKU CONTAINER TERMINAL MC-1&2
JPYOK,,DC3,DAIKOKU CONTAINER TERMINAL C-3,"NIPPON EXPRESS / KAMIGUMI CO., LTD.","N 35°27'33""","E 139°41'36""",35.459167,139.693333,2020-01-15,2015-06-20,,http://www.yokohamaport.co.jp.e.df.hp.transer.com/facilities/daikoku/,,
JPYOK,,DC4,DAIKOKU CONTAINER TERMINAL C-4,NIPPON YUSEN KABUSHIKI KAISHA,"N 35°27'38""","E 139°41'47""",35.460556,139.696389,2020-01-15,2015-06-20,,http://www.yokohamaport.co.jp.e.df.hp.transer.com/facilities/daikoku/,,
JPYOK,,DT9,DAIKOKU CONTAINER TERMINAL T-9,"MITSUI SOKO CO., LTD. / SUMITOTO WAREHOUSE","N 35°27'28""","E 139°41'25""",35.457778,139.690278,2020-04-01,2015-06-20,,http://www.yokohamaport.co.jp.e.df.hp.transer.com/facilities/daikoku/,"Daikoku T9 Container Terminal, 25 Daikokufuto, Tsurumi-Ku, Yokohama, Kanagawa, Japan",
JPYOK,,HA5,HONMOKU CONTAINER TERMINAL A-5.6,"KAWASAKI KISEN KAISHA, LTD.","N 35°26'49""","E 139°40'21""",35.446944,139.6725,2020-01-24,2015-06-30,,http://www.yokohamaport.co.jp.e.df.hp.transer.com/facilities/honmoku/,,
JPYOK,,HA6,HONMOKU CONTAINER TERMINAL A-6.7,"KAWASAKI KISEN KAISHA, LTD. / NISSIN CORPORATION / KEIHIN KOUN CO.LTD.","N 35°26'40""","E 139°40'15""",35.444444,139.670833,2020-01-24,2015-06-30,,http://www.yokohamaport.co.jp.e.df.hp.transer.com/facilities/honmoku/,,
JPYOK,,HBC,HONMOKU CONTAINER TERMINAL BC,"YOKOHAMA PORT MEGA TERMINAL CO., LTD.","N 35°26'15""","E 139°40'43""",35.4375,139.678611,2020-01-24,2015-06-30,,http://www.yokohamaport.co.jp.e.df.hp.transer.com/facilities/honmoku/,,
JPYOK,,HD1,HONMOKU CONTAINER TERMINAL D-1,"YOKOHAMA PORT MEGA TERMINAL CO., LTD.","N 35°26'03""","E 139°40'51""",35.434167,139.680833,2020-01-24,2015-06-30,,http://www.yokohamaport.co.jp.e.df.hp.transer.com/facilities/honmoku/,,
JPYOK,,HD4,HONMOKU CONTAINER TERMINAL D-4,"AMERICAN PRESIDENT LINES, LTD.","N 35°26'16""","E 139°40'59""",35.437778,139.683056,2020-01-24,2015-06-30,,http://www.yokohamaport.co.jp.e.df.hp.transer.com/facilities/honmoku/,,
JPYOK,,HD5,HONMOKU CONTAINER TERMINAL D-5,"MITSUI O.S.K. LINES, LTD.","N 35°26'26""","E 139°41'05""",35.440556,139.684722,2020-01-24,2015-06-30,,http://www.yokohamaport.co.jp.e.df.hp.transer.com/facilities/honmoku/,,
JPYOK,,MHM,MINAMI-HONMOKU CONTAINER TERMINAL MC-3,"MITSUBISHI LOGISTICS CO., LTD.","N 35°24'01""","E 139°41'02""",35.400278,139.683889,2020-01-24,2015-06-20,,http://www.yokohamaport.co.jp.e.df.hp.transer.com/facilities/minamihonmoku/,,
KEMBA,,MCT,MOMBASA CONTAINER TERMINAL,KENYA PORTS AUTHORITY,"S 04°02'45""","E 039°37'37""",-4.045833,39.626944,2020-08-01,2018-05-04,,https://www.kpa.co.ke/OurBusiness/Pages/Container-Terminal-Operations.aspx,,"Berths 16,17,18,19"
KHKOS,,SPA,SIHANOUKVILLE PORT,SIHANOUKVILLE PORT AUTHORITY,"N 10°38'52""","E 103°30'38""",10.647778,103.510556,2020-01-24,2015-06-24,,http://www.pas.gov.kh/en,,
KRINC,,E1CTC,E1 CONTAINER TERMINAL,E1 CONTAINER TERMINAL,"N 37°26'23""","E 126°36'39""",37.439722,126.610833,2020-01-24,2018-12-18,,http://www.e1ct.co.kr/homepage/Eng/center_eng.asp,,See also https://www.icpa.or.kr/eng/content/view.do?menuKey=637&contentKey=145
KRINC,,HJITC,HANJIN INCHEON CONTAINER TERMINAL (HJIT),HANJIN INCHEON CONTAINER TERMINAL,"N 37°20'32""","E 126°37'38""",37.342222,126.627222,2020-01-24,2019-01-17,,http://www.hjit.co.kr/eng/Main.do,,See also https://www.icpa.or.kr/eng/content/view.do?menuKey=637&contentKey=146
KRINC,,ICTPC,INCHEON CONTAINER TERMINAL (ICT),"INCHEON CONTAINER TERMINALS CO., LTD. / PSA","N 37°26'19""","E 126°35'52""",37.438611,126.597778,2020-01-24,2018-12-18,,https://www.psa-ict.co.kr/eng/main/main.psa,,See also https://www.icpa.or.kr/eng/content/view.do?menuKey=637&contentKey=147
KRINC,,SNCTC,SUNKWANG NEWPORT CONTAINER TERMINAL (SNCT),"SUNKWANG NEWPORT CONTAINER TERMINAL CO., LTD.","N 37°20'32""","E 126°38'11""",37.342222,126.636389,2020-01-24,2018-12-18,,http://snct.sun-kwang.co.kr/eng/page/terminal05.jsp,,See also https://www.icpa.or.kr/eng/content/view.do?menuKey=637&contentKey=148
KRKAN,,GWCT,GWANGYANG WEST CONTAINER TERMINAL,"GWANGYANG WEST CONTAINER TERMINAL CO., LTD.","N 34°53'47""","E 127°39'19""",34.896389,127.655278,,2018-12-18,,https://www.cjlogistics.com,"1392, Hwang Gil Dong, Gwang Yang, Chonnam, South Korea",
KRKAN,,KIT,KOREA INTERNATIONAL CONTAINER TERMINAL,KOREA INTERNATIONAL TERMINAL,"N 34°54'09""","E 127°39'59""",34.9025,127.666389,,2015-05-03,,https://www.kitl.com/eng/index.kitl,"240, Keonbudu-ro, Gwangyang-si, Jeollanam-do, South Korea",
KRKAN,,GIGCT,SM GWANGYANG TERMINAL,"SM LINE GWANGYANG TERMINAL CO., LTD.","N 34°54'34""","E 127°40'38""",34.909444,127.677222,,2018-12-18,,http://home.smlgt.co.kr/home,"390, Keonbudu-ro, Gwangyang-si, Jeollanam-do, South Korea",
KRKPO,,PICTC,POHANG INTERNATIONAL CONTAINER TERMINAL (PICT),POHANG YEONGILMAN SHINHANG PORT CO.,"N 36°06'20""","E 129°26'21""",36.105556,129.439167,2020-01-24,2018-12-18,,http://www.pohangport.com/eng/main.html,,
KRPTK,,PCTCC,PYEONGTAEK CONTAINER TERMINAL,PYEONGTAEK CONTAINER TERMINAL CO,"N 36°57'53""","E 126°50'21""",36.964722,126.839167,,2018-12-18,,http://www.pctc21.com/eng,,
KRPTK,,PNCTC,PYEONGTAEK DONGBANG I-PORT,"PYEONGTAEK DONGBANG I-PORT CO., LTD.","N 36°57'02""","E 126°51'03""",36.950556,126.850833,,2018-12-18,,http://www.pnct.co.kr/homepage/eng/page/com_directions.jsp,"Dongnam Building 2F, 7-10, UnJeong-ri, HyunDeok-myun, Pyeongtaek-si, GyeongGi-do, South Korea",
KRPUS,,BNCT,BUSAN NEW CONTAINER TERMINAL (BNCT),"BUSAN NEW CONTAINER TERMINAL CO., LTD.","N 35°04'04""","E 128°48'46""",35.067778,128.812778,2020-01-24,2015-03-06,,http://www.bnctkorea.com/,"586, Sinhangnam-ro, (Seongbuk-dong), Gangseo-gu, Busan, South Korea",New Port Pier 5
KRPUS,,KBCT,BUSAN PORT TERMINAL (BPT),BUSAN PORT TERMINAL,"N 35°06'20""","E 129°05'42""",35.105556,129.095,2018-01-13,2004-05-31,,http://info.bptc.co.kr/,,Sinseondae pier and Gamman pier
KRPUS,,DPCT,DONGBU PUSAN CONTAINER TERMINAL (DPCT),"DONGBU PUSAN CONTAINER TERMINAL CO., LTD.","N 35°06'22""","E 129°04'16""",35.106111,129.071111,2020-01-24,2004-05-31,,http://www.dpct.co.kr/,,Sin-gamman Pier
KRPUS,KRBNP,HJNC,HANJIN BUSAN NEW PORT CO. (HJNC),HANJIN BUSAN NEW PORT CO.,"N 35°04'40""","E 128°47'28""",35.077778,128.791111,2020-01-24,2015-03-06,,http://www.hjnc.co.kr/ENG/intro.aspx,,New Port Pier 3
KRPUS,,HBCT,HUTCHISON BUSAN CONTAINER TERMINAL (HBCT),HUTCHISON PORTS BUSAN,"N 35°07'22""","E 129°03'37""",35.122778,129.060278,2020-01-24,2015-03-25,,https://www.hktl.com/main/main.php,"314, Chungjang-daero, Dong-gu, Busan, South Korea",Jaseongdae pier
KRPUS,,HPNT,PSA HYUNDAI PUSAN NEW-PORT TERMINAL (HPNT),PSA HYUNDAI PUSAN NEW-PORT TERMINAL CO.,"N 35°04'12""","E 128°49'35""",35.07,128.826389,2020-01-24,2015-03-06,,https://www.hpnt.co.kr/homepage/eng/webpage/,,New Port Pier 4
KRPUS,,PNC,PUSAN NEW PORT CO. (PNC),PUSAN NEW PORT CO.,"N 35°04'40""","E 128°48'27""",35.077778,128.8075,2020-02-29,2004-05-31,,https://pncport.com/eng/,,New Port Pier 2
KRPUS,,PNP,PUSAN NEW PORT INTERNATIONAL TERMINAL (PNIT),PUSAN NEW PORT INTERNATIONAL TERMINAL CO.,"N 35°04'40""","E 128°49'31""",35.077778,128.825278,2020-02-29,2004-05-31,,https://www.pnitl.com/infoservice/main/mainPage.jsp,,New Port Pier 1
KRUSN,,JUCTC,JEONG IL ULSAN CONTAINER TERMINAL,"JEONG IL ULSAN CONTAINER TERMINAL CO., LTD","N 35°26'32""","E 129°21'10""",35.442222,129.352778,,2018-12-18,,https://www.juct.co.kr/,"150-5 Sanam-ri, Onsan-eup, Ulju-gun, Ulsan, South Korea",
KRUSN,,UDITC,ULSAN NEWPORT CONTAINER TERMINAL (UNCT),"ULSAN NEWPORT CONTAINER TERMINAL CO., LTD","N 35°27'20""","E 129°21'55""",35.455556,129.365278,2020-01-24,2018-12-18,,http://www.unct.co.kr/,"625-1 Hwangseong-dong, Nam-gu, Ulsan, South Korea",
KWSAA,,SAACT,SHUAIBA CONTAINER TERMINAL,GLOBAL CLEARINGHOUSE SYSTEMS COMPANY,"N 29°02'45""","E 048°09'17""",29.045833,48.154639,,2020-06-08,,https://www.gcskw.com/,"Shuaiba Container Terminal, berths no. 15,16,17,18. Eastern Road, Kuwait","Berths 15,16,17,18"
KWSWK,,SWKCT,SHUWAIKH CONTAINER TERMINAL,JASSIM TRANSPORT & STEVEDORING COMPANY,"N 29°20'56""","E 047°55'15""",29.348833,47.920778,,2020-06-08,,http://www.jtckw.com/,"Shuwaikh Container Terminal, berths No. 10 & 13","Berths 10,12,13"
LBBEY,,BCTC,BEIRUT CONTAINER TERMINAL CONSORTIUM (BCTC),BEIRUT CONTAINER TERMINAL CONSORTIUM S.A.L.,"N 33°54'32""","E 035°32'03""",33.908889,35.534167,,2004-05-31,,https://www.bctc-lb.com/,,
LKCMB,,CICT,COLOMBO INTERNATIONAL CONTAINER TERMINAL,COLOMBO INTERNATIONAL CONTAINER TERMINALS LTD.,"N 06°56'44""","E 079°49'58""",6.945556,79.832778,2020-01-24,2015-06-20,,http://www.cict.lk/,,
LKCMB,,LKJCT,JAYA CONTAINER TERMINAL,JAYA CONTAINER TERMINAL,"N 06°56'52""","E 079°51'10""",6.947778,79.852778,2020-01-24,2005-09-19,,http://portcom.slpa.lk/Jaya_container_terminal.asp?chk=6,,
LKCMB,,SAGT,SOUTH ASIA GATEWAY TERMINALS (SAGT),SOUTH ASIA GATEWAY TERMINALS PVT. LTD.,"N 06°56'48""","E 079°50'44""",6.946667,79.845556,2020-01-24,2005-09-19,,https://www.sagt.com.lk/,,
LKCMB,,LKUCT,UNITY CONTAINER TERMINAL,UNITY CONTAINER TERMINAL,"N 06°57'30""","E 079°51'18""",6.958333,79.855,2020-01-24,2005-09-19,,http://portcom.slpa.lk/unity_container_terminal.asp?chk=6,,
LTKLJ,,KKT,KLAIPEDA CONTAINER TERMINAL,KLAIPEDOS KONTEINERIU TERMINALAS,"N 55°38'45""","E 021°09'36""",55.645833,21.16,2020-07-01,2014-11-10,,https://www.terminalas.lt/?lang=en,"Minijos st. 180, LT-93269 Klaipeda, Lithuania","Berths 143,143a"
LTKLJ,,KAS,KLAIPEDA SMELTE CONTAINER TERMINAL (KSCT),KLAIPEDOS SMELTE,"N 55°40'40""","E 021°08'34""",55.677778,21.142778,2020-07-01,2014-11-10,,http://www.smelte.lt/index.php/en/,"Nemuno str. 24, LT-93278 Klaipeda, Lithuania",Berths 82-96
LVRIX,,BCT,BALTIC CONTAINER TERMINAL RIGA,BALTIC CONTAINER TERMINAL,"N 57°00'26""","E 024°05'48""",57.007222,24.096667,2020-02-29,2007-11-10,,http://www.bct.lv/,"Uriekstes iela 32, Riga, LV-1005, Latvia",
LVRIX,,RCT,RIGA CONTAINER TERMINAL (RIGACT),RIGA CONTAINER TERMINAL (RIGACT),"N 56°58'51""","E 024°05'37""",56.980833,24.093611,2020-02-29,2008-01-16,,https://www.rigact.lv/en/,"15 K-1 Eksporta Iela, Riga, LV-1045, Latvia",
LVRIX,,RUT,RIGA UNIVERSAL TERMINAL,RIGA UNIVERSAL TERMINAL,"N 57°02'31""","E 024°04'34""",57.041944,24.076111,2020-02-29,2014-11-12,,http://www.ruterminal.lv/,"Birztalu iela 15, Riga, LV-1015, Latvia",
MACAS,,EST,CONTAINER TERMINAL EST,MARSA MAROC,"N 33°36'36""","W 007°35'46""",33.61,-7.596111,2020-02-29,2005-10-07,,http://www.marsamaroc.co.ma/en/espace-corporate/casablanca,,
MACAS,,SOMAP,SOMAPORT,SOMAPORT,"N 33°36'17""","W 007°36'15""",33.604722,-7.604167,2020-02-29,2015-06-12,,https://www.somaport.ma/en/design-terminal-tp,,
MAPTM,,APMT,APM TERMINALS TANGIER,APM TERMINALS TANGIER,"N 35°53'24""","W 005°29'48""",35.89,-5.496667,2021-01-01,2018-02-19,,https://www.apmterminals.com/en/tangier,"Zone Franche Ksar Al Majaz, Oued R'Mel, Commune Anjra, Route de Fnideq, BP 216, Ksar es-Seghir, Morocco","Locally known as ""TC1"""
MAPTM,,APM2,APM TERMINALS TANGIER MEDPORT 2,APM TERMINALS TANGIER,"N 35°51'47""","W 005°32'18""",35.863056,-5.538333,,2019-08-22,,https://www.apmterminals.com/en/medport-tangier,"Port de Tanger Med, Ksar es-Seghir, Morocco","Locally known as ""TC4"""
MAPTM,,EURTN,EUROGATE TANGIER,EUROGATE TANGIER S.A,"N 35°53'43""","W 005°29'26""",35.895278,-5.490556,2019-12-13,2004-05-31,,http://www1.eurogate.de/en/Terminals/Tangier,"Zone Franche Ksar Al Majaz, Oued R'Mel, Commune Anjra, Route de Fnideq, 90000 Tangier, Morocco","Locally known as ""TC2"""
MAPTM,,TAT,TANGER ALLIANCE TERMINAL,"TANGER ALLIANCE (MARSA MAROC, EUROGATE)","N 35°52'32""","W 005°31'32""",35.875611,-5.525528,,2021-01-01,,https://www.contshipitalia.com/en/subsidiaries/tanger-alliance,"Zone Franche Ksar Al Majaz, Terminal à Conteneurs 3, Port Tanger 2, Tanger, Morocco","Locally known as ""TC3"""
MMRGN,,AIPT1,AHLONE INTERNATIONAL PORT TERMINAL 1,MYANMAR PORT AUTHORITY,"N 16°47'07""","E 096°07'10""",16.785278,96.119444,,2019-12-13,,https://www.aipt1.com,"Ahlone Road, Ahlone Township, Yangon, Myanmar",
MMRGN,,AWPT,ASIA WORLD PORT TERMINAL,ASIA WORLD PORT MANAGEMENT CO. LTD.,"N 16°47'34""","E 096°07'12""",16.792778,96.12,,2019-12-13,,https://www.asiaworldcompany.com,"No. 61-62, Bahosi Development, Wadan Street, Lanmadaw Township, Yangon, Myanmar",
MMRGN,,BAKT,BO AUNG KYAW TERMINAL,LANN PYI MARINE CO. LTD,"N 16°46'00""","E 096°09'57""",16.766667,96.165833,,2019-12-13,,http://lpm-myanmar.com,"No. 55/61, Strand Road, Seikkan Township, Yangon, Myanmar",
MMRGN,,MIP,MYANMAR INDUSTRIAL PORT (MIP),MYANMAR INDUSTRIAL PORT (MIP) CONTAINER TERMINAL ,"N 16°46'34""","E 096°07'56""",16.776111,96.132222,,2019-11-18,,https://www.myanmarindustrialport.com/index,"No. 7/2 (B) Strand Road, Ahlone Township, Yangon, Myanmar.",
MMRGN,,MITT,MYANMAR INTERNATIONAL TERMINALS THILAWA (HUTCHISON MITT),MYANMAR INTERNATIONAL TERMINALS THILAWA LTD. (HUTCHISON MITT),"N 16°39'59""","E 096°15'01""",16.666389,96.250278,,2019-12-13,,https://www.mitt.com.mm,"Thilawa, Kyauktan Township, Yangon, Myanmar","Subsidiary company of CK Hutchison Holdings, Hong Kong"
MRNKC,,PANPA,FRIENDSHIP PORT OF NOUAKCHOTT,PORT AUTONOME DE NOUAKCHOTT - PORT DE L'AMITIE (PANPA),"N 17°59'27""","W 016°02'05""",17.990833,-16.034722,,2020-06-08,,http://www.port-nouakchott.com/,,
MTMAR,,FREE,MALTA FREEPORT TERMINALS LTD,MALTA FREEPORT TERMINALS LTD.,"N 35°49'12""","E 014°32'34""",35.82,14.542778,,2004-05-31,,,,
MXATM,,ATP,ALTAMIRA TERMINAL PORTUARIA,ALTAMIRA TERMINAL PORTUARIA S.A. DE C.V.,"N 22°28'37""","W 097°53'06""",22.476944,-97.885,,2004-05-31,,https://www.atpaltamira.com.mx/,"Carretera Terminal de usos multiples s/n, Local 1, Puerto de Altamira, 89603 Altamira, Tamaulipas, Mexico",
MXATM,,IPM,INFRAESTRUCTURA PORTUARIA MEXICANA S.A. DE C.V.,INFRAESTRUCTURA PORTUARIA MEXICANA S.A. DE C.V.,"N 22°28'26""","W 097°53'03""",22.473889,-97.884167,,2004-05-31,,http://www.ipmaltamira.com.mx/ipm/english/,"Blvd. Golfo De Mexico S/N, Puerto Industrial, 89603 Altamira, Tamaulipas, Mexico",
MXESE,,EIT,ENSENADA INTL TERMINAL SA DE CV,ADMINISTRACION PORTUARIA INTEGRAL DEENSENADA S.A. DE C.V.,"N 31°51'06""","W 116°37'45""",31.851667,-116.629167,,2004-05-31,,http://hutchisonportseit.com/en/,"Blvd. Tte. José Azueta No. 224 Int Recinto Portuario, 22800 Ensenada, Baja California, Mexico",
MXLZC,,APMT,APM TERMINALS LAZARO CARDENAS TERMINAL DE CONTENEDORES II,APM TERMINALS LAZARO CARDENAS S.A. DE C.V.,"N 17°58'28""","W 102°10'21""",17.974444,-102.1725,,2017-11-07,,https://www.apmterminals.com/en/lazaro-cardenas,"Interior Recinto Portuario S/N Puerto, 60950 Lázaro Cárdenas, Michoacán, Mexico",
MXLZC,,LCT,LAZARO CARDENAS TERMINAL PORTUARIA I,"LAZARO CARDENAS TERMINAL PORTUARIA DE CONTENEDORES, S.A. DE C.V.","N 17°57'12""","W 102°10'18""",17.953333,-102.171667,,2004-05-31,,https://hutchisonportslct.com/en/,"Boulevard de Las Islas no.1 módulo 14, Colonia Isla del Cayacal, 60950 Lázaro Cárdenas, Michoacán, Mexico",
MXMZT,,TMAZ,TERMINAL MARITIMA DE MAZATLAN,TERMINAL MARITIMA DE MAZATLAN,"N 23°11'36""","W 106°24'54""",23.193333,-106.415,2020-01-24,2016-06-06,,https://www.tmaz.com.mx/english/,"Av. Emilio Barragán S/N Col. Centro, Interior Recinto Fiscalizado, 82000 Mazatlán, Sinaloa, Mexico",
MXPGO,,TCY,ADMINISTR. PORTUARIA INTEGRAL DE PROGRESO,TERMINAL DE CONTENEDORES DE YUCATAN S.A. DE C.V.,"N 21°20'46""","W 089°40'38""",21.346111,-89.677222,,2004-05-31,,https://www.apmterminals.com/en/progreso,"Terminal Remota, Puerto de Altura, 97320 Progreso, Yucatán, Mexico",
MXTAP,,PMD,PUERTO CHIAPAS,PUERTO CHIAPAS,"N 14°42'38""","W 092°24'05""",14.710556,-92.401389,2020-02-29,2016-09-12,,http://www.puertochiapas.com.mx/,,
MXTUX,,TPT,TUXPAN PORT TERMINAL,TUXPAN PORT TERMINAL S.A. DE C.V.,"N 20°57'29""","W 097°19'32""",20.958056,-97.325556,,2019-10-04,,https://www.tpt.mx/,"Carretera La Barra Sur, Km 7+800, Tuxpan, Veracruz, Mexico",
MXVER,,ICAVE,INTERNACIONAL DE CONTENEDORES ASOCIADOS DE VERACRUZ (ICAVE) TEC II,INTERNACIONAL DE CONTENEDORES ASOCIADOS DE VERACRUZ S.A. DE C.V. (HUTCHISON),"N 19°14'20""","W 096°10'12""",19.239019,-96.169975,,2020-01-01,,https://hutchisonportsicave.com/en/,"Terminal Especializada de Contenedores, Zona de Ampliación del Nuevo Puerto de Veracruz, Mexico",
MXZLO,,CMSA,CONTECON MANZANILLO,CONTECON MANZANILLO S.A. DE C.V.,"N 19°05'05""","W 104°18'09""",19.084722,-104.3025,,2016-05-13,,http://www.contecon.mx,"Blvd. Miguel de la Madrid Hurtado S/N, Colonia Las Brisas primera sección, TEC ll Zona Norte, 28239 Manzanillo, Colima, Mexico",
MXZLO,,SSAMX,SSA MEXICO HOLDINGS,SSA MEXICO HOLDINGS S.A. DE C.V.,"N 19°04'20""","W 104°17'27""",19.072222,-104.290833,,2004-05-31,,https://www.ssamarine.com/locations/manzanillo-colima/,,
MXZLO,,TIMSA,TERMINAL INTL DE MANZANILLO (TIMSA),TERMINAL INT DE MANZANILLO S.A. DE C.V. TIMSA,"N 19°03'37""","W 104°17'35""",19.060278,-104.293056,,2004-05-31,,http://hutchisonportstimsa.com/en/,,
MYPEN,,PENP,PENANG PORT,PENANG PORT SDN. BHD.,"N 05°25'18""","E 100°22'02""",5.421667,100.367222,,2014-07-10,,http://www.penangport.com.my/,"NBCT Penang Port, 12200 Butterworth, Penang, Malaysia",
MYPGU,,JPB,JOHOR PORT,JOHOR PORT BERHAD,"N 01°26'14""","E 103°53'23""",1.437222,103.889722,2019-12-13,2015-06-12,,http://www.johorport.com.my,"Pasir Gudang Industrial Estate, 81707 Pasir Gudang, Johor, Malaysia",
MYPKG,,NPM,NORTHPORT MALAYSIA,NORTHPORT MALAYSIA BHD.,"N 03°02'14""","E 101°21'26""",3.037222,101.357222,,2004-05-31,,https://www.northport.com.my,"Jalan Pelabuhan, Pelabuhan Utara, 42000 Port Klang, Selangor, Malaysia",
MYPKG,,KMT,WESTPORT KELANG MULTI TERMINAL (KMT),WESTPORTS MALAYSIA SDN. BHD.,"N 02°56'06""","E 101°17'42""",2.935,101.295,2020-01-24,2004-05-31,,https://www.westportsholdings.com/,"P.O. Box 266, Pulau Indah, 42009 Port Klang, Selangor, Malaysia",
MYTPP,,PTP,PORT OF TANJUNG PELEPAS (PTP),PORT OF TANJUNG PELEPAS SDN. BHD.,"N 01°21'45""","E 103°32'45""",1.3625,103.545833,,2004-05-31,,https://www.ptp.com.my/,"Block A, Wisma PTP, Jalan Pelabuhan Tanjung Pelepas TST 507, 81560 Gelang Patah, Johor, Malaysia",
MZMPM,,MIPS,DP WORLD MAPUTO,DP WORLD,"S 25°57'42""","E 032°32'46""",-25.961667,32.546111,2020-01-24,2005-09-19,,http://www.dpworldmaputo.com/,,MIPS was renamed to DP World Maputo in 2008
NAWVB,,WVB,WALVIS BAY OCEAN TERMINAL,WALVIS BAY OCEAN TERMINAL,"S 22°57'04""","E 014°29'48""",-22.951111,14.496667,2020-01-24,2015-09-22,,https://www.namport.com.na/ports/welcome-to-the-port-of-walvis-bay/522/,,
NGAPP,,APMTER,APM TERMINALS APAPA,APM TERMINALS APAPA LTD.,"N 06°26'09""","E 003°23'18""",6.435833,3.388333,2020-01-24,2015-10-09,,https://www.apmterminals.com/apapa,,
NGPHC,NGONN,APMT,WEST AFRICA CONTAINER TERMINAL (ONNE PORT COMPLEX),APM TERMINALS,"N 04°42'15""","E 007°09'20""",4.704167,7.155556,,2018-09-05,,https://www.apmterminals.com/en/operations/africa-middle-east/onne,,
NGTIN,,FIVEST,FIVE STAR TERMINAL TIN CAN ISLAND (TERMINAL D),FIVE STAR (TIN CAN ISLAND),"N 06°25'47""","E 003°20'27""",6.429722,3.340833,2020-12-01,2015-09-22,,https://www.fivestarlogisticsltd.com/,,"Berths 9,10"
NGTIN,,TICT,TIN CAN ISLAND CONTAINER TERMINAL TICT (TERMINAL B),TIN CAN ISLAND TERMINAL LTD. / BOLLORE PORTS,"N 06°25'57""","E 003°21'09""",6.4325,3.3525,2020-12-01,2015-09-22,,https://www.tict-ng.com/,,"Berths 3,4,4A,5"
NGTIN,,TCIPC,TIN CAN ISLAND PORT (TERMINAL C),PORTS & CARGO HANDLING SERVICES LTD.,"N 06°25'52""","E 003°20'46""",6.431111,3.346111,,2020-12-01,,http://www.sifaxgroup.com/companies/ports-and-cargo-handling-services-limited/,"Tin-Can Island Port Terminal C, 1st Gate, Tin-Can Island, Lagos, Nigeria","Berths 6,7,7A,8"
NICIO,,EPN,PORT OF CORINTO,EMPRESA PORTUARIA NACIONAL,"N 12°28'57""","W 087°10'04""",12.4825,-87.167778,,2004-05-31,,,,
NLAMS,,ACT,AMSTERDAM CONTAINER TERMINAL (ACT),AMSTERDAM CONTAINER TERMINALS BV,"N 52°25'19""","E 004°46'01""",52.421944,4.766944,2020-01-24,2009-03-20,,https://hutchisonports.com/en/ports/world/amsterdam-container-terminals-act/,"Ruijgoordweg 100, Harbor number 7991, 1047 HM Amsterdam, The Netherlands",
NLRTM,,APM,APM TERMINALS ROTTERDAM,APM TERMINALS,"N 51°57'27""","E 004°02'45""",51.9575,4.045833,2019-11-18,2014-08-05,,https://www.apmterminals.com/en/rotterdam,"Coloradoweg 50, Port number 8203, 3199 LA Maasvlakte-Rotterdam, The Netherlands",
NLRTM,,NLMVII,APM TERMINALS ROTTERDAM MAASVLAKTE 2,APM TERMINALS,"N 51°57'15""","E 004°00'12""",51.954167,4.003333,2019-11-18,2014-08-26,,https://www.apmterminals.com/en/maasvlakte,"Europaweg 910, Port number 8410, 3199 LC Maasvlakte-Rotterdam, The Netherlands",
NLRTM,,RTMB,BARGE CENTER WAALHAVEN (BCW),RTM-BARGE CENTER-WAALHAVEN,"N 51°52'54""","E 004°26'08""",51.881667,4.435556,2019-11-18,2005-02-23,,https://www.bargecenterwaalhaven.nl,"Waalhaven West Zijde 62, Port number 2503, 3089 KR Rotterdam, The Netherlands",
NLRTM,,5049,BERTH 5049,HOLLAND TERMINALS,"N 51°52'47""","E 004°14'23""",51.879722,4.239722,2019-11-18,2005-08-24,,https://www.waalhavenbotlekterminal.nl/terminal/,"Nieuwesluisweg 268, Port number 5049, 3197 KV Rotterdam, The Netherlands",
NLRTM,,DBF,ECT DELTA BARGE FEEDER TERMINAL (DBF),ECT DELTA TERMINAL,"N 51°57'20""","E 004°04'30""",51.955556,4.075,2019-11-18,2007-10-25,,https://www.ect.nl,"Europaweg 875, Port number 8200, 3199 LD Rotterdam (Maasvlakte), The Netherlands",
NLRTM,,DDE,ECT DELTA DEDICATED EAST (DDE),ECT DELTA TERMINAL,"N 51°57'01""","E 004°03'51""",51.950278,4.064167,2019-11-18,2007-10-25,,https://www.ect.nl,"Europaweg 875, Port number 8200, 3199 LD Rotterdam (Maasvlakte), The Netherlands",
NLRTM,,DDN,ECT DELTA DEDICATED NORTH (DDN),ECT DELTA TERMINAL,"N 51°57'32""","E 004°03'53""",51.958889,4.064722,2019-11-18,2007-10-25,,https://www.ect.nl,"Europaweg 875, Port number 8200, 3199 LD Rotterdam (Maasvlakte), The Netherlands",
NLRTM,,DCD,ECT DELTA TERMINAL GATE,ECT DELTA TERMINAL,"N 51°57'16""","E 004°01'43""",51.954583,4.028639,2019-11-18,2016-06-02,,https://www.ect.nl,"Europaweg 875, Port number 8200, 3199 LD Rotterdam (Maasvlakte), The Netherlands",Previously DELTA CONTAINER DIVISION (DCD).
NLRTM,,EMX,ECT EUROMAX TERMINAL (EMX),ECT EUROMAX TERMINAL BV,"N 51°58'27""","E 004°02'17""",51.974167,4.038056,2019-11-18,2007-10-25,,https://www.ect.nl,"Maasvlakteweg 951, Port number 9830, 3199 LZ Rotterdam (Maasvlakte), The Netherlands",
NLRTM,,INTER,INTERFOREST TERMINAL ROTTERDAM,INTERFOREST TERMINAL ROTTERDAM,"N 51°52'54""","E 004°23'57""",51.881667,4.399167,2019-11-18,2014-08-05,,https://www.matransrotterdamterminal.com,"Streefwaalseweg 15, 3195 KN Pernis Rotterdam, The Netherlands",
NLRTM,,RSC,RAIL SERVICE CENTER ROTTERDAM,RAIL SERVICE CENTER ROTTERDAM,"N 51°52'20""","E 004°25'42""",51.872222,4.428333,2019-11-18,2008-11-19,,https://www.rscrotterdam.nl,"Albert Plesmanweg 200, 3088 GD Rotterdam (hoofdkantoor)",
NLRTM,,KRM,ROTTERDAM CONTAINER TERMINAL (RCT) MAASVLAKTE,KRAMER TERMINAL,"N 51°56'45""","E 004°01'58""",51.945833,4.032778,2019-11-18,2014-08-05,,https://www.kramergroup.nl/rotterdam-container-terminal-rct/,"Missouriweg 17, Port number 7220, 3199 LB Maasvlakte-Rotterdam, The Netherlands",
NLRTM,,RSN,ROTTERDAM SHORT SEA TERMINAL (RST) NORTH SIDE,ROTTERDAM SHORT SEA TERMINALS,"N 51°52'49""","E 004°25'25""",51.880278,4.423611,2019-11-18,2014-08-05,,https://rstshortsea.nl,"Reeweg 35, Port number 2750, 3089 KM Rotterdam, The Netherlands",
NLRTM,,RSZ,ROTTERDAM SHORT SEA TERMINAL (RST) SOUTH SIDE,ROTTERDAM SHORT SEA TERMINALS,"N 51°52'41""","E 004°25'12""",51.878056,4.42,2019-11-18,2014-08-05,,https://rstshortsea.nl,"Reeweg 35, Port number 2750, 3089 KM Rotterdam, The Netherlands",
NLRTM,,NLSBH,ROTTERDAM STEINWEG BEATRIXHAVEN,STEINWEG BEATRIXHAVEN,"N 51°53'01""","E 004°24'50""",51.883611,4.413889,2019-11-18,2015-11-01,,https://netherlands.steinweg.com/en/beatrix-terminal/,"Den Hamweg 30, Port number 2732, 3089 KK Rotterdam, The Netherlands",
NLRTM,,RWG,ROTTERDAM WORLD GATEWAY,ROTTERDAM WORLD GATEWAY,"N 51°57'12""","E 003°59'28""",51.953333,3.991111,2019-11-18,2014-08-05,,https://www.rwg.nl,"Amoerweg 50, Port number 8970, 3199 KD Maasvlakte 2 Rotterdam, The Netherlands",
NLRTM,,UMTR,UNIPORT WAALHAVEN TERMINAL,UNIPORT MULTIPURPOSE TERMINALS B.V.,"N 51°53'21""","E 004°25'38""",51.889167,4.427222,2019-11-18,2016-05-13,,https://www.uniport.nl,"Terminal Pier 5, 6 & 7 Waalhaven, Zaltbommelstraat 10, Port number 2530, 3089 JK Rotterdam, The Netherlands",
NLRTM,,DRN,VAN DOORN DEPOT ROTTERDAM,VAN DOORN DEPOT,"N 51°56'23""","E 004°00'33""",51.939722,4.009167,2019-11-18,2014-10-14,,https://dr-depots.com/,"Malakkastraat 51, Port number 8564, 3199 LK Maasvlakte-Rotterdam, The Netherlands",
NLVLI,,KBV,KLOOSTERBOER VLISSINGEN B.V.,KLOOSTERBOER VLISSINGEN B.V.,"N 51°28'30""","E 003°42'28""",51.475,3.707778,,2018-01-22,,https://www.kloosterboer.com,,
NLVLI,,VZT,VERBRUGGE ZEELAND TERMINALS BV,VERBRUGGE ZEELAND TERMINALS BV,"N 51°27'51""","E 003°41'12""",51.464167,3.686667,,2019-02-27,,https://www.verbrugge.nl,,
NOAES,,SKUTVI,SKUTVIKA TERMINAL,TYRHOLM & FARSTAD AS,"N 62°28'07""","E 006°08'15""",62.468611,6.1375,2020-02-29,2015-03-25,,http://www.alesund.havn.no/en/Webkamera/Skutvika-havneanlegg,,
NOFRK,,OERK,BORG HAVN FREDRIKSTAD-OERA,BORG HAVN IKS,"N 59°10'58""","E 010°57'15""",59.182778,10.954167,2020-02-29,2007-11-10,,https://www.borg-havn.no/gods-fredrikstad/,"Øraveien 27, N-1630 Gamle Fredrikstad, Norway",
NOLAR,,NOLCT,LARVIK CONTAINER TERMINAL,LARVIK CONTAINER TERMINAL AS,"N 59°02'20""","E 010°02'28""",59.038889,10.041111,2020-02-29,2006-01-30,,https://larvik.havn.no/en/,"Revet, 3263 Larvik, Norway",
NOMSS,,MCT,MOSS CONTAINER TERMINAL,MOSS CONTAINER TERMINAL AS,"N 59°25'37""","E 010°39'26""",59.426944,10.657222,2020-02-29,2009-09-28,,https://www.moss-havn.no/en-GB/Portarea/ports,"Strandgaten 10, 1531 Moss, Norway",
NOOSL,,NSF,FILIPSTAD QUAY,NORSTEVE AS,"N 59°54'26""","E 010°42'55""",59.907222,10.715278,2020-02-29,2008-01-16,,http://oslohavn.no/no/meny/tjenester/kart-over-oslo-havn/,,
NOOSL,,SCT,SJURSOYA SOUTH QUAY,YILPORT OSLO A/S,"N 59°53'11""","E 010°45'08""",59.886389,10.752222,2020-02-29,2008-01-16,,https://www.yilport.com/en/ports/default/Oslo-Norway-%7C-Nordic-Terminals/86/0/0,"Sjursøya 9, 0193 Oslo, Norway",
NOTAE,,RIS,WESTPORT TERMINAL RISAVIKA,RISAVIKA TERMINAL AS,"N 58°55'10""","E 005°35'12""",58.919444,5.586667,2020-04-01,2015-03-25,,http://westport.no/,"Kontinentalveien 19, 4056 Tananger, Norway",
NZAKL,,PABW,PORTS OF AUCKLAND BLEDISLOE WHARF,PORTS OF AUCKLAND LIMITED,"S 36°50'30""","E 174°46'21""",-36.841667,174.7725,,2004-05-31,,https://www.poal.co.nz/,"Tinley Street, Auckland 1010, New Zealand","Berths B1,B2,B3"
NZAKL,,PAFW,PORTS OF AUCKLAND FERGUSSON WHARF,PORTS OF AUCKLAND LIMITED,"S 36°50'27""","E 174°47'00""",-36.840833,174.783333,,2004-05-31,,https://www.poal.co.nz/,"Tamaki Street, Auckland 1010, New Zealand","Berths FX,FY,FZ"
NZAKL,,PAGW,PORTS OF AUCKLAND GENERAL WHARF,PORTS OF AUCKLAND LIMITED,"S 36°50'33""","E 174°46'45""",-36.8425,174.779167,,2004-05-31,,https://www.poal.co.nz/,,
NZLYT,,LPC,LYTTELTON PORT COMPANY,LYTTELTON PORT COMPANY LIMITED,"S 43°36'32""","E 172°43'42""",-43.608889,172.728333,,2004-05-31,,http://www.lpc.co.nz/,"Cashin Quay, 2, Lyttelton 8082, New Zealand",
NZNPE,,NPENZ,NAPIER PORT,PORT OF NAPIER LTD.,"S 39°28'31""","E 176°55'01""",-39.475278,176.916944,2020-01-03,2005-08-02,,https://www.napierport.co.nz/,"818 Breakwater Road, Bluff Hill, Napier 4110, New Zealand",
NZNPL,,PTAR,PORT TARANAKI,PORT TARANAKI LTD.,"S 39°03'25""","E 174°02'03""",-39.056944,174.034167,,2014-07-10,,https://www.porttaranaki.co.nz/,"2/8 Bayly Road, Port Taranaki, New Plymouth 4340, New Zealand",
NZNSN,,PNEL,PORT NELSON,PORT NELSON LTD.,"S 41°15'41""","E 173°16'16""",-41.261389,173.271111,,2014-07-10,,http://www.portnelson.co.nz/,"8 Vickerman Street, Port Nelson, Nelson 7040, New Zealand",
NZPOE,,POOT,PORT CHALMERS,PORT OTAGO LTD.,"S 45°48'45""","E 170°37'33""",-45.8125,170.625833,2020-01-03,2014-02-06,,https://www.portotago.co.nz/marine-and-shipping/berth-facilities/,"15 Beach Street, Port Chalmers 9023, New Zealand",
NZTIU,,PTIM,PRIMEPORT TIMARU,PRIMEPORT TIMARU LTD.,"S 44°23'36""","E 171°15'29""",-44.393333,171.258056,2020-12-01,2014-07-10,,https://www.primeport.co.nz/home,"Maritime House, 1 Marine Parade, Timaru 7910, New Zealand","Wharfs 1,1X,2,3. Only for bulk and general cargo."
NZTIU,,TCTL,TIMARU CONTAINER TERMINAL,PORT OF TAURANGA LTD.,"S 44°23'19""","E 171°15'23""",-44.388611,171.256389,,2020-12-01,,http://www.timarucontainerterminal.co.nz/,"North Mole Central, Marine Parade, Timaru 7910, New Zealand","North Mole Wharf, Inner and Outer Berths."
NZTRG,,MMP,MOUNT MAUNGANUI PORT,PORT OF TAURANGA LTD.,"S 37°38'41""","E 176°10'56""",-37.644722,176.182222,2020-01-03,2004-05-31,,http://www.port-tauranga.co.nz/,"2 Salisbury Avenue, Mount Maunganui, Tauranga 3116, New Zealand",
NZTRG,,TRGCT,TAURANGA CONTAINER TERMINAL (SULPHUR POINT),PORT OF TAURANGA LTD.,"S 37°39'45""","E 176°10'29""",-37.6625,176.174722,2020-01-03,2005-08-03,,http://www.port-tauranga.co.nz/,"66 Mirrielees Road, Sulphur Point, Tauranga 3110, New Zealand",
NZWLG,,CPW,CENTREPORT WELLINGTON,CENTREPORT WELLINGTON,"S 41°16'44""","E 174°47'22""",-41.278889,174.789444,,2014-10-27,,https://www.centreport.co.nz/,"1 Hinemoa Street, Harbour Quays, Wellington 6011, New Zealand",
OMSLL,,APMT,APM TERMINALS SALALAH,APM TERMINALS,"N 16°56'29""","E 053°59'43""",16.941389,53.995278,,2018-10-05,,https://www.apmterminals.com/en/salalah,"PO Box 105, Postal Code 118, Muscat, Sultanate of Oman",
OMSOH,,OICT,OMAN INTERNATIONAL CONTAINER TERMINAL,OMAN INTERNATIONAL CONTAINER TERMINAL LLC,"N 24°30'54""","E 056°36'34""",24.515,56.609444,2020-01-03,2015-06-15,,http://www.oict.com.om/index.php,"Sohar Port and Free zone, PO Box 82, Postal Code 327, Sohar, Sultanate of Oman",
PABLB,,PPCBL,PPC CONTAINER TERMINAL BALBOA,HUTCHISON PORTS PPC,"N 08°57'36""","W 079°34'00""",8.96,-79.566667,2020-08-01,2004-05-31,,https://www.ppc.com.pa/,"Arnulfo Arias Madrid Ave., Bldg. 1501, Balboa, Ancon, Republic of Panama",
PACTB,,PCPPC,PPC CONTAINER TERMINAL CRISTOBAL,HUTCHISON PORTS PPC,"N 09°21'15""","W 079°54'32""",9.354167,-79.908889,2020-08-01,2004-05-31,,https://www.ppc.com.pa/,"6 Roosevelt Avenue & Terminal Street, Building #1010, P.O.Box 03420, Cristobal Colon, Republic of Panama",
PAMIT,,MIT,MANZANILLO INTERNATIONAL TERMINAL (MIT),MANZANILLO INTERNATIONAL TERMINAL PANAMA S.A.,"N 09°21'39""","W 079°53'00""",9.360833,-79.883333,2020-08-01,2004-05-31,,https://www.mitpan.com/en/,"Molten Avenue, South Coco Solo, P.O. Box 0302-00239, Colon Free Zone, Colon, Republic of Panama ",
PAONX,,CCT,COLON CONTAINER TERMINAL (CCT),COLON CONTAINER TERMINAL S.A.,"N 09°22'25""","W 079°53'20""",9.373611,-79.888889,,2020-10-01,,http://www.cct-pa.com/,"Randolph Road, Coco Solo North, Colon, Republic of Panama",
PAROD,,PPIT,PSA PANAMA INTERNATIONAL TERMINAL (PPIT),PSA PANAMA INTERNATIONAL TERMINAL S.A.,"N 08°57'29""","W 079°34'32""",8.958056,-79.575556,2020-08-01,2004-05-31,,https://www.psa.com.pa/,"Antigua Base Naval de Rodman, Cocoli, Arraiján, Republic of Panama",
PECLL,,APMCLL,APM TERMINALS CALLAO,APM TERMINALS CALLAO S.A.,"S 12°02'42""","W 077°08'39""",-12.045,-77.144167,2020-01-24,2015-02-23,,https://www.apmterminalscallao.com.pe/default.aspx,"Av. Contralmirante Raygada 111, Callao, Peru ",
PECLL,,DPCLL,DP WORLD CALLAO,DP WORLD CALLAO S.R.L.,"S 12°03'15""","W 077°08'58""",-12.054167,-77.149444,,2004-05-31,,https://www.dpworldcallao.com.pe/servicio/terminal-portuario/,"Av. Manco Cápac 113, Callao, Peru",
PEPAI,,TPE,TERMINALES PORTUARIOS EUROANDINOS (TPE),TERMINALES PORTUARIOS EUROANDINOSPAITA S.A.,"S 05°04'55""","W 081°06'31""",-5.081944,-81.108611,,2004-05-31,,http://puertopaita.com/,"Jr. Ferrocarril 127, Paita 20721, Peru",
PFPPT,,POPA,PORT OF PAPEETE,PORT AUTONOME DU PAPEETE,"S 17°32'14""","W 149°34'34""",-17.537222,-149.576111,,2004-05-31,,,,
PHCEB,,CIP,CEBU INTERNATIONAL PORT,CEBU INTERNATIONAL PORT,"N 10°18'33""","E 123°55'26""",10.309167,123.923889,2020-01-24,2015-06-12,,https://www.cpa.gov.ph/home,,
PHMNL,,MIC,MANILA INTERNATIONAL CONTAINER TERMINAL (MICT),"INTERNATIONAL CONTAINER TERMINAL SERVICES, INC. (ICTSI)","N 14°36'04""","E 120°57'16""",14.601111,120.954444,2020-01-24,2015-06-12,,https://www.mict.com.ph/#/mict-terminal,,
PHMNL,,NHDP,NORTH HARBOR DOMESTIC PORT,PORT OF MANILA,"N 14°36'57""","E 120°57'25""",14.615833,120.956944,2020-01-24,2015-06-12,,http://www.northport.ph/,,
PHMNL,,ATI,SOUTH HARBOR CONTAINER TERMINAL,ASIAN TERMINALS INC.,"N 14°35'11""","E 120°58'01""",14.586389,120.966944,2020-01-24,2005-09-19,,https://www.asianterminals.com.ph/ati_containerterminal.aspx,,
PKBQM,,QICT,QASIM INTERNATIONAL CONTAINER TERMINAL (QICT),QASIM INTERNATIONAL CONTAINER TERMINAL PAKISTAN LTD,"N 24°45'52""","E 067°19'40""",24.764444,67.327778,2020-01-24,2005-09-19,,http://www.dpworldkarachi.com/,,
PKKHI,,KICT,KARACHI INTERNATIONAL CONTAINER TERMINAL (KICT),KARACHI INTERNATIONAL CONTAINER TERMINAL,"N 24°50'09""","E 066°58'31""",24.835833,66.975278,,2004-05-31,,https://www.kictl.com/,,
PKKHI,,PICT,PAKISTAN INTERNATIONAL CONTAINER TERMINAL (PICT),PAKISTAN INTERNATIONAL CONTAINER TERMINAL LIMITED,"N 24°49'32""","E 066°58'30""",24.825556,66.975,,2004-05-31,,,,
PKKHI,,SAPT,SOUTH ASIA PAKISTAN TERMINAL (SAPT),SOUTH ASIA PAKISTAN TERMINAL LTD.,"N 24°48'17""","E 066°59'04""",24.804722,66.984444,,2021-03-01,,https://www.sapt.com.pk/,"No. 1 Container Port Road, Keamari South, Karachi 75620, Pakistan",
PLGDN,,PLGDA,GDANSKI TERMINAL KONTENEROWY (GTK),PORT OF GDANSK CARGO LOGISTICS SA,"N 54°22'55""","E 018°39'12""",54.381944,18.653333,2020-02-29,2006-01-16,,https://www.pge.pl/,"Chodackiego 23, 80-555 Gdansk, Poland",Szczecinskie Quay
PLGDY,,PLBCT,BALTIC CONTAINER TERMINAL GDYNIA (BCT),BALTIC CONTAINER TERMINAL GDYNIA (BCT),"N 54°32'40""","E 018°30'41""",54.544444,18.511389,2020-02-29,2006-01-27,,http://www.bct.gdynia.pl/en/,"Eugeniusza Kwiatkowskiego 60, 81-127 Gdynia, Poland",
PLGDY,,PLGCT,GDYNIA CONTAINER TERMINAL (GCT),GDYNIA CONTAINER TERMINAL S.A. / HUTCHISON,"N 54°32'34""","E 018°30'28""",54.542778,18.507778,2020-02-29,2012-06-01,,https://www.gct.pl/en/,"ul. Energetyków 5 81-184 Gdynia, Poland",
PLSZZ,,DPSZ,SZCZECIN CONTAINER TERMINAL,DB PORT SZCZECIN,"N 53°25'42""","E 014°35'08""",53.428333,14.585556,2020-02-29,2006-01-16,,https://portszczecin.deutschebahn.com/dbportszczecin-en/container_terminal,,
PRSJU,,LACS,LUIS AYALA COLON,"LUIS AYALA COLON SUCRS., INC.","N 18°26'06""","W 066°05'35""",18.435,-66.093056,,2016-05-19,,http://www.ayacol.com/,,
PTCNL,,CSP,"CANICAL PORT, MADEIRA","ADMINISTRACAO DOS PORTOS DA REGIAO AUTONOMA DA MADEIRA, SA","N 32°44'12""","W 016°44'00""",32.736667,-16.733333,2020-02-29,2005-10-17,,http://www.apram.pt/site/index.php/en/ports/caracteristicas/port-of-canical,,
PTFDF,,LISC,FIGUEIRA DA FOZ TERMINAL,YIPLORT HOLDING INC.,"N 40°08'49""","W 008°50'51""",40.146944,-8.8475,2020-02-29,2004-05-17,,https://www.yilport.com/en/ports/default/Figueira-Da-Foz-Portugal/112/0/0,,
PTFNC,,APRAM,"FUNCHAL PORT, MADEIRA","ADMINISTRACAO DOS PORTOS DA REGIAO AUTONOMA DA MADEIRA, SA","N 32°38'31""","W 016°54'32""",32.641944,-16.908889,2020-02-29,2004-05-17,,http://www.apram.pt/site/index.php/en/ports/caracteristicas/port-of-funchal,"Gare Marítima do Porto do Funchal, 9004-518 Funchal, Portugal","Not a commercial port, is mainly for cruise ships. But has one RORO pier."
PTLEI,,TCLA,LEIXOES CONTAINER TERMINAL,"TERMINAL DE CONTENTORES DE LEIXOES, SA / YILPORT HOLDING INC.","N 41°11'19""","W 008°41'41""",41.188611,-8.694722,2020-02-29,2009-12-08,,http://www.tcl-leixoes.pt/pt/terminais/,"Rua Mouzinho de Albuquerque 13, 4450-204 Matosinhos, Portugal","North terminal at N41°11'07"" W008°42'04"", south terminal at N41°11'36"" W008°41'06""."
PTLIS,,TMB,BEATO MULTIPURPOSE TERMINAL (TMB),TERMINAL MULTIUSOS DO BEATO (TMB),"N 38°43'53""","W 009°06'15""",38.731389,-9.104167,2020-02-29,2004-05-17,,http://www.tmb.pt/?lang=en,"Rua Cintura do Porto de Lisboa, Armazém 20 - 2º Piso, 1950-015 Lisbon, Portugal",
PTLIS,,OLIS,LISBON MULTIPURPOSE TERMINAL (TML),"OPERLIS, SA","N 38°43'15""","W 009°06'49""",38.720833,-9.113611,2020-02-29,2004-05-17,,https://www.terminal-tsa.pt/,"Terminal Multipurpose de Lisboa, Rua da Cintura do Porto, nº 10, 1900-264 Lisbon, Portugal",
PTLIS,,LISC,LISCONT CONTAINER TERMINAL,YILPORT HOLDING INC.,"N 38°41'57""","W 009°10'07""",38.699167,-9.168611,2020-02-29,2004-05-17,,http://www1.eurogate.de/en/EUROGATE/Terminals/Lisbon,"Terminal de Contentores de Alcantara Sul, 1399-002 Lisbon, Portugal","Also known as ""ALCANTARA CONTAINER TERMINAL (TCA)""."
PTLIS,,SOTA,SANTA APOLONIA CONTAINER TERMINAL (TCSA),"SOTAGUS, SA","N 38°43'33""","W 009°06'25""",38.725833,-9.106944,2020-02-29,2004-05-17,,https://www.yilport.com/en/ports/default/Sotagus-Portugal/113/0/0,,
PTPXO,,APRAM,PORTO SANTO PORT,"ADMINISTRACAO DOS PORTOS DA REGIAO AUTONOMA DA MADEIRA, SA","N 33°03'31""","W 016°18'44""",33.058611,-16.312222,2020-02-29,2004-05-17,,http://www.apram.pt/site/index.php/en/ports/caracteristicas/port-of-porto-santo,,
PTSET,,APSS,MULTI PURPOSE TERMINAL 1 - TERSADO,ADMINISTRACAO DOS PORTOS DE SETUBAL E SESIMBRA,"N 38°31'08""","W 008°52'49""",38.518889,-8.880278,2020-02-29,2004-05-17,,https://www.portodesetubal.pt/Ingles/ingles_port_terminals.htm,,
PTSET,,SADOP,MULTI PURPOSE TERMINAL 2 - SADOPORT,SADOPORT - TERMINAL MARITIMO DO SADO S.A.,"N 38°30'50""","W 008°52'19""",38.513889,-8.871944,2020-02-29,2010-11-23,,https://www.portodesetubal.pt/Ingles/ingles_port_terminals.htm,"Terminal Multiusos Porto Setubal Zona 2, Setubal, 2910-793 Setubal, Portugal",
PTSIE,,SCT,SINES CONTAINER TERMINAL,SINES CONTAINER TERMINAL,"N 37°55'59""","W 008°50'48""",37.933056,-8.846667,2020-02-29,2004-05-17,,https://www.portodesines.pt/en/,"Administracao dos Portos de Sines e do Algarve, SA Apartado 16, EC Sines, 7521-953 Sines, Portugal",
PYASU,PYBCM,CCPMI,PUERTO CAACUPE-MI ASUNCION,SAN FRANCISCO S.A.,"S 25°13'33""","W 057°34'20""",-25.225833,-57.572222,2019-11-18,2017-04-27,,https://www.caa.com.py,"Av. Fernando Leri Reinhold y Hermann Gmeiner, Zeballos Cué Asunción, Paraguay",
PYASU,PYFNX,PFNX,PUERTO FENIX,PUERTO Y ESTIBAJES S.A.,"S 25°13'25""","W 057°34'09""",-25.223611,-57.569167,2020-01-03,2017-04-27,,https://www.puertofenix.com.py,,
PYASU,,PSJ,PUERTO SAN JOSE (EMPEDRIL S.A.),CONCRET-MIX S.A.,"S 25°13'20""","W 057°34'00""",-25.222222,-57.566667,2020-01-03,2017-04-27,,http://www.puertosanjose.com.py,,
PYPIL,,CAP,PUERTO CAACUPE-MI PILAR,CAACUPE-MI,"S 26°52'20""","W 058°19'43""",-26.872222,-58.328611,2020-01-03,2019-11-18,,https://www.caa.com.py/puertos/pilar/,"José de Dalinquist, Bado Ñu, Pilar, Ñeembucu, Paraguay",
PYSAN,PYTER,TERSAN,TERPORT SAN ANTONIO,TERMINALES PORTUARIAS S.A (TERPORT),"S 25°26'40""","W 057°32'57""",-25.444444,-57.549167,2020-01-03,2017-04-27,,http://www.terport.com.py,,
PYVLL,,ANNP,ANNP TERMINAL PORTUARIA VILLETA,ADMINISTRACION NACIONAL DE NAVEGACION Y PUERTOS,"S 25°30'29""","W 057°34'32""",-25.508056,-57.575556,2020-01-03,2019-11-18,,http://www.annp.gov.py,"14 de Mayo, Villeta, Paraguay",
PYVLL,,PSF,PUERTO SEGURO FLUVIAL,PUERTO SEGURO,"S 25°32'52""","W 057°33'55""",-25.547778,-57.565278,2020-01-03,2016-01-12,,https://puertosegurofluvial.com/,"Ruta Villeta, Alberdi Km. 4.5, Villeta, Paraguay",
PYVLL,,TERVIL,TERPORT VILLETA,TERMINALES PORTUARIAS S.A (TERPORT),"S 25°36'42""","W 057°36'32""",-25.611667,-57.608889,2020-01-03,2017-04-27,,http://www.terport.com.py,"Ruta Villeta, Alberdi Km. 13.5, Villeta, Paraguay",
QAHMD,,HCT,HAMAD CONTAINER TERMINAL (HCT),MWANI QATAR,"N 25°02'22""","E 051°36'02""",25.039444,51.600556,,2018-05-25,,https://www.mwani.com.qa/English/Pages/default.aspx,,
QAUMS,,CT7,MESAIEED CONTAINER TERMINAL,QATAR PETROLEUM,"N 24°56'39""","E 051°35'10""",24.944167,51.586111,,2021-03-01,,https://www.mesaieedport.qp.qa,"Mesaieed Port, Container Terminal 7, Berth 7A & 7B","Terminal 7, Berths 7A,7B"
RELPT,,SAMR2,S.A.M.R. (SOCIETE D'ACCONAGE ET DE MANUTENTION DE LA REUNION),CMA CGM / BOLLORE (SAMR / SGM / SOMACOM),"S 20°55'54""","E 055°18'56""",-20.931539,55.31545,2020-09-01,2018-10-15,,https://reunion.port.fr/,,"Berths 10,11"
ROCND,,CSCT,CONSTANTA SOUTH CONTAINER TERMINAL (CSCT),DP WORLD CONSTANTA,"N 44°06'12""","E 028°39'36""",44.103333,28.66,2019-12-17,2015-06-12,,http://www.csct.ro/,,Berth 121
ROCND,,SOCEP,SOCEP CONTAINER TERMINAL,SOCEP S.A. CONTAINER TERMINAL,"N 44°09'05""","E 028°38'44""",44.151389,28.645556,2020-01-24,2015-06-12,,http://www.socep.ro/en/containers-terminal.htm,,"Berth 51,52"
RULED,,CTSP,CONTAINER TERMINAL SAINT-PETERSBURG (CTSP),CONTAINER TERMINAL SAINT-PETERSBURG (CTSP),"N 59°52'22""","E 030°11'56""",59.872778,30.198889,2020-01-03,2014-11-10,,http://www.terminalspb.ru/en/,"22, Elevatornaya ploschadka, Ugolnaya gavan, Saint-Petersburg, Russia, 198096",
RULED,,FCT,FIRST CONTAINER TERMINAL (FCT),FIRST CONTAINER TERMINAL,"N 59°52'52""","E 030°11'59""",59.881111,30.199722,2020-01-03,2003-12-03,,http://www.globalports.com/globalports/about-us/operating-segments/russian-ports,"5, Mezhevoy canal, 3rd district, Saint-Petersburg, Russia, 198035",Berths 82-87
RULED,,MOD,"MOBY DIK TERMINAL, KRONSHTADT",MOBY DIK CO. LTD.,"N 60°00'05""","E 029°42'26""",60.001389,29.707222,2020-01-03,2008-01-16,,http://www.globalports.com/globalports/about-us/operating-segments/russian-ports,"Sea Port Complex, Kronshtadt, Saint-Petersburg, Russia, 197760",
RULED,,BRONKA,MSCC PORT BRONKA,MULTIPURPOSE SEA CARGO COMPLEX (MSCC) BRONKA,"N 59°56'13""","E 029°41'43""",59.936944,29.695278,2020-01-03,2015-12-29,,https://port-bronka.ru/en/,"49, Krasnoflotskoe highway, Lomonosov, Saint-Petersburg, Russia, 198412",
RULED,,NVM,NEVA METAL TERMINAL (NMT),NEVA METAL,"N 59°53'06""","E 030°12'12""",59.885,30.203333,2020-01-03,2015-07-01,,http://nevametal.com/eng,,Berths 71-74
RULED,,PLP,PETROLESPORT TERMINAL,PETROLESPORT,"N 59°53'28""","E 030°13'32""",59.891111,30.225556,2020-01-03,2004-10-12,,http://www.globalports.com/globalports/about-us/operating-segments/russian-ports,"1, Gladky Island, Saint-Petersburg, Russia, 198095","Berths 42,43,46-48,56-58,60-64"
RULED,,SFP,SEA FISHING PORT TERMINAL,SEA FISHING PORT,"N 59°52'09""","E 030°12'46""",59.869167,30.212778,2020-01-03,2014-11-10,,http://www.seafishport.ru/,"Elevator area, building 10, St. Petersburg, Russia, 198096",Berths R1-R6
RUNVS,,NUTEP,NUTEP CONTAINER TERMINAL,DELOPORTS,"N 44°43'18""","E 037°48'58""",44.721667,37.816111,2020-02-29,2020-02-29,,http://www.nutep.ru/en/,"Sukhumskoe shosse 17A, Novorossiysk, Russia, 353902",
RUULU,,ULCT,UST-LUGA CONTAINER TERMINAL (ULCT),GLOBAL PORTS,"N 59°40'27""","E 028°24'21""",59.674167,28.405833,2020-01-03,2014-11-10,,http://www.globalports.com/globalports/about-us/operating-segments/russian-ports,,
RUVVO,,PLCT,PACIFIC LOGISTIC CONTAINER TERMINAL,PACIFIC LOGISTIC LLC,"N 43°06'20""","E 131°55'58""",43.105556,131.932778,,2020-06-08,,http://www.pacific-logistic.ru/en,"Dalzavodskaya Ulitsa, 2, korpus 14, Vladivostok, Primorsky Krai, Russia, 690001",Terminal commonly referred to as SOLLERS TERMINAL.
RUVVO,,VCT,VLADIVOSTOK CONTAINER TERMINAL (VCT),COMMERCIAL PORT OF VLADIVOSTOK PJSC,"N 43°05'25""","E 131°52'05""",43.090278,131.868056,,2020-06-08,,https://vmtp.ru/en/,"Strelnikova Ulitsa, 9, Vladivostok, Primorsky Krai, Russia, 690065","Berths 14,15,16. Company name in Russian: Vladivostokskiy Morskoy Torgovyy Port (VMTP)."
RUVVO,,VSCT,VLADIVOSTOK SEA CONTAINER TERMINAL (VSCT),VLADIVOSTOK SEA CONTAINER TERMINAL LLC,"N 43°05'36""","E 131°52'52""",43.093333,131.881111,,2021-03-01,,https://www.vsct.info/,"Berezovaya Ulitsa, 25, Vladivostok, Primorsky Krai, Russia, 690012","Berths 50,51,52,53. Terminal commonly referred to as VLADIVOSTOK SEA FISHING PORT."
RUVYP,,VSC,VOSTOCHNAYA STEVEDORING COMPANY (VSC),GLOBAL PORTS,"N 42°44'06""","E 133°04'46""",42.735,133.079444,,2020-06-08,,http://www.vscport.ru/en-us/,"Nakhodka, Primorsky Krai, Russia, 692943",
SADMM,,FCT,DAMMAM FIRST CONTAINER TERMINAL (FCT),SAUDI GLOBAL PORTS CO. (SGPC),"N 26°30'18""","E 050°11'49""",26.505,50.196944,,2020-12-01,,https://saudiglobalports.com.sa/,"Port Gate Complex, Office No.9-2nd floor, Port Road, Al Khadlidiah, Dammam, Kingdom of Saudi Arabia",King Abdul Aziz port in Dammam.
SADMM,,SCT,DAMMAM SECOND CONTAINER TERMINAL (SCT),SAUDI GLOBAL PORTS CO. (SGPC),"N 26°30'24""","E 050°11'30""",26.506667,50.191667,,2020-12-01,,https://saudiglobalports.com.sa/,"Port Gate Complex, Office No.9-2nd floor, Port Road, Al Khadlidiah, Dammam, Kingdom of Saudi Arabia",King Abdul Aziz port in Dammam.
SAJED,,DPW,DP WORLD SOUTH CONTAINER TERMINAL JEDDAH (SCT),DP WORLD JEDDAH,"N 21°27'17""","E 039°09'30""",21.454722,39.158333,2020-02-29,2015-03-25,,https://www.dpworld.com/what-we-do/our-locations/Middle-East-Africa/Saudi-Arabia/arabia-jeddah,,
SAJED,,GCT,NORTHERN CONTAINER TERMINAL JEDDAH,GULFTAINER SAUDI ARABIA,"N 21°28'45""","E 039°09'28""",21.479167,39.157778,2020-02-29,2015-03-25,,,,
SAJED,,RSGT,RED SEA GATEWAY TERMINAL,RED SEA GATEWAY TERMINAL,"N 21°29'04""","E 039°09'17""",21.484444,39.154722,2020-02-29,2015-03-25,,http://rsgt.com/,,
SAJUB,,GSC,JUBAIL COMMERCIAL PORT,GULFTAINER SAUDI ARABIA,"N 27°01'39""","E 049°40'58""",27.0275,49.682778,2020-02-29,2015-09-21,,,,
SAKAC,,KACT,KING ABDULLAH NATIONAL CONTAINER TERMINAL (NCT),KING ABDULLAH PORT,"N 22°31'34""","E 039°05'33""",22.526111,39.0925,2020-02-29,2017-01-17,,https://www.kingabdullahport.com.sa/,,
SDPZU,,SPC,SOUTH PORT CONTAINER TERMINAL,SEA PORT CORPORATION,"N 19°36'13""","E 037°13'55""",19.603611,37.231944,,2019-01-17,,http://sudanports.gov.sd/web/en/,,
SEAHU,,AHU,AHUS CONTAINER TERMINAL,AHUS HAMN STUVERI AB,"N 55°55'41""","E 014°19'28""",55.928056,14.324444,2020-02-29,2015-02-10,,https://www.ahushamn.se/en/index_en/,,
SEGOT,,CT1,APM TERMINALS GOTHENBURG,APM TERMINALS GOTHENBURG,"N 57°41'19""","E 011°51'22""",57.688611,11.856111,2020-02-29,2018-10-25,,https://www.apmterminals.com/gothenburg,,
SEGOT,,CAR,CAR TERMINAL GOTHENBURG,LOGENT PORTS & TERMINALS AB,"N 57°41'29""","E 011°52'02""",57.691389,11.867222,2020-05-01,2004-12-14,,https://logent.se/index.php/ports-terminals/,"Port 2, Sydatlanten 30, 418 34 Göteborg, Sweden",
SEGOT,,RTG,RORO TERMINAL GOTHENBURG,DFDS A/S,"N 57°41'26""","E 011°50'09""",57.690556,11.835833,2020-05-01,2004-12-14,,https://www.dfds.com/en/freight-shipping/terminal-services/gothenburg-terminal,"Ytterhamnsvägen 1, 418 34 Göteborg, Sweden",
SEGVX,,GVXFS,YILPORT CONTAINER TERMINAL GAVLE,YILPORT GAVLE CONTAINERTERMINAL AB,"N 60°41'34""","E 017°13'22""",60.692778,17.222778,2018-09-18,2007-10-31,,https://www.yilport.com,"Fredriksskansvägen 64, 805 95 Gävle, Sweden",
SEGVX,,GVXGU,YILPORT TERMINAL GRANUDDEN,YILPORT GAVLE AB,"N 60°41'23""","E 017°14'13""",60.689722,17.236944,2018-09-18,2007-10-31,,https://www.yilport.com,"Granuddsvägen 12, 804 23 Gävle, Sweden",
SEHAD,,KTH,KATTEGAT TERMINAL HALMSTAD,HALLANDS HAMNAR AB,"N 56°39'05""","E 012°51'01""",56.651389,12.850278,2020-04-01,2008-01-16,,https://www.hallandshamnar.se/,"Sibiriegatan 2, 302 50 Halmstad, Sweden",
SEHEL,,SKT,SKANE TERMINAL,HELSINGBORGS HAMN AB,"N 56°01'14""","E 012°42'10""",56.020556,12.702778,2020-02-29,2006-02-27,,http://www.port.helsingborg.se/,"Oljehamnsleden 60, 252 25 Helsingborg, Sweden",
SEHEL,,VESTHA,WEST HARBOUR,HELSINGBORGS HAMN AB,"N 56°01'50""","E 012°41'35""",56.030556,12.693056,2020-02-29,2015-06-12,,http://www.port.helsingborg.se/,"Oljehamnsleden 60, 252 25 Helsingborg, Sweden",
SEKPS,,RTK,RORO TERMINAL KAPELLSKAR,PORTS OF STOCKHOLM,"N 59°43'17""","E 019°03'55""",59.721389,19.065278,2020-04-01,2006-03-09,,https://www.portsofstockholm.com/kapellskar/,"Hamnterminalen, 760 15 Graddo, Sweden",
SEMMA,,CMPSE,CMP CONTAINER TERMINAL MALMO,COPENHAGEN MALMO PORT (CMP) NORRA HAMNEN AB,"N 55°37'29""","E 012°59'36""",55.624722,12.993333,2020-02-29,2006-05-11,,https://www.cmport.com/terminals/malmo/,"Terminalgatan 18, 201 25 Malmö, Sweden",
SENRK,,SEPCT,PAMPUS CONTAINER TERMINAL,PORT OF NORRKOPING,"N 58°37'23""","E 016°14'36""",58.623056,16.243333,2020-02-29,2016-09-28,,https://www.norrkopingshamn.se/en/trafik-tjanster/terminalinfo_och_hamnkarta/pampusterminalen,"Oceangatan 9, 602 38 Norrköping, Sweden",
SENYN,,RTN,RORO TERMINAL NYNASHAMN,PORT OF NYNASHAMN,"N 58°54'25""","E 017°57'24""",58.906944,17.956667,2020-04-01,2006-03-09,,https://www.portsofstockholm.com/nynashamn/,"Skytten Hälls väg 10, 149 30 Nynäshamn, Sweden",
SESTO,,CTS,CONTAINER TERMINAL FRIHAMNEN,PORTS OF STOCKHOLM,"N 59°20'33""","E 018°07'32""",59.3425,18.125556,2020-04-01,2006-03-09,,https://hutchisonports.com/en/ports/world/container-terminal-frihamnen-ctf/,"Lindarängsvägen 91, 115 27 Stockholm, Sweden",Will close down in May 2020.
SESTO,,NCS,CONTAINER TERMINAL STOCKHOLM-NORVIK,HUTCHISON PORTS STOCKHOLM,"N 58°56'08""","E 017°58'48""",58.935556,17.98,2020-04-01,2020-05-02,,https://www.portsofstockholm.com/stockholm-norvik/container-terminal/,"Norvikvägen 18, 149 45 Nynäshamn, Sweden",
SESTO,,RTF,RORO TERMINAL FRIHAMNEN,PORTS OF STOCKHOLM,"N 59°20'43""","E 018°07'30""",59.345278,18.125,2020-04-01,2006-03-09,,https://www.portsofstockholm.com/stockholm/port-areas/frihamnen/,"Frihamnsgatan 21, 102 54 Stockholm, Sweden",
SESTO,,RTS,RORO TERMINAL SILJA (VARTAHAMNEN),PORTS OF STOCKHOLM,"N 59°21'05""","E 018°06'51""",59.3515,18.114056,2020-04-01,2006-03-09,,https://www.portsofstockholm.com/stockholm/port-areas/vartahamnen/,"Hamnpirsvägen 10, 115 41 Stockholm, Sweden",
SESTO,,NRS,RORO TERMINAL STOCKHOLM-NORVIK,PORTS OF STOCKHOLM,"N 58°56'24""","E 017°58'44""",58.940056,17.978806,2020-04-01,2020-09-09,,https://www.portsofstockholm.com/stockholm-norvik/roro-terminal/,"Norvikvägen 18, 149 45 Nynäshamn, Sweden",
SESTO,,RTV,RORO TERMINAL VIKING (STADSGARDEN),PORTS OF STOCKHOLM,"N 59°19'00""","E 018°05'44""",59.316778,18.095583,2020-04-01,2006-03-09,,https://www.portsofstockholm.com/stockholm/port-areas/stadsgarden--masthamnen/,"Terminalen Stadsgården, 116 30 Stockholm, Sweden",
SEVST,,VSTCT,VASTERAS CONTAINER TERMINAL,MALARHAMNAR AB,"N 59°35'26""","E 016°31'15""",59.590556,16.520833,,2020-10-01,,https://www.malarhamnar.se/startsidan/english/,"Södra Seglargatan 3, 721 32 Västerås, Sweden",
SGSIN,,PSABT,BRANI TERMINAL,PSA CORPORATION LIMITED,"N 01°15'47""","E 103°49'53""",1.263056,103.831389,2019-12-13,2015-06-12,,https://www.singaporepsa.com/our-business/terminals,,
SGSIN,,PSAKT,KEPPEL TERMINAL,PSA CORPORATION LIMITED,"N 01°16'08""","E 103°50'09""",1.268889,103.835833,2019-12-13,2015-06-12,,https://www.singaporepsa.com/our-business/terminals,,
SGSIN,,PSAPP1,PASIR PANJANG TERMINAL 1,PSA CORPORATION LIMITED,"N 01°17'10""","E 103°46'09""",1.286111,103.769167,2020-04-01,2020-04-01,,https://www.singaporepsa.com/our-business/terminals,,
SGSIN,,PSAPP2,PASIR PANJANG TERMINAL 2,PSA CORPORATION LIMITED,"N 01°16'48""","E 103°45'53""",1.28,103.764722,2020-04-01,2020-04-01,,https://www.singaporepsa.com/our-business/terminals,,
SGSIN,,PSAPP3,PASIR PANJANG TERMINAL 3,PSA CORPORATION LIMITED,"N 01°16'29""","E 103°45'41""",1.274722,103.761389,2020-04-01,2020-04-01,,https://www.singaporepsa.com/our-business/terminals,,
SGSIN,,PSAPP4,PASIR PANJANG TERMINAL 4,PSA CORPORATION LIMITED,"N 01°16'33""","E 103°46'56""",1.275833,103.782222,2020-04-01,2020-04-01,,https://www.singaporepsa.com/our-business/terminals,,
SGSIN,,PSAPP5,PASIR PANJANG TERMINAL 5,PSA CORPORATION LIMITED,"N 01°16'00""","E 103°47'16""",1.266667,103.787778,2020-04-01,2020-04-01,,https://www.singaporepsa.com/our-business/terminals,,
SGSIN,,PSAPP6,PASIR PANJANG TERMINAL 6,PSA CORPORATION LIMITED,"N 01°15'35""","E 103°47'01""",1.259722,103.783611,2020-04-01,2020-04-01,,https://www.singaporepsa.com/our-business/terminals,,
SGSIN,,PSASW,SEMBAWANG WHARVES,PSA CORPORATION LIMITED,"N 01°27'36""","E 103°49'57""",1.46,103.8325,2019-12-13,2016-03-01,,https://www.singaporepsa.com/our-business/terminals,,
SGSIN,,PSATPT,TANJONG PAGAR TERMINAL I,PSA CORPORATION LIMITED,"N 01°16'02""","E 103°50'57""",1.267222,103.849167,2019-12-13,2015-06-12,,https://www.singaporepsa.com/our-business/terminals,,
SIKOP,,LUKA,PORT OF KOPER,LUKA KOPER D.D.,"N 45°33'13""","E 013°44'05""",45.553611,13.734722,2020-10-01,2015-09-22,,https://www.luka-kp.si/eng/,"Vojkovo nabreje 38, 6501 Koper, Slovenia",
SNDKR,,DPWSN,PORT AUTONOME DE DAKAR,PORT AUTONOME DE DAKAR,"N 14°41'14""","W 017°25'37""",14.687222,-17.426944,2019-12-13,2015-09-22,,,,
SRPBM,,PBM01,PARAMARIBO NIEUWE HAVEN,DP WORLD PARAMARIBO,"N 05°52'50""","W 055°12'52""",5.880556,-55.214444,,2016-10-15,,http://www.integraportservices.com,,
SVAQJ,,PUACA,PUERTO ACAJUTLA,COMISION EJECUTIVA PORTUARIA AUTONOM A (CEPA),"N 13°34'29""","W 089°50'16""",13.574722,-89.837778,,2004-05-31,,,,
SVLUN,,PULUN,PUERTO LA UNION,COMISION EJECUTIVA PORTUARIA AUTONOM A (CEPA),"N 13°20'05""","W 087°49'13""",13.334722,-87.820278,,2004-05-31,,,,
SYLTK,,LICT,LATTAKIA INTERNATIONAL CONTAINER TERMINAL (LICT),"LATTAKIA INTERNATIONAL CONTAINER TERMINAL, LLC (LICT)","N 35°31'39""","E 035°46'06""",35.5275,35.768333,,2004-05-31,,http://www.lict.sy/index.php?lang=2,,
SYTTS,,TICT,TARTOUS INTERNATIONAL CONTAINER TERMINAL,TARTOUS INTERNATIONAL CONTAINER TERMINAL JSC - TICT,"N 34°54'28""","E 035°51'59""",34.907778,35.866389,,2004-05-31,,,,
THBKK,,PAT,"BANGKOK PORT, KHLONG TOEI (PAT)",PORT AUTHORITY OF THAILAND,"N 13°42'13""","E 100°34'33""",13.703611,100.575833,2020-02-29,2004-05-31,,,,
THLCH,,ESCO,"EASTERN SEA LAEM CHABANG TERMINAL (ESCO), B3","EASTERN SEA LAEM CHABANG TERMINAL CO., LTD","N 13°03'49""","E 100°53'29""",13.063611,100.891389,2020-02-29,2004-05-31,,https://www.esco.co.th/terminal.php,,
THLCH,,LCHB2,"EVERGREEN CONTAINER TERMINAL, B2",EVERGREEN CONTAINER TERMINAL,"N 13°03'54""","E 100°53'38""",13.065,100.893889,2020-02-29,2004-05-31,,http://www.ectt.co.th/terminal.php,,
THLCH,,HLTA3,HUTCHISON LAEM CHABANG TERMINAL A3,HUTCHISON LAEMCHABANG TERMINAL LTD.,"N 13°04'00""","E 100°53'18""",13.066667,100.888333,,2020-06-08,,https://hutchisonports.co.th/facilities/,"88 Moo 3, Tungsukhla, Sriracha, Chonburi 20230, Thailand",
THLCH,,HLTC12,HUTCHISON LAEM CHABANG TERMINAL C1/C2,HUTCHISON LAEMCHABANG TERMINAL LTD.,"N 13°03'18""","E 100°53'56""",13.055,100.898889,,2020-06-08,,https://hutchisonports.co.th/facilities/,"88 Moo 3, Tungsukhla, Sriracha, Chonburi 20230, Thailand",
THLCH,,HLTD,HUTCHISON LAEM CHABANG TERMINAL D,HUTCHISON LAEMCHABANG TERMINAL LTD.,"N 13°02'57""","E 100°53'53""",13.049167,100.898056,,2020-06-08,,https://hutchisonports.co.th/facilities/,"88 Moo 3, Tungsukhla, Sriracha, Chonburi 20230, Thailand","Terminal D comprises D1, D2 and D3. As of 2020, D3 is not operational yet."
THLCH,,KSP,KERRY SIAM SEAPORT,KERRY SIAM SEAPORT,"N 13°08'11""","E 100°52'37""",13.136389,100.876944,2020-04-01,2019-09-13,,https://www.kerrylogistics.com,"113/1 Moo 1, Tungsukhla, Sriracha, Chonburi 20230, Thailand",
THLCH,,LCIT,"LAEM CHABANG INTERNATIONAL TERMINAL (LCIT), B5/C3","LAEM CHABANG INTERNATIONAL TERMINAL CO., LTD.","N 13°03'10""","E 100°53'28""",13.052778,100.891111,2020-02-29,2005-09-19,,http://www.lcit.com/,"Tungsukhla, Sriracha, Chonburi 20231, Thailand","Terminal C3: N 13°03'10"" E 100°53'28"". Terminal B5: N 13°03'39"" E 100°53'11""."
THLCH,,LCHA0,"LAEM CHABANG MARINE TERMINAL (LCMT), A0",LCMT COMPANY LTD.,"N 13°04'13""","E 100°53'54""",13.070278,100.898333,2020-02-29,2004-05-31,,http://www.lcb1.com,,
THLCH,,LCHB1,"LCB CONTAINER TERMINAL 1 (LCB1), B1",LCB CONTAINER TERMINAL 1 LTD.,"N 13°04'01""","E 100°53'49""",13.066944,100.896944,2020-02-29,2019-09-13,,http://www.lcb1.com,,
THLCH,,TLTA2,THAI LAEM CHABANG TERMINAL (TLT) A2,"THAI LAEMCHABANG TERMINAL CO., LTD.","N 13°04'06""","E 100°53'29""",13.068333,100.891389,,2020-06-08,,https://hutchisonports.com/en/ports/world/thai-laemchabang-terminal-tlt/,"88 Moo 3, Tungsukhla, Sriracha, Chonburi 20230, Thailand",
THLCH,,TIPS4,"TIPS CONTAINER TERMINAL, B4","TIPS CO., LTD.","N 13°03'46""","E 100°53'24""",13.062778,100.89,2020-02-29,2014-11-06,,http://www.tips.co.th,,
THSCS,,SHT,SAHATHAI TERMNAL,SAHAHTHAI TERMINAL PUBLIC COMPANY LTD,"N 13°39'30""","E 100°32'38""",13.658333,100.543889,,2019-07-05,,https://www.sahathaiterminal.com,,
TNTUN,,RAPO,RADES PORT,RADES PORT,"N 36°48'15""","E 010°15'55""",36.804167,10.265278,,2004-05-31,,,,
TRALI,,NEMPOR,NEMPORT TERMINAL,NEMPORT LIMAN ISLETMELERI VE OZEL ANTREPO NAKLIYE TICARET A.S.,"N 38°46'02""","E 026°55'57""",38.767222,26.9325,2020-02-29,2015-06-12,,https://www.nemport.com.tr/en/,"Siteler, Nemrut Körfezi, Petrol Ofisi Cd. No: 12, 35800 Aliaga/Izmir, Turkey",
TRALI,,APMALI,SOCAR ALIAGA TERMINAL,SOCAR ALIAGA LIMAN ISLETMECILIGI A.S.,"N 38°46'42""","E 026°55'55""",38.778333,26.931944,2020-02-29,2018-02-20,,http://www.socarterminal.com/en/homepage,,"Now SOCAR Aliaga Terminal, all APMT shares were acquired by SOCAR Aliaga on 2018-12-27."
TRALI,,TCEEG,TCEEGE CONTAINER TERMINAL,TCEEGE KONTEYNER TERMINAL ISLETMELERI A.S.,"N 38°45'29""","E 026°55'43""",38.758056,26.928611,2020-02-29,2004-05-31,,http://www.tceege.com.tr/en/default.aspx,"25. Cadde No:2 Cakmakli, 35801 Aliaga/Izmir, Turkey",
TRGEB,,YGCT,YILPORT CONTAINER TERMINAL GEBZE,YILPORT HOLDING INC.,"N 40°45'58""","E 029°32'10""",40.766111,29.536111,2020-02-29,2018-02-20,,https://www.yilport.com/en/ports/default/Gebze-%7C-Turkey-Terminals/30/0/0,"Fatih, Göksu Caddesi, Dilovasi O.S.B., 1. Kisim No:18, 41455 Dilovasi/Kocaeli, Turkey",
TRGEM,,BORU,BORUSAN PORT GEMLIK,BORUSAN LOJISTIK DAGITIM DEPOLAMA TASIMACILIK VE TICARET AS,"N 40°24'54""","E 029°05'05""",40.415,29.084722,2020-02-29,2004-05-31,,https://www.borusanport.com/en,,
TRGEM,,RODA,RODA PORT GEMLIK,RODA LIMAN DEPOLAMA VE LOJISTIK ISLETMELERI AS,"N 40°24'50""","E 029°04'43""",40.413889,29.078611,2020-02-29,2015-06-12,,http://rodaport.com/index.php,,
TRGEM,,GEMPOR,YILPORT TERMINAL GEMLIK (GEMPORT),GEMPORT CONTAINER TERMINAL,"N 40°25'04""","E 029°06'53""",40.417778,29.114722,2020-02-29,2015-06-12,,https://www.yilport.com/en/ports/detail/Gemport-%7C-Terminal-Layouts/76/51/0,,
TRISK,,LIMAK,LIMAKPORT ISKENDERUN,LIMAKPORT ISKENDERUN LIMAN ISL.,"N 36°35'42""","E 036°11'25""",36.595,36.190278,2020-02-29,2015-06-12,,http://www.limakports.com.tr/en,"5 Temmuz Caddesi Sonu, 31200 Iskenderun, Turkey",
TRIST,TRKMX,KUMLI,KUMPORT TERMINAL,KUMPORT LIMAN HIZMETLERI VE LOJISTIK SANAYI VE TICARET A.S.,"N 40°58'03""","E 028°40'54""",40.9675,28.681667,2020-02-29,2004-05-31,,http://www.kumport.com.tr/en-US,"Marmara Mahallesi Liman Cad. No:43 34524 Beylikdüzü/Istanbul, Turkey",
TRIST,TRMAD,MRD,"MARDAS TERMINAL, AMBARLI PORT",MARDAS MARMARA DENIZ ISLETMECILIGI A.S.,"N 40°57'47""","E 028°40'34""",40.963056,28.676111,2020-02-29,2015-06-12,,http://www.mardas.com.tr/en-US/HomePage,"Ambarli Liman Tesisleri Mardas Iskelesi, 34524 Beylikdüzü/Istanbul, Turkey",
TRIST,TRMPT,MRP,MARPORT TERMINAL,MARPORT LIMAN ISLETMELERI SANAYI VE TICARET A.S.,"N 40°57'43""","E 028°40'25""",40.961944,28.673611,2020-02-29,2015-06-12,,http://www.marport.com.tr/en/terminals/our_terminals.html,"Marmara Mahallesi Limanlar Yolu Caddesi No:53, 34526 Beylikdüzü/Istanbul, Turkey",Marport consists of the Main Terminal and the West Terminal area.
TRIZM,,TCDD,TCDD ALSANCAK,TURKIYE CUMHURIYETI DEVLET DEMIRYOLLARI ISLETMESIGENEL MUDURLUGU (TCDD),"N 38°26'42""","E 027°09'12""",38.445,27.153333,,2004-05-31,,,,
TRIZT,TREYP,EVYAP,EVYAPPORT,EVYAPPORT LIMAN ISLETMESI A.S.,"N 40°46'25""","E 029°42'40""",40.773611,29.711111,2018-08-10,2015-11-01,,https://www.evyapport.com,"Kirazliyali, Evyap Liman Tesisleri, 41780 Körfez/Kocaeli, Turkey",
TRKSP,,ICKSP,IC KARASU PORT,IC KARASU PORT,"N 41°07'10""","E 030°40'22""",41.119444,30.672778,,2016-12-30,,http://www.karasuport.com.tr,"Yali, Bati Karadeniz Cd. No:244, 54500 Karasu/Sakarya, Turkey",
TRMER,,MIP,MERSIN INTERNATIONAL PORT (MIP),MERSIN INTERNATIONAL PORT MANAGEMENT INC. (MIP),"N 36°48'07""","E 034°38'31""",36.801944,34.641944,,2004-05-31,,https://en.mersinport.com.tr/,,
TRYAR,,DPWYAR,DP WORLD YARIMCA,DP WORLD YARIMCA LIMAN ISLETMELERI A.S.,"N 40°45'42""","E 029°44'34""",40.761667,29.742778,2020-10-01,2015-08-11,,http://www.dpworld.com.tr,"Mimar Sinan, Mehmet Akif Ersoy Cd. No:168, 41780 Körfez/Kocaeli, Turkey",
TTPOS,,PPOS,PORT OF PORT OF SPAIN,PORT OF PORT OF SPAIN,"N 10°39'15""","W 061°31'26""",10.654167,-61.523889,,2014-07-10,,,,
TTPTS,,TPTS,PORT OF POINT LISAS,PORT OF POINT LISAS,"N 10°24'28""","W 061°29'38""",10.407778,-61.493889,2020-01-24,2016-09-12,,,,
TWKEL,,WUDU,CCTC KEELUNG CONTAINER TERMINAL,CHINA CONTAINER TERMINAL CORPORATION LTD.,"N 25°08'47""","E 121°45'08""",25.146389,121.752222,2020-05-01,2004-05-31,,http://www.cctcorp.com.tw/Aboutus01.htm,"No. 56, Zhongshan 3rd Rd., Keelung 203, Taiwan","Berths W19,W20,W21."
TWKEL,,ULIC,ULIC EASTERN PORT TERMINAL,UNITED LOGISTICS INTERNATIONAL CORPORATION LTD.,"N 25°08'29""","E 121°45'17""",25.141389,121.754722,2020-05-01,2015-06-12,,http://www.ulic.com.tw/about_e_01.htm,"No. 1-5, Donghai Street, Zhongzheng District, Keelung 202, Taiwan","Berths E8,E9,E10,E11."
TWKHH,,APLKT,APL TERMINAL (W68-69),APL KAOHSIUNG TERMINAL,"N 22°33'42""","E 120°19'06""",22.561667,120.318333,2020-01-24,2014-02-06,,https://kh.twport.com.tw/en/cp.aspx?n=A89324CF49E4B7E9,"10, Yatai Road, Xiaogang District, Kaohsiung City 812, Taiwan","Container Terminal 3, Wharf 68-69"
TWKHH,,EMCKC4,EVERGREEN TERMINAL KCC4 (W115-W117),EVERGREEN MARINE CORP. (TAIWAN) LTD.,"N 22°33'31""","E 120°18'52""",22.558611,120.314444,2020-01-24,2015-02-12,,https://kh.twport.com.tw/en/cp.aspx?n=A89324CF49E4B7E9,"Pier 116, Zhongzhou, Qijin Dist., Kaohsiung City 805, Taiwan (R.O.C.)","Container Terminal 4, Wharf 115-117"
TWKHH,,EMCKC5,EVERGREEN TERMINAL KCC5 (W79-W81),EVERGREEN MARINE CORP. (TAIWAN) LTD.,"N 22°33'00""","E 120°19'55""",22.55,120.331944,2020-01-24,2015-02-12,,https://kh.twport.com.tw/en/cp.aspx?n=A89324CF49E4B7E9,"No. 68, Guanghe Rd., Xiaogang Dist., Kaohsiung City 812, Taiwan (R.O.C.)","Container Terminal 5, Wharf 79-81"
TWKHH,,HJPCT,HMM PACIFIC TERMINAL (W76-W78),"HYUNDAI MERCHANT MARINE PACIFIC CO., LTD. (TAIWAN BRANCH)","N 22°33'17""","E 120°19'40""",22.554722,120.327778,2020-01-24,2015-02-12,,https://kh.twport.com.tw/en/cp.aspx?n=A89324CF49E4B7E9,"3F, No. 6, Dong Ya South Road, Xiao Gang District, Kaohsiung 81243, Taiwan (R.O.C.)","Container Terminal 5, Wharf 76-78"
TWKHH,,HMMT,HMM TERMINAL (W118-W119),"HYUNDAI MERCHANT MARINE CO., LTD.","N 22°33'50""","E 120°18'36""",22.563889,120.31,2020-01-24,2015-02-12,,https://kh.twport.com.tw/en/cp.aspx?n=A89324CF49E4B7E9,"Pier 118/119, Container Terminal No.4, No.40, Chi-Ching 1st Road, Chi-Ching District, Kaohsiung, Taiwan.","Container Terminal 4, Wharf 118-119"
TWKHH,,KMCT,KAO MING TERMINAL (W108-W111),KAO MING CONTAINER TERMINAL CORP.,"N 22°32'43""","E 120°19'35""",22.545278,120.326389,2020-01-24,2015-02-12,,https://kh.twport.com.tw/en/cp.aspx?n=A89324CF49E4B7E9,"No. 2800, Nanxing Rd., Xiaogang Dist., Kaohsiung City 812, Taiwan (R.O.C.)","Container Terminal 6, Wharf 108-111"
TWKHH,,KHHPT,LIEN HAI TERMINAL (W42-W43),LIEN HAI TERMINAL CORP.,"N 22°36'30""","E 120°16'59""",22.608333,120.283056,2020-01-24,2015-02-12,,https://www.gccports.com/index.php?/directory-details/lien-hai-terminal-stevedoring-co-ltd,"No. 100, Dahua 2nd Rd., Qianzhen Dist., Kaohsiung City 806, Taiwan (R.O.C.)","Container Terminal 1, Wharf 42-43"
TWKHH,,KAOCT,OOCL TERMINAL (W65-W67),"OOCL (TAIWAN) CO., LTD.","N 22°34'24""","E 120°18'29""",22.573333,120.308056,2020-01-24,2015-02-12,,https://kh.twport.com.tw/en/cp.aspx?n=A89324CF49E4B7E9,"Pier 66, Yugang N. 3rd Rd., Qianzhen Dist., Kaohsiung City 806, Taiwan (R.O.C.)","Container Terminal 2, Wharf 65-67"
TWKHH,,WHLT,WAN HAI TERMINAL (W63-W64),WAN HAI LINES LTD.,"N 22°34'38""","E 120°18'18""",22.577222,120.305,2020-01-24,2015-02-12,,https://kh.twport.com.tw/en/cp.aspx?n=A89324CF49E4B7E9,"No. 18, Jhengang Rd.,Chien Chen District, 80672, Kaohsiung, Taiwan.","Container Terminal 2, Wharf 63-64"
TWKHH,,YMLT,YANG MING TERMINAL (W70),YANG MING MARINE TRANSPORT CORP.,"N 22°33'32""","E 120°19'14""",22.558889,120.320556,2020-01-24,2015-02-12,,https://www.yangming.com/About_Us/Group_Profile/Terminals/HongMing.html,"999, Xinsheng Rd, Xiaogang District, Kaohsiung 81245, Taiwan (R. O. C.)","Container Terminal 3, Wharf 70"
TZDAR,,TICTS,TANZANIA INTERNATIONAL CONTAINER TERMINAL SERVICES,TANZANIA PORT AUTHORITY - TPA,"S 06°50'23""","E 039°17'46""",-6.839722,39.296111,,2018-05-04,,https://ports.go.tz/index.php/en/ports/ports,,
UAODS,,BROOKL,BROOKLYN-KIEV PORT (BKP),"BROOKLYN-KIEV PORT, LTD","N 46°30'13""","E 030°43'50""",46.503611,30.730556,2020-02-29,2015-06-12,,https://bkport.com/en,"1 Mytna Square, Odessa 65026, Ukraine","Berths 42,43"
UAODS,,CTO,CONTAINER TERMINAL ODESSA (CTO),HHLA INTERNATIONAL GMBH,"N 46°29'20""","E 030°45'36""",46.488889,30.76,2020-04-01,2020-04-01,,http://cto.od.ua,"1 Mytna Square, Odessa 65026, Ukraine","Berths 2,1K,2K"
UAYUZ,,TISCT,TIS CONTAINER TERMINAL,TIS CONTAINER TERMINAL LTD,"N 46°39'23""","E 031°00'36""",46.656389,31.01,,2020-01-01,,http://www.tis.ua/,"O. Stavnitser St apt. 50, v. Vizyrka, 67543 Odesa reg., Ukraine",
USBAL,,DMT,DUNDALK MARINE TERMINAL,PORTS AMERICA CHESAPEAKE,"N 39°14'33""","W 076°31'31""",39.2425,-76.525278,,2015-05-07,,https://www.portsamerica.com,,
USBAL,,SMT,SEAGIRT MARINE TERMINAL,"PORTS AMERICA BALTIMORE, INC.","N 39°15'18""","W 076°32'48""",39.255,-76.546667,,2004-05-31,,https://www.portsamerica.com,,
USCHS,,NCMT,NORTH CHARLESTON MARINE TERMINAL,SOUTH CAROLINA STATE PORTS AUTHORITY,"N 32°54'15""","W 079°57'30""",32.904167,-79.958333,,2004-05-31,,http://scspa.com/locations/north-charleston-terminal/,"1000 Remount Rd North Charleston, SC 29406, USA",
USCHS,,WWMT,WANDO WELCH MARINE TERMINAL,SOUTH CAROLINA STATE PORTS AUTHORITY,"N 32°50'00""","W 079°53'27""",32.833333,-79.890833,,2004-05-31,,http://scspa.com/locations/wando-welch-terminal/,"400 Long Point Rd. Mt. Pleasant, SC 29464, USA",
USHNL,,HSP1,"HONOLULU TERMINAL, PIER 1",PASHA HAWAII,"N 21°17'51""","W 157°52'06""",21.2975,-157.868333,2020-02-29,2016-05-13,,https://www.pashahawaii.com/services/terminals/honoro-ro,"Pier 1, Forrest Avenue, Honolulu, HI 96814, USA",
USHNL,,PASHA,"HONOLULU TERMINAL, PIER 51",PASHA HAWAII,"N 21°18'48""","W 157°52'59""",21.313333,-157.883056,2020-02-29,2017-03-09,,https://www.pashahawaii.com/services/terminals/honocontainers,"Pier 51, 1601 Sand Island Parkway, Honolulu, HI 96819, USA",
USHNL,,MATS,MATSON TERMINAL,MATSON TERMINALS,"N 21°18'42""","W 157°52'42""",21.311667,-157.878333,,2004-05-31,,https://www.matson.com/matnav/ports/honolulu.html,"1411 Sand Island Pkwy, Honolulu, HI 96819, USA",
USHOU,,BCMT,BARBOURS CUT MARINE TERMINAL,PORT OF HOUSTON AUTHORITY,"N 29°40'48""","W 094°59'54""",29.68,-94.998333,,2004-05-31,,https://porthouston.com/container-terminals/barbours-cut-container-terminal/,"1515 E. Barbours Cut Boulevard, La Porte, TX 77571, USA",
USHOU,,BPTM,BAYPORT TERMINAL,PORT OF HOUSTON AUTHORITY,"N 29°36'44""","W 095°00'18""",29.612222,-95.005,2020-02-29,2015-01-29,,https://porthouston.com/container-terminals/bayport-container-terminal/,"12621 Port Road, Pasadena, TX 77586, USA",
USHOU,,JPI,JACINTOPORT,JACINTOPORT INTERNATIONAL LLC.,"N 29°44'55""","W 095°06'37""",29.748611,-95.110278,,2020-12-01,,https://www.jacintoport.com/,"16398 Jacintoport Boulevard, Houston, TX 77015, USA",
USILM,,NCSPA,PORT OF WILMINGTON TERMINAL,NORTH CAROLINA STATE PORT AUTHORITY,"N 34°11'34""","W 077°57'20""",34.192778,-77.955556,2020-02-29,2017-03-09,,https://ncports.com/port-facilities/port-of-wilmington/,"1 Shipyard Boulevard, Wilmington, NC 28401, USA",
USJAX,,BLOJX,BLOUNT ISLAND MARINE TERMINAL,JACKSONVILLE PORT AUTHORITY (JAXPORT),"N 30°23'24""","W 081°32'14""",30.39,-81.537222,2020-01-24,2015-02-05,,https://www.jaxport.com/,"9620 Dave Rawls Blvd., Jacksonville, FL 32226, USA",
USJAX,,TRAJX,"DAMES POINT MARINE TERMINAL, BERTHS 16-17","TRAPAC JACKSONVILLE, LLC","N 30°23'48""","W 081°34'05""",30.396528,-81.567972,2020-01-24,2015-02-05,,https://jacksonville.trapac.com/,"9834 New Berlin Road, Berths 16-17, Jacksonville, FL 32226, USA",
USJAX,,TMT,TALLEYRAND MARINE TERMINAL,JACKSONVILLE PORT AUTHORITY (JAXPORT),"N 30°21'18""","W 081°37'12""",30.355,-81.62,2020-01-24,2004-05-31,,https://www.jaxport.com/,"2831 Talleyrand Ave., Jacksonville, FL 32206, USA",
USLAX,,APMT,APM TERMINALS LOS ANGELES PIER 400,APM TERMINALS,"N 33°43'53""","W 118°14'55""",33.731389,-118.248611,2020-01-24,2004-05-31,,https://www.apmterminals.com/en/los-angeles,"2500 Navy Way, Berths 401-406, Terminal Island, CA 90731, USA",Berths 401-406
USLAX,,ETS,EVERPORT CONTAINER TERMINAL (ETS),"EVERPORT TERMINAL SERVICES, LTD. (ETS)","N 33°44'40""","W 118°16'19""",33.744444,-118.271944,2020-01-24,2018-12-18,,https://www.etslink.com/,"Everport Terminal Services, 389 Terminal Island Way, Terminal Island, CA 90731, USA",Berths 226-236
USLAX,,EAGLE,FENIX MARINE CONTAINER TERMINAL (FMS),FENIX MARINE SERVICES,"N 33°44'02""","W 118°15'11""",33.733889,-118.253056,2020-01-24,2015-06-24,,https://www.fenixmarineservices.com/terminal/,"614 Terminal Way, San Pedro, CA 90731, USA",Berths 302-305
USLAX,,TRAP,TRAPAC CONTAINER TERMINAL,TRAPAC LOS ANGELES,"N 33°45'58""","W 118°16'15""",33.766111,-118.270833,2020-01-24,2004-05-31,,https://losangeles.trapac.com/,"630 West Harry Bridges Blvd, Berths 136-147, Wilmington, CA 90744, USA",Berths 136-147
USLAX,,WBCT,WEST BASIN CONTAINER TERMINAL (WBCT),WEST BASIN CONTAINER TERMINAL LLC,"N 33°45'25""","W 118°16'40""",33.756944,-118.277778,2020-02-29,2017-03-09,,http://wbct.us,"2050 John S. Gibson Blvd. San Pedro, CA 90731, USA",China Shipping (WBCT-CS): berths 97-109. Yang Ming (WBCT-YM): berths 121-131.
USLAX,,YUSEN,YUSEN CONTAINER TERMINAL (YTI),YUSEN TERMINALS LLC,"N 33°45'21""","W 118°15'40""",33.755833,-118.261111,2020-01-24,2015-06-24,,https://yti.com/terminal/,"701 New Dock Street, Berths 212-225, Terminal Island, CA 90731, USA",Berths 212-225
USLGB,,ITS,ITS LONG BEACH (PIER G),INTERNATIONAL TRANSPORTATION SERVICE INC,"N 33°44'42""","W 118°11'42""",33.745,-118.195,,2020-02-01,,https://www.itslb.com/,"1281 Pier G Way, Long Beach, CA 90802, USA","Pier G, Berths G226-G236"
USLGB,,LBCT,LONG BEACH CONTAINER TERMINAL (PIER E),LONG BEACH CONTAINER TERMINAL LLC,"N 33°45'33""","W 118°12'49""",33.759167,-118.213611,2020-01-24,2018-12-01,,https://www.lbct.com/,"201 S. Pico Ave., Long Beach, CA 90802, USA","Pier E, Berths E24-E26"
USLGB,,SSAPCT,PACIFIC CONTAINER TERMINAL LONG BEACH (PIER J),PACIFIC CONTAINER TERMINAL (SSA LONG BEACH),"N 33°44'32""","W 118°11'20""",33.742222,-118.188889,,2018-12-01,,https://www.ssamarine.com/locations/pacific-container-terminal/,"1521 Pier J Ave E, Long Beach, CA 90802, USA","Pier J, Berths J243-J247, J266-J270 "
USLGB,,SSATA,SSA TERMINAL A,SSA TERMINALS LONG BEACH,"N 33°46'09""","W 118°13'56""",33.769167,-118.232222,,2014-10-03,,https://www.ssamarine.com/locations/terminal-a/,"700 Pier A Plaza, Long Beach, CA 90813, USA","Pier A, Berths A88-A96"
USLGB,,MATU,SSA TERMINAL C (MATSON),SSA TERMINALS LONG BEACH,"N 33°46'12""","W 118°13'02""",33.77,-118.217222,2020-01-24,2016-02-22,,https://www.ssamarine.com/locations/terminal-c60/,"1521 Pier C Street, Long Beach, CA 90813, USA","Pier C, Berths C60-C62"
USLGB,,TTI,TOTAL TERMINALS INTERNATIONAL (PIER T),"TOTAL TERMINALS INTERNATIONAL, LLC","N 33°45'17""","W 118°14'01""",33.754722,-118.233611,2020-01-24,2017-04-27,,http://www.totalterminals.com/,"301 Mediterranean Way, Long Beach, CA 90802, USA","Pier T, Berths T132-T140 "
USMIA,,POM,PORT OF MIAMI TERMINAL (POMTOC),PORT OF MIAMI TERMINAL OPERATING COMPANY LLC (POMTOC),"N 25°46'00""","W 080°09'29""",25.766667,-80.158056,2020-10-01,2015-09-22,,http://pomtoc.com/,"635 Australia Way, Miami, FL 33132, USA",Terminal 2
USMIA,,SML,SEABOARD MARINE TERMINAL,"SEABORD MARINE, LTD.","N 25°46'13""","W 080°10'05""",25.770278,-80.168056,,2020-12-01,,https://www.seaboardmarine.com/,"1630 Port Blvd, Miami, FL 33132, USA",Terminal 3
USMIA,,SOU,SOUTH FLORIDA CONTAINER TERMINAL (SFCT),SOUTH FLORIDA CONTAINER TERMINAL LLC (SFCT),"N 25°45'59""","W 080°09'03""",25.766389,-80.150833,2020-10-01,2015-09-22,,http://www.southfloridacontainer.com,"2299 Port Boulevard, Miami, FL 33132, USA",Terminal 1
USMOB,,APMT,APM TERMINALS MOBILE,APM TERMINALS MOBILE,"N 30°40'05""","W 088°02'02""",30.668056,-88.033889,2020-01-24,2016-05-03,,,,
USMSY,,NOLA,NAPOLEON AVENUE CONTAINER TERMINAL,"NEW ORLEANS TERMINAL, LLC","N 29°54'43""","W 090°06'26""",29.911944,-90.107222,2020-02-29,2005-09-19,,https://www.portnola.com/,"1350 Port of New Orleans Place, New Orleans, LA 70130, USA",
USNTD,,HUE,PORT HUENEME,PORT HUENEME,"N 34°08'51""","W 119°12'20""",34.1475,-119.205556,,2014-09-02,,https://www.portofhueneme.org/,"333 Ponoma Street, Port Hueneme, CA 93041, USA",
USNYC,USEWR,APMT,APM TERMINALS ELIZABETH,APM TERMINALS ELIZABETH,"N 40°39'36""","W 074°08'56""",40.66,-74.148889,2020-02-29,2016-05-03,,https://www.apmterminals.com/operations/north-america/port-elizabeth,"5080 McLester Street, Elizabeth, NJ 07207, USA",
USNYC,,GTC,GCT BAYONNE,GLOBAL CONTAINER TERMINALS,"N 40°40'21""","W 074°04'57""",40.6725,-74.0825,2017-08-04,2004-05-31,,https://globalterminalsbayonne.com,"302 Port Jersey Boulevard, Jersey City, NJ 07305, USA",
USNYC,USUYU,NYCT,GCT NEW YORK,GLOBAL CONTAINER TERMINALS,"N 40°38'27""","W 074°11'21""",40.640833,-74.189167,2019-05-29,2004-05-31,,https://globalterminalsnewyork.com,"300 Western Avenue, Staten Island, NY 10303, USA",
USNYC,,MAHER,MAHER CONTAINER TERMINAL,"MAHER TERMINALS, LLC","N 40°40'59""","W 074°09'14""",40.683056,-74.153889,2020-02-29,2014-09-15,,http://www.maherterminals.com/,"Building 1210, Corbin Street, Port Elizabeth, NJ 07201, USA",
USNYC,USEWR,PNCT,PORT NEWARK CONTAINER TERMINAL,PORTS AMERICA,"N 40°41'03""","W 074°09'02""",40.684167,-74.150556,2020-02-29,2018-10-04,,https://www.pnct.net/content/show/Facilities,"241 Calcutta Street, Port Newark, NJ 07114, USA",
USNYC,,RHCT,RED HOOK CONTAINER TERMINAL,RED HOOK TERMINALS,"N 40°41'07""","W 074°00'36""",40.685278,-74.01,,2021-03-01,,http://redhookterminals.com,"70 Hamilton Avenue, Brooklyn, NY 11231, USA",
USOAK,,B58,OAKLAND INTERNATIONAL CONTAINER TERMINAL (OICT),SSA TERMINALS,"N 37°47'47""","W 122°18'51""",37.796389,-122.314167,2020-02-29,2014-09-15,,https://www.ssamarine.com/locations/oakland-international-container-terminal/,"1717 Middle Harbor Road, Oakland, CA 94607, USA",Berths 55-59. West gate: 1999 Middle Harbor Road. East gate: 2505 Middle Harbor Road.
USOAK,,TPOAK,TRAPAC CONTAINER TERMINAL,TRAPAC,"N 37°48'36""","W 122°19'23""",37.81,-122.323056,2020-01-24,2014-09-15,,https://oakland.trapac.com/,"Berth 30-32, Oakland, CA 94607, USA",Berths 25-33
USORF,,NIT,NORFOLK INTERNATIONAL TERMINALS (NIT),VIRGINIA PORT AUTHORITY,"N 36°55'33""","W 076°19'45""",36.925833,-76.329167,,2004-05-31,,https://www.portofvirginia.com/facilities/norfolk-international-terminals-nit/,"7737 Hampton Blvd., Norfolk, VA 23505, USA",
USPDX,,PT6,PORTLAND TERMINAL 6,"ICTSI OREGON, INC","N 45°38'18""","W 122°44'48""",45.638333,-122.746667,,2004-05-31,,,,
USPEF,,FIT,FLORIDA INTERNATIONAL TERMINAL,"FLORIDA INTERNATIONAL TERMINAL, LLC","N 26°04'21""","W 080°07'00""",26.0725,-80.116667,,2004-05-31,,https://www.fitpev.com/index.php/en/,"3800 McIntosh Road, Hollywood, FL 33316, USA",
USPEF,,PET,PORT EVERGLADES TERMINAL,"PORT EVERGLADES TERMINAL, LLC","N 26°04'05""","W 080°06'57""",26.068056,-80.115833,2020-02-29,2015-09-22,,http://www.petpev.com/,"4200 McIntosh Road, Hollywood, FL 33316, USA",
USPHL,,PAMT,PACKER AVENUE MARINE TERMINAL,GREENWICH TERMINALS LLC,"N 39°54'06""","W 075°08'06""",39.901667,-75.135,,2004-05-31,,,,
USPHL,,PSAP,PSA PENN TERMINALS,PSA PENN TERMINALS LLC,"N 39°51'02""","W 075°20'26""",39.850556,-75.340556,,2021-03-01,,https://psa-pennterminals.com/,"1 Saville Avenue, Eddystone, PA 19022, USA",
USPTM,,PMT,PORTSMOUTH MARINE TERMINAL (PMT),VIRGINIA PORT AUTHORITY,"N 36°51'26""","W 076°19'29""",36.857222,-76.324722,2020-02-29,2014-09-15,,http://www.portofvirginia.com/facilities/portsmouth-marine-terminal-pmt/,"2000 Seaboard Ave, Portsmouth, VA 23707, USA",
USPTM,USORF,VIG,VIRGINIA INTERNATIONAL GATEWAY (VIG),VIRGINIA PORT AUTHORITY,"N 36°52'31""","W 076°21'00""",36.875278,-76.35,2020-02-29,2015-09-22,,http://www.portofvirginia.com/facilities/vig/,"1000 Virginia International Gateway Blvd, Portsmouth, VA 23703, USA",
USSAV,,GCMT,GARDEN CITY MARINE TERMINAL,GEORGIA PORTS AUTHORITY,"N 32°07'42""","W 081°08'24""",32.128333,-81.14,,2004-05-31,,https://gaports.com/facilities/port-of-savannah/garden-city-terminal/,"2 Main Street, Garden City, GA 31408, USA",
USSAV,,OCT,OCEAN TERMINAL SAVANNAH,GEORGIA PORTS AUTHORITY,"N 32°05'33""","W 081°06'19""",32.0925,-81.105278,,2021-03-01,,https://gaports.com/facilities/port-of-savannah/ocean-terminal/,"55 North Lathrop Ave., Savannah, GA 31401, USA",
USSEA,,SSA18,SSA TERMINAL T18,SSA TERMINALS,"N 47°34'48""","W 122°20'48""",47.58,-122.346667,,2004-05-31,,http://www.ssamarine.com/locations/terminal-18/,"1050 SW Spokane St., Seattle, WA 98134, USA",
USTIW,,PCT,PIERCE COUNTY TERMINAL (PCT),"EVERPORT TERMINAL SERVICES, LTD. (ETS)","N 47°15'12""","W 122°22'41""",47.253333,-122.378056,,2014-07-22,,http://www.etslink.com,"4015 SR-509 N. Frontage Rd., Tacoma, WA 98421, USA",
USTIW,,WUT,WASHINGTON UNITED TERMINALS (WUT),WASHINGTON UNITED TERMINALS (WUT),"N 47°15'42""","W 122°23'24""",47.261667,-122.39,,2004-05-31,,http://www.uswut.com,"1815 Port of Tacoma Rd., Tacoma, WA 98421, USA",
UYMVD,,MONTE,MONTECON SA,MONTECON SA,"S 34°54'01""","W 056°12'24""",-34.900278,-56.206667,,2004-05-31,,,,
UYMVD,,TCDP,TERMINAL CUENCA DEL PLATA SA,TERMINAL CUENCA DEL PLATA SA,"S 34°54'19""","W 056°13'13""",-34.905278,-56.220278,,2004-05-31,,,,
UYPTP,,MDP,TERMINAL PORTUARIA PUNTA PEREIRA (TPPP),MONTES DEL PLATA,"S 34°13'26""","W 058°04'27""",-34.223889,-58.074167,2020-02-29,2015-06-11,,http://www.antaresshipping.com/uruguay/punta-pereira/,,
VEGUT,,GUTGU,PUERTO DE GUANTA,PUERTO DE GUANTA,"N 10°14'45""","W 064°35'45""",10.245833,-64.595833,2020-02-29,2017-11-21,,,,
VELAG,,TECLG,TERMINAL ESPECIALIZADA DE CONTENEDORES (TEC),PUERTOS DEL LITORAL CENTRAL SA,"N 10°36'11""","W 066°56'56""",10.603056,-66.948889,2020-02-29,2017-06-09,,https://teclaguaira.com/en/terminal-of-containers-la-guaira/,,
VEPBL,,BOPBL,BOLIPUERTOS PUERTO CABELLO,"BOLIVARIANA DE PUERTOS, S.A. BOLIPUERTOS PUERTO CABELLO","N 10°28'08""","W 067°59'55""",10.468889,-67.998611,,2004-05-31,,,,
VNHPH,,CVP,CHUA VE PORT,CHUA VE PORT,"N 20°51'35""","E 106°43'45""",20.859722,106.729167,2020-02-29,2015-06-24,,https://haiphongport.com.vn,"Dong Hai, Dong Hai 1, Hai An, Haiphong, Vietnam",
VNHPH,,DINHVU,DINH VU PORT,DINH VU PORT INVESTMENT & DEVELOPMENT JOINT STOCK COMPANY,"N 20°50'30""","E 106°46'13""",20.841667,106.770278,2020-02-29,2015-06-12,,http://www.vpa.org.vn/dinh-vu-port/,,
VNHPH,,DOANXA,DOAN XA PORT,DOAN XA PORT JOINT STOCK COPORATION,"N 20°52'09""","E 106°43'05""",20.869167,106.718056,2020-02-29,2015-06-12,,http://www.vpa.org.vn/doan-xa-port/,,
VNHPH,,GREEN,GREENPORT,GREENPORT,"N 20°51'52""","E 106°43'24""",20.864444,106.723333,2020-02-29,2015-06-24,,http://greenport.com.vn,"No.1 Ngo Quyen Str., Dong Hai 1 Ward, Hai An Dist., Hai Phong City, Vietmam",
VNHPH,,HAIAN,HAI AN PORT,HAI AN PORT,"N 20°50'57""","E 106°45'12""",20.849167,106.753333,2020-02-29,2015-06-12,,https://haiants.vn/haian-port-.ltd-co-m12.html,"Dong Hai, Hai An, Haiphong, Vietnam",
VNHPH,,VNCHL,HAIPHONG INTERNATIONAL CONTAINER TERMINAL (HICT),"HAIPHONG INTERNATIONAL CONTAINER TERMINAL CO., LTD","N 20°47'57""","E 106°54'27""",20.799167,106.9075,2020-02-29,2019-04-14,,http://hict.net.vn,"Don Luong Area, Cat Hai Town, Cat Hai District, Hai Phong City, Vietnam?",
VNHPH,,NP128,HAIPHONG NEW PORT 128,HAIPHONG TAN CANG 128,"N 20°51'18""","E 106°44'23""",20.855,106.739722,2020-02-29,2015-06-12,,http://www.vpa.org.vn/hai-phong-new-port-128/,"Ha Doan, Dong Hai Ward 2, Hai An District, Hai Phong City, Vietnam",
VNHPH,,MAIN,HOANG DIEU PORT (MAIN PORT),HOANG DIEU PORT (MAIN PORT),"N 20°52'06""","E 106°41'28""",20.868333,106.691111,2020-02-29,2015-06-24,,https://www.haiphongport.com.vn/en/port-layout.nd/port-layout.html,"Bai Chay, Ha Long, Quang Ninh, Vietnam",
VNHPH,,NHDV,NAM HAI DINH VU PORT,NAM HAI DINH VU,"N 20°49'50""","E 106°47'12""",20.830556,106.786667,2020-02-29,2015-06-12,,https://www.gemadept.com.vn/business/nam-hai-dinh-vu-port-businesscate-30.html,,
VNHPH,,NAMHAI,NAM HAI PORT,NAM HAI PORT JOINT STOCK COPORATION,"N 20°52'13""","E 106°43'01""",20.870278,106.716944,2020-02-29,2015-06-12,,https://www.gemadept.com.vn/business/nam-hai-port.html,,
VNHPH,,TANVU,TAN VU PORT,TAN VU PORT-MEMBER OF HAIPHONG PORT,"N 20°50'18""","E 106°46'30""",20.838333,106.775,2020-02-29,2015-06-12,,https://haiphongport.com.vn,"DinhVu - CatHai Economic Zone, DongHai 2 ward, HaiAn district, HaiPhong city, VietNam",
VNNIH,,SVP,SOUTH VAN PHONG INTERNATIONAL PORT,THANH YEN - VAN PHONG JOINT STOCK COMPANY,"N 12°30'12""","E 109°15'53""",12.503333,109.264722,,2020-08-01,,http://www.svpp.vn,"No. 9, Nation Road 26B, Ninh Thuy Ward, Ninh Hoa Town, Khanh Hoa Province, Vietnam",
VNSGN,,CATLAI,CAT LAI TERMINAL,TAN CANG GROUP COMPANY,"N 10°45'39""","E 106°47'42""",10.760833,106.795,43890,2015-03-10,,http://tancangcaimepthivai.com.vn/en/logistics-facilities/Pages/tan-cang-cat-lai-terminal.aspx,"722 Dien Bien Phu St., Ward 22, Binh Thanh Dist., Ho Chi Minh City, Vietnam",
VNSGN,,SPCT,SAIGON PREMIER CONTAINER TERMINAL (SPCT),SAIGON PREMIER CONTAINER TERMINAL,"N 10°38'24""","E 106°45'38""",10.64,106.760556,2020-02-29,2015-03-10,,http://www.spct.vn/en/home-2/,"Lot C-17, Hiep Phuoc IP, Nha Be District, HCMC, Vietnam, Hiep Phuoc, Nha Be, Ho Chi Minh, Vietnam",
VNVUT,,CMIT,CAI MEP INTERNATIONAL TERMINAL (CMIT),"CAI MEP INTERNATIONAL TERMINAL CO., LTD.","N 10°30'53""","E 107°00'47""",10.514722,107.013056,2020-02-29,2015-03-10,,http://www.cmit.com.vn/en/home,,
VNVUT,,VNSST,SP-SSA INTERNATIONAL TERMINAL (SSIT),SSA MARINE,"N 10°30'20""","E 107°00'25""",10.505556,107.006944,2020-02-29,2019-04-14,,https://www.ssit.com.vn/,"Phuoc Loc Quarter, Phuoc Hoa Ward, Phu My Town, Ba Ria, Vung Tau Province, Vietnam",
VNVUT,,TCIT,TAN CANG - CAI MEP INTERNATIONAL TERMINAL (TCIT),"TAN CANG - CAI MEP INTERNATIONAL TERMINAL CO., LTD.","N 10°32'18""","E 107°01'44""",10.538333,107.028889,2020-02-29,2015-03-10,,https://www.tcit.com.vn/,"7th Floor, Saigon Newport Building, Tan Phuoc Ward, Phu My Town, Ba Ria, Vung Tau Province, Vietnam",
WSAPW,,POA,PORT OF APIA,SAMOA PORT AUTHORITY,"S 13°49'32""","W 171°45'44""",-13.825556,-171.762222,2020-02-29,2016-08-01,,https://www.spasamoa.ws/apia-port-facilities/main-port,,
YEADE,,ACT,ADEN CONTAINER TERMINAL,ADEN CONTAINER TERMINAL,"N 12°48'17""","E 044°59'44""",12.804722,44.995556,,2021-03-01,,http://www.portofaden.net/en/site/page/12/Aden%20Container%20Terminals,,
YEADE,,MCT,MA'ALLA CONTAINER TERMINAL,MA'ALLA CONTAINER TERMINAL,"N 12°47'50""","E 045°00'26""",12.797222,45.007222,,2021-03-01,,http://www.portofaden.net/en//site/page/13/Ma'alla%20Multipurpose%20Terminal,,
ZACPT,,TNCM,MULTI PURPOSE TERMINAL (MPT),TRANSNET PORT TERMINALS,"S 33°54'45""","E 018°25'45""",-33.9125,18.429167,2020-01-24,2015-10-09,,https://www.transnetportterminals.net/pages/default.aspx,,
ZACPT,,TNCT,TRANSNET PORT TERMINALS CAPE TOWN,TRANSNET PORT TERMINALS,"S 33°54'39""","E 018°26'59""",-33.910833,18.449722,2020-01-24,2004-05-31,,https://www.transnetportterminals.net/pages/default.aspx,,
ZADUR,,TNDRT,DURBAN RORO TERMINAL,TRANSNET PORT TERMINALS,"S 29°52'12""","E 031°02'15""",-29.87,31.0375,2020-01-24,2015-10-09,,https://www.transnetportterminals.net/pages/default.aspx,,
ZADUR,,GMWT,GRINDROD MAYDON WHARF TERMINALS,GRINDROD MAYDON WHARF TERMINALS,"S 29°53'01""","E 031°00'08""",-29.883611,31.002222,2020-01-24,2004-05-31,,https://www.transnetportterminals.net/pages/default.aspx,,
ZADUR,,TNP1,TRANSNET PORT TERMINALS DURBAN PIER 1,PIER 1 CONTAINER TERMINAL,"S 29°52'47""","E 031°01'47""",-29.879722,31.029722,,2004-05-31,,https://www.transnetportterminals.net/pages/default.aspx,,
ZADUR,,TNP2,TRANSNET PORT TERMINALS DURBAN PIER 2,DURBAN CONTAINER TERMINAL,"S 29°52'50""","E 031°01'03""",-29.880556,31.0175,,2004-05-31,,https://www.transnetportterminals.net/pages/default.aspx,,
ZANGQ,,TNNQ,TRANSNET PORT TERMINALS NGQURA,TRANSNET PORT TERMINALS,"S 33°48'02""","E 025°40'55""",-33.800556,25.681944,,2004-05-31,,https://www.transnetportterminals.net/pages/default.aspx,"Neptune Road, Port of Ngqura, Port Elizabeth, 6100, South Africa",
ZAPLZ,,TNPE,TRANSNET PORT TERMINALS PORT ELIZABETH,TRANSNET PORT TERMINALS,"S 33°57'30""","E 025°38'17""",-33.958333,25.638056,,2004-05-31,,https://www.transnetportterminals.net/pages/default.aspx,,
